Uuid,Void/Retire,Name,Description,Parent,Tags,IdentifierSourceName,Address 1,Address 2,Address 3,Address 4,Address 5,Address 6,City/Village,County/District,State/Province,Postal Code,Country,_order:1000
c1e42932-3f10-11e4-adec-0800271c1b75,yes,Ganiyari,,,,,,,,,,,,,,,,
baf7bd38-d225-11e4-9c67-080027b662ec,yes,General Ward,,,,,,,,,,,,,,,,
baf83667-d225-11e4-9c67-080027b662ec,yes,General Ward Room 1,,,,,,,,,,,,,,,,
e48fb2b3-d490-11e5-b193-0800270d80ce,yes,General Ward - Room 2,,,,,,,,,,,,,,,,
bb0e512e-d225-11e4-9c67-080027b662ec,yes,Labour Ward,,,,,,,,,,,,,,,,
bb0eb071-d225-11e4-9c67-080027b662ec,yes,Labour Ward - 1,,,,,,,,,,,,,,,,
c58e12ed-3f12-11e4-adec-0800271c1b75,yes,OPD-1,,,,,,,,,,,,,,,,
152dceda-8eba-11e9-858d-f23c91a85e57,yes,OT,,,,,,,,,,,,,,,,
c5854fd7-3f12-11e4-adec-0800271c1b75,yes,Registration Desk,,,,,,,,,,,,,,,,
8d6c993e-c2cc-11de-8d13-0010c6dffd0f,yes,Unknown Location,,,,,,,,,,,,,,,,
115a6998-4f61-4f63-8dab-d221d1bf7cd5,yes,Registration,Registration Location,,Login Location;Visit Location;Appointment Location;,,,,,,,,,,,,,
000cbaf9-14ab-42f8-ad1b-abab8baaa62b,no,ART Clinic,ART Clinic,,Login Location;Visit Location;Appointment Location;,,,,,,,,,,,,,
833903b1-7510-4f34-85c2-0f2ab8bd1519,no,PMTCT,PMTCT,,Login Location;Visit Location;Appointment Location;,,,,,,,,,,,,,
c9ae57e9-3eab-4754-b414-bfebd3665dfc,no,Pharmacy,Pharmacy Location,,Login Location;Visit Location;Appointment Location;,,,,,,,,,,,,,
f3654d0f-2352-4d1a-9b8b-d9fb4e9d0413,no,Laboratory,Laboratory Location,,Login Location;Visit Location;Appointment Location;,,,,,,,,,,,,,
,no,140th SPLA Batalion PHCU,,,Visit Location;,,,,Tambura Payam,,,,,Tambura County,Western Equatoria State,,,
,no,Abang PHCU,,,Visit Location;,,,,Abang Payam,,,,,Yirol West County,Lakes State,,,
,no,Abara PHCC,,,Visit Location;,,,,Magwi Payam,,,,,Magwi County,Eastern Equatoria State,,,
,no,Abarkou PHCU,,,Visit Location;,,,,Jiir Payam,,,,,Rumbek Centre County,Lakes State,,,
,no,Abayok PHCC,,,Visit Location;,,,,Jiir Payam,,,,,Rumbek Centre County,Upper Nile State,,,
,no,Abeer PHCU,,,Visit Location;,,,,Matangai Payam,,,,,Rumbek Centre County,Lakes State,,,
,no,Abegi PHCU,,,Visit Location;,,,,Otogo Payam,,,,,Yei County,Central Equatoria State,,,
,no,Abeyok PHCU,,,Visit Location;,,,,Turalei Payam,,,,,Twic County,Warrap State,,,
,no,Abiemnom PHCC,,,Visit Location;,,,,Abiemnom Payam,,,,,Abiemnhom County,Ruweng Administrative Area,,,
,no,Abienyai PHCU,,,Visit Location;,,,,Dethok Payam,,,,,Fashoda County,Upper Nile State,,,
,no,Abinajok PHCU,,,Visit Location;,,,,Jiir Payam,,,,,Rumbek Centre County,Lakes State,,,
,no,Abiriu PHCC,,,Visit Location;,,,,Abiriu Payam,,,,,Cueibet County,Lakes State,,,
,no,Abou PHCU,,,Visit Location;,,,,Udici Payam,,,,,Jur River County,Western Bahr El Ghazal State,,,
,no,Abukadhra PHCU,,,Visit Location;,,,,North Renk Payam,,,,,Renk County,Upper Nile State,,,
,no,Abul PHCU,,,Visit Location;,,,,Uyujuku Payam,,,,,Raga County,Western Bahr El Ghazal State,,,
,no,Aburoc PHCC,,,Visit Location;,,,,Aburoc Payam,,,,,Fashoda County,Upper Nile State,,,
,no,Aburoc PHCU,,,Visit Location;,,,,Dethok Payam,,,,,Fashoda County,Upper Nile State,,,
,no,Abushaka PHCU,,,Visit Location;,,,,Besselia Payam,,,,,Wau County,Western Bahr El Ghazal State,,,
,no,Abuyung PHCU,,,Visit Location;,,,,Abuyung Payam,,,,,Awerial County,Lakes State,,,
,no,Abyei Border Point,,,Visit Location;,,,,Amenth agouk Payam,,,,,Abyei County,Abyei Administrative Area,,,
,no,Abyei Chok PHCU,,,Visit Location;,,,,Malual East Payam,,,,,Aweil North County,Northern Bahr El Ghazal State,,,
,no,Abyei Civil HOSPITAL,,,Visit Location;,,,,Abyei Payam,,,,,Abyei County,Abyei Administrative Area,,,
,no,Abyei PHCC,,,Visit Location;,,,,Abyei Payam,,,,,Abyei County,Abyei Administrative Area,,,
,no,Achake PHCU,,,Visit Location;,,,,Lul Payam,,,,,Fashoda County,Upper Nile State,,,
,no,Achana PHCU,,,Visit Location;,,,,Achana Payam,,,,,Aweil West County,Northern Bahr El Ghazal State,,,
,no,Achana PHCU,,,Visit Location;,,,,Achana Payam,,,,,Aweil West County,Northern Bahr El Ghazal State,,,
,no,Achiek PHCU,,,Visit Location;,,,,Malueeth Payam,,,,,Rumbek North County,Lakes State,,,
,no,Achong Chong PHCC,,,Visit Location;,,,,Marial Bai Payam,,,,,Jur River County,Western Bahr El Ghazal State,,,
,no,Achot PHCU,,,Visit Location;,,,,Rocrocdong Payam,,,,,Jur River County,Western Bahr El Ghazal State,,,
,no,Acigor PHCU,,,Visit Location;,,,,Lekakedu Payam,,,,,Yirol East County,Lakes State,,,
,no,Adeba PHCU,,,Visit Location;,,,,Kurumi Payam,,,,,Lafon/Lopa County,Eastern Equatoria State,,,
,no,Aderi PHCU,,,Visit Location;,,,,Kaka Payam,,,,,Manyo County,Upper Nile State,,,
,no,Adet PHCU,,,Visit Location;,,,,Wau Bai Payam,,,,,Jur River County,Western Bahr El Ghazal State,,,
,no,Adior PHCC,,,Visit Location;,,,,Adior Payam,,,,,Yirol East County,Lakes State,,,
,no,Adir-Dir PHCU,,,Visit Location;,,,,Amongpiny Payam,,,,,Rumbek Centre County,Lakes State,,,
,no,Adodo PHCC,,,Visit Location;,,,,Kodok Payam,,,,,Fashoda County,Upper Nile State,,,
,no,Adok PHCC,,,Visit Location;,,,,Adok Payam,,,,,Leer County,Unity State,,,
,no,Adol PHCC,,,Visit Location;,,,,Atiaba Payam,,,,,Rumbek East County,Lakes State,,,
,no,Adong PHCC,,,Visit Location;,,,,Adong Payam,,,,,Baliet County,Upper Nile State,,,
,no,Adoor PHCU,,,Visit Location;,,,,Malual Bai Payam,,,,,Aweil East County,Northern Bahr El Ghazal State,,,
,no,ADRA Youth Centre PHCU,,,Visit Location;,,,,Munuki Payam,,,,,Juba County,Central Equatoria State,,,
,no,Aduel PHCC,,,Visit Location;,,,,Aduel Payam,,,,,Rumbek East County,Lakes State,,,
,no,Affa PHCU,,,Visit Location;,,,,Mambe Payam,,,,,Maridi County,Western Equatoria State,,,
,no,African Inland Church PHCC,,,Visit Location;,,,,Makuach Payam,,,,,Bor South County,Central Equatoria State,,,
,no,African Inland Church PHCC,,,Visit Location;,,,,Makuach Payam,,,,,Bor South County,Central Equatoria State,,,
,no,Agangrial PHCU,,,Visit Location;,,,,Ngap Payam,,,,,Cueibet County,Lakes State,,,
,no,Agany PHCU,,,Visit Location;,,,,Aluakluak Payam,,,,,Yirol West County,Lakes State,,,
,no,Agany Tok PHCU,,,Visit Location;,,,,Alal Payam,,,,,Abyei County,Abyei Administrative Area,,,
,no,Agei PHCU,,,Visit Location;,,,,Kuac North Payam,,,,,Gogrial West County,Warrap State,,,
,no,Agok MSF Hospital,,,Visit Location;,,,,Kuac North Payam,,,,,Gogrial West County,Abyei Administrative Area,,,
,no,Agok PHCC,,,Visit Location;,,,,Wau South Payam,,,,,Wau County,Abyei Administrative Area,,,
,no,Agok PHCC,,,Visit Location;,,,,Wau South Payam,,,,,Wau County,Abyei Administrative Area,,,
,no,Agonyakiri PHCU,,,Visit Location;,,,,Lasu Payam,,,,,Yei County,Central Equatoria State,,,
,no,Agoro PHCU,,,Visit Location;,,,,Magwi Payam,,,,,Magwi County,Eastern Equatoria State,,,
,no,Aguat PHCU,,,Visit Location;,,,,Gomjuer East Payam,,,,,Aweil West County,Northern Bahr El Ghazal State,,,
,no,Aguat PHCU,,,Visit Location;,,,,Gomjuer East Payam,,,,,Aweil West County,Northern Bahr El Ghazal State,,,
,no,Aguka PHCU,,,Visit Location;,,,,Tonj Payam,,,,,Tonj South County,Warrap State,,,
,no,Agyi PHCU,,,Visit Location;,,,,Minga Payam,,,,,Mundri East County,Western Equatoria State,,,
,no,AIC Lohutok PHCC,,,Visit Location;,,,,Lohutok Payam,,,,,Lafon/Lopa County,Eastern Equatoria State,,,
,no,Ajak Kuach PHCC,,,Visit Location;,,,,Ajak-kuac Payam,,,,,Twic County,Warrap State,,,
,no,Ajak Wol PHCU,,,Visit Location;,,,,Malual Centre Payam,,,,,Aweil North County,Northern Bahr El Ghazal State,,,
,no,Ajiep PHCU,,,Visit Location;,,,,Kuac North Payam,,,,,Gogrial West County,Warrap State,,,
,no,Ajio PHCU,,,Visit Location;,,,,Liwolo Payam,,,,,Kajo-Keji County,Central Equatoria State,,,
,no,Ajira PHCU,,,Visit Location;,,,,Kangapo Two Payam,,,,,Kajo-Keji County,Central Equatoria State,,,
,no,Ajogo PHCU,,,Visit Location;,,,,Toch North Payam,,,,,Gogrial East County,Warrap State,,,
,no,Ajok PHCU,,,Visit Location;,,,,Mariem East Payam,,,,,Aweil West County,Northern Bahr El Ghazal State,,,
,no,Ajong PHCU,,,Visit Location;,,,,Wunrok Payam,,,,,Twic County,Warrap State,,,
,no,Ajoungthok PHCU,,,Visit Location;,,,,Jamjang Payam,,,,,Pariang County,Ruweng Administrative Area,,,
,no,Ajugo PHCU,,,Visit Location;,,,,Kangi Payam,,,,,Jur River County,Western Bahr El Ghazal State,,,
,no,Ajwara PHCU,,,Visit Location;,,,,Adongo Payam,,,,,Pochalla County,Pibor Administrative Area,,,
,no,Akac PHCC,,,Visit Location;,,,,Gakrol Payam,,,,,Aweil South County,Northern Bahr El Ghazal State,,,
,no,Akak PHCC,,,Visit Location;,,,,Pannyok Payam,,,,,Twic County,Warrap State,,,
,no,Akeer (Ascom) PHCU,,,Visit Location;,,,,Ayod Payam,,,,,Ayod County,Jonglei State,,,
,no,Akier PHCU,,,Visit Location;,,,,Palal Payam,,,,,Tonj East County,Warrap State,,,
,no,Akobo HOSPITAL,,,Visit Location;,,,,Bilkey Payam,,,,,Akobo County,Jonglei State,,,
,no,Akoc PHCC,,,Visit Location;,,,,Akoc Payam,,,,,Twic County,Warrap State,,,
,no,Akoka PHCC,,,Visit Location;,,,,Akoka Payam,,,,,Akoka County,Upper Nile State,,,
,no,Akoljal PHCU,,,Visit Location;,,,,Jiir Payam,,,,,Rumbek Centre County,Lakes State,,,
,no,Akon PHCC,,,Visit Location;,,,,Akon South Payam,,,,,Gogrial West County,Warrap State,,,
,no,Akonbet PHCU,,,Visit Location;,,,,Wau Bai Payam,,,,,Jur River County,Western Bahr El Ghazal State,,,
,no,Akop PHCC,,,Visit Location;,,,,Akop Payam,,,,,Tonj North County,Warrap State,,,
,no,Akortong PHCU,,,Visit Location;,,,,Ajak-kuac Payam,,,,,Twic County,Warrap State,,,
,no,Akot PHCC,,,Visit Location;,,,,Akot Payam,,,,,Rumbek East County,Lakes State,,,
,no,Akot PHCU,,,Visit Location;,,,,Biu Payam,,,,,Pariang County,Ruweng Administrative Area,,,
,no,Akpa PHCU,,,Visit Location;,,,,Tambura Payam,,,,,Tambura County,Western Equatoria State,,,
,no,Akrok PHCU,,,Visit Location;,,,,Rocrocdong Payam,,,,,Jur River County,Western Bahr El Ghazal State,,,
,no,Akuai Deng PHCU,,,Visit Location;,,,,Jalle Payam,,,,,Bor South County,Jonglei State,,,
,no,Akuak Malual PHCU,,,Visit Location;,,,,Malual West Payam (Aweil N),,,,,Aweil North County,Northern Bahr El Ghazal State,,,
,no,Akuang Aroual PHCU,,,Visit Location;,,,,Mariem East Payam,,,,,Aweil West County,Northern Bahr El Ghazal State,,,
,no,Akuang Koc PHCU,,,Visit Location;,,,,Ayat West Payam,,,,,Aweil West County,Northern Bahr El Ghazal State,,,
,no,Akuang Koc PHCU,,,Visit Location;,,,,Ayat West Payam,,,,,Aweil West County,Northern Bahr El Ghazal State,,,
,no,Akuangkar PHCU,,,Visit Location;,,,,Chel South Payam,,,,,Aweil Centre County,Northern Bahr El Ghazal State,,,
,no,Akuem PHCC,,,Visit Location;,,,,Yargot Payam,,,,,Aweil East County,Northern Bahr El Ghazal State,,,
,no,Akurbiok PHCU,,,Visit Location;,,,,Manloor Payam,,,,,Tonj North County,Warrap State,,,
,no,Akurwa PHCU,,,Visit Location;,,,,Kaka Payam,,,,,Manyo County,Upper Nile State,,,
,no,Al Amin HOSPITAL,,,Visit Location;,,,,Juba Town Payam,,,,,Juba County,Central Equatoria State,,,
,no,Al Amin Nursing Home HOSPITAL,,,Visit Location;,,,,Juba Town Payam,,,,,Juba County,Central Equatoria State,,,
,no,Al Gabat PHCU,,,Visit Location;,,,,Wadakona Payam,,,,,Manyo County,Upper Nile State,,,
,no,Alabek PHCC,,,Visit Location;,,,,Alabek Payam,,,,,Tonj North County,Warrap State,,,
,no,Alaka PHCU,,,Visit Location;,,,,Geger Payam,,,,,Renk County,Upper Nile State,,,
,no,Alaki PHCU,,,Visit Location;,,,,Panyidwoi Payam,,,,,Panyikang County,Upper Nile State,,,
,no,Alang PHCU,,,Visit Location;,,,,Mariem East Payam,,,,,Aweil West County,Northern Bahr El Ghazal State,,,
,no,Alek PHCC,,,Visit Location;,,,,Alek South Payam,,,,,Gogrial West County,Warrap State,,,
,no,Alel PHCU,,,Visit Location;,,,,Dheteim Payam,,,,,Panyikang County,Upper Nile State,,,
,no,Alela PHCU,,,Visit Location;,,,,Atar Payam,,,,,Pigi County,Jonglei State,,,
,no,Alelchok PHCU,,,Visit Location;,,,,Marial Bai Payam,,,,,Jur River County,Western Bahr El Ghazal State,,,
,no,Alelthony PHCU,,,Visit Location;,,,,Kangi Payam,,,,,Jur River County,Western Bahr El Ghazal State,,,
,no,Aliek PHCC,,,Visit Location;,,,,Aliek Payam,,,,,Tonj North County,Warrap State,,,
,no,Aljazeira PHCC,,,Visit Location;,,,,Wau South Payam,,,,,Wau County,Western Bahr El Ghazal State,,,
,no,Alok PHCU,,,Visit Location;,,,,Bar Mayen Payam,,,,,Aweil Centre County,Northern Bahr El Ghazal State,,,
,no,Aloor PHCU,,,Visit Location;,,,,Aloor Payam,,,,,Rumbek North County,Lakes State,,,
,no,Aloto Rural PHCU,,,Visit Location;,,,,Wudabi Payam,,,,,Morobo County,Central Equatoria State,,,
,no,Aluak Luak PHCC,,,Visit Location;,,,,Aluakluak Payam,,,,,Yirol West County,Lakes State,,,
,no,Aluel Achot PHCU,,,Visit Location;,,,,Gomjuer Center Payam,,,,,Aweil West County,Northern Bahr El Ghazal State,,,
,no,Aluel Achot PHCU,,,Visit Location;,,,,Gomjuer Center Payam,,,,,Aweil West County,Northern Bahr El Ghazal State,,,
,no,Aluel PHCU,,,Visit Location;,,,,Tiar-aleit Payam,,,,,Aweil South County,Northern Bahr El Ghazal State,,,
,no,Alueth PHCU,,,Visit Location;,,,,Panthou Payam,,,,,Aweil South County,Northern Bahr El Ghazal State,,,
,no,Amacrool PHCU,,,Visit Location;,,,,Wathmuok Payam,,,,,Aweil South County,Northern Bahr El Ghazal State,,,
,no,Amadi PHCU,,,Visit Location;,,,,Amadi Payam,,,,,Mundri West County,Western Equatoria State,,,
,no,Amaki PHCU,,,Visit Location;,,,,Kozi Payam,,,,,Maridi County,Western Equatoria State,,,
,no,Amatnyang PHCU,,,Visit Location;,,,,Gomjuer East Payam,,,,,Aweil West County,Northern Bahr El Ghazal State,,,
,no,Amatnyang PHCU,,,Visit Location;,,,,Gomjuer East Payam,,,,,Aweil West County,Northern Bahr El Ghazal State,,,
,no,Amee PHCU,,,Visit Location;,,,,Magwi Payam,,,,,Magwi County,Eastern Equatoria State,,,
,no,Ameeth PHCU,,,Visit Location;,,,,Wunrok Payam,,,,,Twic County,Warrap State,,,
,no,Amenth bek HOSPITAL,,,Visit Location;,,,,Abyei Payam,,,,,Abyei County,Abyei Administrative Area,,,
,no,Amential PHCU,,,Visit Location;,,,,Awada Payam,,,,,Aweil Centre County,Northern Bahr El Ghazal State,,,
,no,Amer PHCU,,,Visit Location;,,,,Mathiang-kok Payam,,,,,Rumbek East County,Lakes State,,,
,no,Ameth Akok PHCU,,,Visit Location;,,,,Malual Bai Payam,,,,,Aweil East County,Northern Bahr El Ghazal State,,,
,no,Ameth Akok PHCU,,,Visit Location;,,,,Malual Bai Payam,,,,,Aweil East County,Northern Bahr El Ghazal State,,,
,no,Ameth Duol PHCU,,,Visit Location;,,,,Abiriu Payam,,,,,Cueibet County,Lakes State,,,
,no,Amethgolduang PHCU,,,Visit Location;,,,,Malual Bai Payam,,,,,Aweil East County,Northern Bahr El Ghazal State,,,
,no,Amiel PHCU,,,Visit Location;,,,,Dongchak Payam,,,,,Duk County,Jonglei State,,,
,no,Amiet PHCU,,,Visit Location;,,,,Amenth agouk Payam,,,,,Abyei County,Abyei Administrative Area,,,
,no,Amiru PHCU,,,Visit Location;,,,,Marguna Payam,,,,,Lafon/Lopa County,Eastern Equatoria State,,,
,no,Amok PHCU,,,Visit Location;,,,,Mayen Payam,,,,,Rumbek North County,Lakes State,,,
,no,Amongpiny PHCC,,,Visit Location;,,,,Amongpiny Payam,,,,,Rumbek Centre County,Lakes State,,,
,no,Amothic PHCU,,,Visit Location;,,,,Awulic Payam,,,,,Aweil Centre County,Northern Bahr El Ghazal State,,,
,no,Amothic PHCU,,,Visit Location;,,,,Awulic Payam,,,,,Aweil Centre County,Northern Bahr El Ghazal State,,,
,no,Ananatak PHCU,,,Visit Location;,,,,Ananatak Payam,,,,,Tonj East County,Warrap State,,,
,no,Andari PHCU,,,Visit Location;,,,,Andari Payam,,,,,Ezo County,Western Equatoria State,,,
,no,Angebi PHCU,,,Visit Location;,,,,Tore Payam,,,,,Yei County,Central Equatoria State,,,
,no,Angernger PHCU,,,Visit Location;,,,,Pathuon East Payam,,,,,Gogrial East County,Warrap State,,,
,no,Angol PHCU,,,Visit Location;,,,,Gomjuer Center Payam,,,,,Aweil West County,Northern Bahr El Ghazal State,,,
,no,Angol PHCU,,,Visit Location;,,,,Gomjuer Center Payam,,,,,Aweil West County,Northern Bahr El Ghazal State,,,
,no,Angon Lek PHCU,,,Visit Location;,,,,Ayat Center Payam,,,,,Aweil West County,Northern Bahr El Ghazal State,,,
,no,Angon Lek PHCU,,,Visit Location;,,,,Ayat Center Payam,,,,,Aweil West County,Northern Bahr El Ghazal State,,,
,no,Angui PHCU,,,Visit Location;,,,,Kuac North Payam,,,,,Gogrial West County,Warrap State,,,
,no,Anguoth PHCU,,,Visit Location;,,,,Riau Payam,,,,,Gogrial West County,Warrap State,,,
,no,Anuol PHCC,,,Visit Location;,,,,Anuol Payam,,,,,Yirol West County,Lakes State,,,
,no,Anyak PHCU,,,Visit Location;,,,,Baidit Payam,,,,,Bor South County,Jonglei State,,,
,no,Anyidi PHCC,,,Visit Location;,,,,Anyidi Payam,,,,,Bor South County,Jonglei State,,,
,no,Anyiel Cuar PHCU,,,Visit Location;,,,,Akoc Payam,,,,,Twic County,Warrap State,,,
,no,Anyiel Kuac PHCC,,,Visit Location;,,,,Turalei Payam,,,,,Twic County,Warrap State,,,
,no,Anyuopjang PHCU,,,Visit Location;,,,,Gomjuer West Payam,,,,,Aweil West County,Northern Bahr El Ghazal State,,,
,no,Anyuopjang PHCU,,,Visit Location;,,,,Gomjuer West Payam,,,,,Aweil West County,Northern Bahr El Ghazal State,,,
,no,Anzara PHCU,,,Visit Location;,,,,Nimule Payam,,,,,Magwi County,Eastern Equatoria State,,,
,no,Apoch PHCU,,,Visit Location;,,,,Udici Payam,,,,,Jur River County,Western Bahr El Ghazal State,,,
,no,Aporlang PHCU,,,Visit Location;,,,,Awuul Payam,,,,,Tonj North County,Warrap State,,,
,no,Arapi PHCU,,,Visit Location;,,,,Pageri Payam,,,,,Magwi County,Eastern Equatoria State,,,
,no,Arek PHCU,,,Visit Location;,,,,Makuach Payam,,,,,Bor South County,Jonglei State,,,
,no,Ariang PHCU,,,Visit Location;,,,,Akon South Payam,,,,,Gogrial West County,Warrap State,,,
,no,Arieth PHCU,,,Visit Location;,,,,Ariath Payam,,,,,Aweil North County,Northern Bahr El Ghazal State,,,
,no,Army PHCU,,,Visit Location;,,,,Ibba Centre Payam,,,,,Ibba County,Western Equatoria State,,,
,no,Aromo PHCU,,,Visit Location;,,,,Marguna Payam,,,,,Lafon/Lopa County,Eastern Equatoria State,,,
,no,Aroyo DTC PHCC,,,Visit Location;,,,,Aroyo Payam,,,,,Aweil Centre County,Northern Bahr El Ghazal State,,,
,no,Aru Junction PHCU,,,Visit Location;,,,,Lokiliri Payam,,,,,Juba County,Central Equatoria State,,,
,no,Aruau PHCU,,,Visit Location;,,,,Abang Payam,,,,,Yirol West County,Lakes State,,,
,no,Asanza PHCU,,,Visit Location;,,,,Yambio Town Payam,,,,,Yambio County,Western Equatoria State,,,
,no,Ascom Ayod PHCC,,,Visit Location;,,,,Kurwai Payam,,,,,Ayod County,Jonglei State,,,
,no,Aspen Medical International HOSPITAL,,,Visit Location;,,,,Northern Bari Payam,,,,,Juba County,Central Equatoria State,,,
,no,Assossa PHCU,,,Visit Location;,,,,Southern Malakal Payam,,,,,Malakal County,Upper Nile State,,,
,no,Atar PHCU,,,Visit Location;,,,,Atar Payam,,,,,Pigi County,Jonglei State,,,
,no,Ateda PHCU,,,Visit Location;,,,,Losite Payam,,,,,Ikotos County,Eastern Equatoria State,,,
,no,Athidwoi PHCC,,,Visit Location;,,,,Athidwoi Payam,,,,,Manyo County,Upper Nile State,,,
,no,Athidwoi PHCU,,,Visit Location;,,,,Athidwoi Payam,,,,,Manyo County,Upper Nile State,,,
,no,Athieng-Pool PHCU,,,Visit Location;,,,,Akop Payam,,,,,Tonj North County,Warrap State,,,
,no,Athony PHCU,,,Visit Location;,,,,Turalei Payam,,,,,Twic County,Abyei Administrative Area,,,
,no,Athony PHCU,,,Visit Location;,,,,Turalei Payam,,,,,Twic County,Abyei Administrative Area,,,
,no,Atiaba PHCU,,,Visit Location;,,,,Atiaba Payam,,,,,Rumbek East County,Lakes State,,,
,no,Atido PHCU,,,Visit Location;,,,,Udici Payam,,,,,Jur River County,Western Bahr El Ghazal State,,,
,no,Atiit PHCU,,,Visit Location;,,,,Tali Payam,,,,,Terekeka County,Central Equatoria State,,,
,no,Atuet PHCU,,,Visit Location;,,,,Malual Bai Payam,,,,,Aweil East County,Northern Bahr El Ghazal State,,,
,no,Atuk Kuel PHCU,,,Visit Location;,,,,Alek South Payam,,,,,Gogrial West County,Warrap State,,,
,no,Awac PHCU,,,Visit Location;,,,,Aduel Payam,,,,,Rumbek East County,Lakes State,,,
,no,Awada PHCC,,,Visit Location;,,,,Awada Payam,,,,,Aweil Centre County,Northern Bahr El Ghazal State,,,
,no,Awal PHCU,,,Visit Location;,,,,Rumamer Payam,,,,,Abyei County,Abyei Administrative Area,,,
,no,Awalnhom PHCU,,,Visit Location;,,,,Alal Payam,,,,,Abyei County,Abyei Administrative Area,,,
,no,Awany PHCU,,,Visit Location;,,,,Wau Bai Payam,,,,,Jur River County,Western Bahr El Ghazal State,,,
,no,Awar Piny4 PHCU,,,Visit Location;,,,,Aworpiny Payam,,,,,Abiemnhom County,Ruweng Administrative Area,,,
,no,Awarpiny PHCU,,,Visit Location;,,,,Abiemnom Payam,,,,,Abiemnhom County,Ruweng Administrative Area,,,
,no,Aweil Civil HOSPITAL,,,Visit Location;,,,,Aweil Town Payam,,,,,Aweil Centre County,Northern Bahr El Ghazal State,,,
,no,Aweng PHCC,,,Visit Location;,,,,Aweeng Payam,,,,,Twic County,Warrap State,,,
,no,Awerial PHCU,,,Visit Location;,,,,Dor Payam,,,,,Awerial County,Lakes State,,,
,no,Aweth PHCC,,,Visit Location;,,,,Kwoj Payam,,,,,Manyo County,Upper Nile State,,,
,no,Aworo/Aboroto PHCC,,,Visit Location;,,,,Lujulo Payam,,,,,Morobo County,Central Equatoria State,,,
,no,Awul PHCC,,,Visit Location;,,,,Awuul Payam,,,,,Tonj North County,Warrap State,,,
,no,Awulic PHCU,,,Visit Location;,,,,Awulic Payam,,,,,Aweil Centre County,Northern Bahr El Ghazal State,,,
,no,Awut-Wut PHCU,,,Visit Location;,,,,Nyang Payam,,,,,Gogrial East County,Warrap State,,,
,no,Ayai PHCU,,,Visit Location;,,,,Ayai Payam,,,,,Aweil South County,Lakes State,,,
,no,Ayai PHCU,,,Visit Location;,,,,Ayai Payam,,,,,Aweil South County,Lakes State,,,
,no,Ayat PHCU,,,Visit Location;,,,,Wadakona Payam,,,,,Manyo County,Upper Nile State,,,
,no,Ayien Amuol PHCU,,,Visit Location;,,,,Turalei Payam,,,,,Twic County,Warrap State,,,
,no,Ayii PHCU,,,Visit Location;,,,,Magwi Payam,,,,,Magwi County,Eastern Equatoria State,,,
,no,Ayo PHCC,,,Visit Location;,,,,Kpaile Payam,,,,,Wau County,Western Bahr El Ghazal State,,,
,no,Ayod PHCC,,,Visit Location;,,,,Pajiek Payam,,,,,Ayod County,Jonglei State,,,
,no,Ayom PHCU,,,Visit Location;,,,,Kangi Payam,,,,,Jur River County,Western Bahr El Ghazal State,,,
,no,Ayueldit PHCU,,,Visit Location;,,,,Padiet Payam,,,,,Duk County,Jonglei State,,,
,no,Baach PHCU,,,Visit Location;,,,,Baach Payam,,,,,Aweil East County,Northern Bahr El Ghazal State,,,
,no,Baakpara PHCU,,,Visit Location;,,,,Sakure Payam,,,,,Nzara County,Western Equatoria State,,,
,no,Badha Alueth PHCU,,,Visit Location;,,,,Pannyok Payam,,,,,Twic County,Warrap State,,,
,no,Bador Luit PHCU,,,Visit Location;,,,,Pannyok Payam,,,,,Twic County,Warrap State,,,
,no,Bafuka PHCU,,,Visit Location;,,,,Andari Payam,,,,,Ezo County,Western Equatoria State,,,
,no,Bagari Jedid PHCC,,,Visit Location;,,,,Wau South Payam,,,,,Wau County,Western Bahr El Ghazal State,,,
,no,Bagari Jedid PHCU,,,Visit Location;,,,,Bagari Payam,,,,,Wau County,Western Bahr El Ghazal State,,,
,no,Bagidi PHCU,,,Visit Location;,,,,Bagidi Payam,,,,,Ezo County,Western Equatoria State,,,
,no,Baguga PHCU,,,Visit Location;,,,,Yambio Town Payam,,,,,Yambio County,Western Equatoria State,,,
,no,Bahr Gel PHCU,,,Visit Location;,,,,Bargel Payam,,,,,Wulu County,Lakes State,,,
,no,Bahr Grindi PHCU,,,Visit Location;,,,,Bahr El Grindi Payam,,,,,Mvolo County,Western Equatoria State,,,
,no,Bahrgel PHCU,,,Visit Location;,,,,Malou Pec Payam,,,,,Cueibet County,Lakes State,,,
,no,Bai-chan PHCU,,,Visit Location;,,,,Akudueng Payam,,,,,Akoka County,Upper Nile State,,,
,no,Baidit PHCC,,,Visit Location;,,,,Baidit Payam,,,,,Bor South County,Jonglei State,,,
,no,Baikpa PHCU,,,Visit Location;,,,,Ezo Centre Payam,,,,,Ezo County,Western Equatoria State,,,
,no,Bakiringba PHCU,,,Visit Location;,,,,Tambura Payam,,,,,Tambura County,Western Equatoria State,,,
,no,Bakiwiri PHCU,,,Visit Location;,,,,Gangura Payam,,,,,Yambio County,Western Equatoria State,,,
,no,Bakou PHCU,,,Visit Location;,,,,Baach Payam,,,,,Aweil East County,Northern Bahr El Ghazal State,,,
,no,Baliet PHCC,,,Visit Location;,,,,Mayom Payam,,,,,Rumbek Centre County,Upper Nile State,,,
,no,Bal-Wau PHCU,,,Visit Location;,,,,Mayom Payam,,,,,Rumbek Centre County,Lakes State,,,
,no,Bam PHCU,,,Visit Location;,,,,Southern Malakal Payam,,,,,Malakal County,Upper Nile State,,,
,no,Bamani PHCU,,,Visit Location;,,,,Nabanga Payam,,,,,Ibba County,Western Equatoria State,,,
,no,Bambaraze PHCU,,,Visit Location;,,,,Bariguna Payam,,,,,Ezo County,Western Equatoria State,,,
,no,Bambu PHCU,,,Visit Location;,,,,Rii - Yubu Payam,,,,,Tambura County,Western Equatoria State,,,
,no,Bamurye PHCU,,,Visit Location;,,,,Kangapo Two Payam,,,,,Kajo-Keji County,Central Equatoria State,,,
,no,Banashowa PHCU,,,Visit Location;,,,,Banashowa Payam,,,,,Maban County,Upper Nile State,,,
,no,Banashowa PHCU,,,Visit Location;,,,,Banashowa Payam,,,,,Maban County,Upper Nile State,,,
,no,Bandala PHCU,,,Visit Location;,,,,Nagero Payam,,,,,Nagero County,Western Equatoria State,,,
,no,Bandala PHCU (Ezo),,,Visit Location;,,,,Bagidi Payam,,,,,Ezo County,Western Equatoria State,,,
,no,Bandame PHCU,,,Visit Location;,,,,Tore Payam,,,,,Yei County,Central Equatoria State,,,
,no,Banduguyo PHCU,,,Visit Location;,,,,Bariguna Payam,,,,,Ezo County,Western Equatoria State,,,
,no,Bangangai PHCU,,,Visit Location;,,,,Andari Payam,,,,,Ezo County,Western Equatoria State,,,
,no,Bangaru PHCU,,,Visit Location;,,,,Duma Payam,,,,,Nagero County,Western Equatoria State,,,
,no,Bangasu PHCC,,,Visit Location;,,,,Bangasu Payam,,,,,Yambio County,Western Equatoria State,,,
,no,Bangbang PHCU,,,Visit Location;,,,,Abiemnom Payam,,,,,Abiemnhom County,Ruweng Administrative Area,,,
,no,Banjang PHCU,,,Visit Location;,,,,Wadakona Payam,,,,,Manyo County,Upper Nile State,,,
,no,Baping PHCU,,,Visit Location;,,,,Nyuak Payam,,,,,Twic East County,Jonglei State,,,
,no,Bar Mayen PHCC,,,Visit Location;,,,,Bar Mayen Payam,,,,,Aweil Centre County,Northern Bahr El Ghazal State,,,
,no,Baragu PHCU,,,Visit Location;,,,,Andari Payam,,,,,Ezo County,Western Equatoria State,,,
,no,Barakol PHCU,,,Visit Location;,,,,Udici Payam,,,,,Jur River County,Western Bahr El Ghazal State,,,
,no,Bar-Aliap PHCU,,,Visit Location;,,,,Bar Mayen Payam,,,,,Aweil Centre County,Lakes State,,,
,no,Bar-Chol PHCU,,,Visit Location;,,,,Bar Mayen Payam,,,,,Aweil Centre County,Lakes State,,,
,no,Bari PHCU,,,Visit Location;,,,,Kotobi Payam,,,,,Mundri West County,Western Equatoria State,,,
,no,Bariabande PHCU,,,Visit Location;,,,,Bariguna Payam,,,,,Ezo County,Western Equatoria State,,,
,no,Bariak PHCU,,,Visit Location;,,,,Thol Payam,,,,,Nyirol County,Jonglei State,,,
,no,Bariguna PHCU,,,Visit Location;,,,,Bariguna Payam,,,,,Ezo County,Western Equatoria State,,,
,no,Barmach PHCU,,,Visit Location;,,,,Ulang Payam,,,,,Ulang County,Upper Nile State,,,
,no,Bartio PHCU,,,Visit Location;,,,,Kangi Payam,,,,,Jur River County,Western Bahr El Ghazal State,,,
,no,Barurud PHCU,,,Visit Location;,,,,Udici Payam,,,,,Jur River County,Western Bahr El Ghazal State,,,
,no,Baryar PHCU,,,Visit Location;,,,,Udici Payam,,,,,Jur River County,Western Bahr El Ghazal State,,,
,no,Basanabaru PHCU,,,Visit Location;,,,,Tambura Payam,,,,,Tambura County,Western Equatoria State,,,
,no,Bassan PHCU,,,Visit Location;,,,,Namutina Payam (Nagero),,,,,Nagero County,Western Equatoria State,,,
,no,Basukangbi PHCC,,,Visit Location;,,,,Basukangbi Payam,,,,,Nzara County,Western Equatoria State,,,
,no,Bau PHCU,,,Visit Location;,,,,Bar Mayen Payam,,,,,Aweil Centre County,Northern Bahr El Ghazal State,,,
,no,Bavuru PHCU,,,Visit Location;,,,,Tambura Payam,,,,,Tambura County,Western Equatoria State,,,
,no,Bazia Jedid PHCC,,,Visit Location;,,,,Wau South Payam,,,,,Wau County,Western Bahr El Ghazal State,,,
,no,Bazumbura PHCU,,,Visit Location;,,,,Yambio Town Payam,,,,,Yambio County,Western Equatoria State,,,
,no,Bazungua PHCC,,,Visit Location;,,,,Yambio Town Payam,,,,,Yambio County,Western Equatoria State,,,
,no,Bei PHCU,,,Visit Location;,,,,Kuach-deng Payam,,,,,Ayod County,Jonglei State,,,
,no,Bekat PHCU,,,Visit Location;,,,,Muni Payam,,,,,Terekeka County,Central Equatoria State,,,
,no,Bekenye PHCU,,,Visit Location;,,,,Kediba Payam,,,,,Mundri East County,Western Equatoria State,,,
,no,Belpham Military PHCC,,,Visit Location;,,,,Munuki Payam,,,,,Juba County,Central Equatoria State,,,
,no,Belwang PHCU,,,Visit Location;,,,,Pamach Payam,,,,,Longochuk County,Upper Nile State,,,
,no,Benamayo PHCC,,,Visit Location;,,,,Khor El Amer Payam,,,,,Maban County,Upper Nile State,,,
,no,"Bentiu PoC, MSF",,,Visit Location;,,,,Bentiu PoC Payam,,,,,Rubkona County,Unity State,,,
,no,"Bentiu POC, Sector 1 Clinic IOM",,,Visit Location;,,,,Bentiu PoC Payam,,,,,Rubkona County,Unity State,,,
,no,"Bentiu POC, Sector 2 World Relief PHCC",,,Visit Location;,,,,Bentiu PoC Payam,,,,,Rubkona County,Unity State,,,
,no,"Bentiu POC, Sector 4 IRC Clinic",,,Visit Location;,,,,Bentiu PoC Payam,,,,,Rubkona County,Unity State,,,
,no,"Bentiu POC, Sector 5 Clinic World Relief",,,Visit Location;,,,,Bentiu PoC Payam,,,,,Rubkona County,Unity State,,,
,no,Bentiu Sector 5,,,Visit Location;,,,,Bentiu PoC Payam,,,,,Rubkona County,Unity State,,,
,no,Bentiu State HOSPITAL,,,Visit Location;,,,,Bentiu Town Payam,,,,,Rubkona County,Unity State,,,
,no,Benzim Foki PHCU,,,Visit Location;,,,,Ri-rangu Payam,,,,,Yambio County,Western Equatoria State,,,
,no,Berber PHCU,,,Visit Location;,,,,Kangi Payam,,,,,Jur River County,Western Bahr El Ghazal State,,,
,no,Bereangburu PHCU,,,Visit Location;,,,,Sakure Payam,,,,,Nzara County,Western Equatoria State,,,
,no,Bereka PHCU,,,Visit Location;,,,,Lainya Payam,,,,,Lainya County,Central Equatoria State,,,
,no,Besellia PHCC,,,Visit Location;,,,,Besselia Payam,,,,,Wau County,Western Bahr El Ghazal State,,,
,no,Betha Saida ECS PHCC,,,Visit Location;,,,,Maridi Payam,,,,,Maridi County,Western Equatoria State,,,
,no,Betoi PHCU,,,Visit Location;,,,,Abang Payam,,,,,Yirol West County,Lakes State,,,
,no,Bhor PHCU,,,Visit Location;,,,,Bhor Payam,,,,,Mayendit County,Unity State,,,
,no,Bieh PHCU,,,Visit Location;,,,,Bieh Payam,,,,,Mayom County,Unity State,,,
,no,Biel Bar PHCU,,,Visit Location;,,,,Bentiu Town Payam,,,,,Rubkona County,Unity State,,,
,no,Bielchier PHCU,,,Visit Location;,,,,Kaljak Payam,,,,,Rubkona County,Unity State,,,
,no,Biem Khat PHCU,,,Visit Location;,,,,Ajak-kuac Payam,,,,,Twic County,Warrap State,,,
,no,Bienythiang PHCU,,,Visit Location;,,,,Akoka Payam,,,,,Akoka County,Upper Nile State,,,
,no,Biir Giik PHCU,,,Visit Location;,,,,Aweeng Payam,,,,,Twic County,Warrap State,,,
,no,Biira PHCC,,,Visit Location;,,,,Losite Payam,,,,,Ikotos County,Eastern Equatoria State,,,
,no,Bil PHCU,,,Visit Location;,,,,Niemni Payam,,,,,Guit County,Unity State,,,
,no,Bilingi PHCU,,,Visit Location;,,,,Northern Bari Payam,,,,,Juba County,Central Equatoria State,,,
,no,Bilinya PHCU,,,Visit Location;,,,,Mugali Payam,,,,,Magwi County,Eastern Equatoria State,,,
,no,Bilinyang PHCU,,,Visit Location;,,,,Mangala South Payam,,,,,Juba County,Central Equatoria State,,,
,no,Billing PHCU,,,Visit Location;,,,,Adior Payam,,,,,Yirol East County,Lakes State,,,
,no,Bimbim PHCU,,,Visit Location;,,,,Yomding Payam,,,,,Ulang County,Upper Nile State,,,
,no,Bingo PHCU,,,Visit Location;,,,,Landili Payam,,,,,Maridi County,Western Equatoria State,,,
,no,Birisi PHCU,,,Visit Location;,,,,Gangura Payam,,,,,Yambio County,Western Equatoria State,,,
,no,Bishop Duatuka PHCU,,,Visit Location;,,,,Ibba Centre Payam,,,,,Ibba County,Western Equatoria State,,,
,no,Bith PHCU,,,Visit Location;,,,,Boaw Payam,,,,,Koch County,Unity State,,,
,no,Bitti PHCU,,,Visit Location;,,,,Amadi Payam,,,,,Mundri West County,Western Equatoria State,,,
,no,Biu PHCC,,,Visit Location;,,,,Biu Payam,,,,,Pariang County,Ruweng Administrative Area,,,
,no,Boaw PHCC,,,Visit Location;,,,,Boaw Payam,,,,,Koch County,Unity State,,,
,no,Bodo PHCU,,,Visit Location;,,,,Yambio Town Payam,,,,,Yambio County,Western Equatoria State,,,
,no,Bogori PHCU,,,Visit Location;,,,,Bagori Payam,,,,,Mvolo County,Western Equatoria State,,,
,no,Bol PHCU,,,Visit Location;,,,,Lul Payam,,,,,Fashoda County,Upper Nile State,,,
,no,Boma PHCC,,,Visit Location;,,,,Gumuruk Payam,,,,,Pibor County,Pibor Administrative Area,,,
,no,Bongki PHCU,,,Visit Location;,,,,Aliiny Payam,,,,,Pariang County,Ruweng Administrative Area,,,
,no,Bongolo PHCC,,,Visit Location;,,,,Bangolo Payam,,,,,Mundri West County,Western Equatoria State,,,
,no,Bor Prison PHCC,,,Visit Location;,,,,Bor Payam,,,,,Bor South County,Jonglei State,,,
,no,Bor State Hospital,,,Visit Location;,,,,Bor Payam,,,,,Bor South County,Jonglei State,,,
,no,Bori PHCC,,,Visit Location;,,,,Kangapo Two Payam,,,,,Kajo-Keji County,Central Equatoria State,,,
,no,Boro Boro PHCU,,,Visit Location;,,,,Liwolo Payam,,,,,Kajo-Keji County,Central Equatoria State,,,
,no,Boro Medina PHCC,,,Visit Location;,,,,Ringi Payam,,,,,Raga County,Western Bahr El Ghazal State,,,
,no,Bou PHCU,,,Visit Location;,,,,Bou Payam,,,,,Leer County,Unity State,,,
,no,Bougaya PHCU,,,Visit Location;,,,,Banashowa Payam,,,,,Maban County,Upper Nile State,,,
,no,Bouth PHCU,,,Visit Location;,,,,Kuerbone Payam,,,,,Mayom County,Unity State,,,
,no,Bringi PHCU,,,Visit Location;,,,,Bagari Payam,,,,,Wau County,Western Bahr El Ghazal State,,,
,no,Buagyi PHCU,,,Visit Location;,,,,Lozoh Payam,,,,,Mundri East County,Western Equatoria State,,,
,no,Budaang PHCU,,,Visit Location;,,,,Budaang Payam,,,,,Rubkona County,Unity State,,,
,no,Buko PHCU,,,Visit Location;,,,,Tijor Payam,,,,,Juba County,Central Equatoria State,,,
,no,Bule PHCU,,,Visit Location;,,,,Longiro Payam,,,,,Lafon/Lopa County,Eastern Equatoria State,,,
,no,Bulyom PHCU,,,Visit Location;,,,,Aweeng Payam,,,,,Twic County,Warrap State,,,
,no,Bunagok PHCC,,,Visit Location;,,,,Bunangok Payam,,,,,Awerial County,Lakes State,,,
,no,Bungu PHCU,,,Visit Location;,,,,Bungu Payam,,,,,Juba County,Central Equatoria State,,,
,no,Bunj HOSPITAL,,,Visit Location;,,,,Bunj Payam,,,,,Maban County,Upper Nile State,,,
,no,Bunj RI PHCC,,,Visit Location;,,,,Bunj Payam,,,,,Maban County,Upper Nile State,,,
,no,Buom/Kolapach PHCU,,,Visit Location;,,,,Mareang Payam,,,,,Fangak County,Jonglei State,,,
,no,Buong PHCC,,,Visit Location;,,,,Buong Payam,,,,,Akobo County,Jonglei State,,,
,no,Buoth PHCU,,,Visit Location;,,,,Pakur Payam,,,,,Koch County,Unity State,,,
,no,Bur Mutaram PHCU,,,Visit Location;,,,,Bur Payam,,,,,Torit County,Eastern Equatoria State,,,
,no,Bura PHCU,,,Visit Location;,,,,Marguna Payam,,,,,Lafon/Lopa County,Central Equatoria State,,,
,no,Bura PHCU,,,Visit Location;,,,,Marguna Payam,,,,,Lafon/Lopa County,Central Equatoria State,,,
,no,Burezigbo PHCU,,,Visit Location;,,,,Bangasu Payam,,,,,Yambio County,Western Equatoria State,,,
,no,Burmath PHCU,,,Visit Location;,,,,Nyandit Payam,,,,,Akobo County,Jonglei State,,,
,no,Bushara PHCU,,,Visit Location;,,,,Wadakona Payam,,,,,Manyo County,Upper Nile State,,,
,no,Bussere PHCC,,,Visit Location;,,,,Bagari Payam,,,,,Wau County,Western Bahr El Ghazal State,,,
,no,Camp Fifteen Military PHCU,,,Visit Location;,,,,Loriyok Payam,,,,,Budi County,Eastern Equatoria State,,,
,no,Canal PHCC,,,Visit Location;,,,,Mareng Payam,,,,,Pigi County,Jonglei State,,,
,no,Canning Factory PHCU,,,Visit Location;,,,,Wau South Payam,,,,,Wau County,Western Bahr El Ghazal State,,,
,no,Catholic Church PHCC,,,Visit Location;,,,,Wadakona Payam,,,,,Manyo County,Upper Nile State,,,
,no,Chahare PHCU,,,Visit Location;,,,,Lomohidang North Payam,,,,,Ikotos County,Eastern Equatoria State,,,
,no,Chalamini PHCU,,,Visit Location;,,,,Hiyala Payam,,,,,Torit County,Eastern Equatoria State,,,
,no,Chalek PHCU,,,Visit Location;,,,,Malual East Payam,,,,,Aweil North County,Northern Bahr El Ghazal State,,,
,no,Chamanguoi PHCU,,,Visit Location;,,,,Chel South Payam,,,,,Aweil Centre County,Northern Bahr El Ghazal State,,,
,no,Chawa PHCU,,,Visit Location;,,,,Napak Payam,,,,,Budi County,Eastern Equatoria State,,,
,no,Chelcou PHCC,,,Visit Location;,,,,Gomjuer West Payam,,,,,Aweil West County,Northern Bahr El Ghazal State,,,
,no,Chelcou PHCC,,,Visit Location;,,,,Gomjuer West Payam,,,,,Aweil West County,Northern Bahr El Ghazal State,,,
,no,Chemmedi PHCC,,,Visit Location;,,,,Chemmedi Payam,,,,,Renk County,Upper Nile State,,,
,no,Chiban PHCU,,,Visit Location;,,,,Nyandit Payam,,,,,Akobo County,Jonglei State,,,
,no,ChinaFriendship HOSPITAL,,,Visit Location;,,,,Juba Town Payam,,,,,Juba County,Central Equatoria State,,,
,no,Chitchok PHCC,,,Visit Location;,,,,Malou Pec Payam,,,,,Cueibet County,Lakes State,,,
,no,Chitchok PHCC,,,Visit Location;,,,,Malou Pec Payam,,,,,Cueibet County,Lakes State,,,
,no,Chochoro PHCU,,,Visit Location;,,,,Kozi Payam,,,,,Maridi County,Western Equatoria State,,,
,no,Chol Yiel PHCU,,,Visit Location;,,,,Kuach Payam,,,,,Guit County,Unity State,,,
,no,Chono PHCU,,,Visit Location;,,,,Kuajiena Payam,,,,,Jur River County,Western Bahr El Ghazal State,,,
,no,Choroi PHCU,,,Visit Location;,,,,Paringa Payam,,,,,Kapoeta North County,Eastern Equatoria State,,,
,no,Chorokol PHCU,,,Visit Location;,,,,Lomohidang South Payam,,,,,Ikotos County,Eastern Equatoria State,,,
,no,Chot Lual PHCU,,,Visit Location;,,,,Guelguk Payam,,,,,Longochuk County,Upper Nile State,,,
,no,Chotbora PHCU,,,Visit Location;,,,,Old Fangak Payam,,,,,Fangak County,Jonglei State,,,
,no,Chuai PHCU,,,Visit Location;,,,,Atar Payam,,,,,Pigi County,Jonglei State,,,
,no,Chuil PHCC,,,Visit Location;,,,,Chuil Payam,,,,,Nyirol County,Jonglei State,,,
,no,Chuk PHCU,,,Visit Location;,,,,Tiap Payam,,,,,Panyijar County,Unity State,,,
,no,Chukudum HOSPITAL,,,Visit Location;,,,,Komori Payam,,,,,Budi County,Eastern Equatoria State,,,
,no,Chumakori PHCU,,,Visit Location;,,,,Chumakori Payam,,,,,Kapoeta North County,Eastern Equatoria State,,,
,no,Chuoke PHCU,,,Visit Location;,,,,Guit Payam,,,,,Guit County,Unity State,,,
,no,Churri PHCC,,,Visit Location;,,,,Boma Payam,,,,,Pibor County,Pibor Administrative Area,,,
,no,Chutbora PHCC,,,Visit Location;,,,,Guelguk Payam,,,,,Longochuk County,Upper Nile State,,,
,no,Coloc-Cok PHCU,,,Visit Location;,,,,Matangai Payam,,,,,Rumbek Centre County,Lakes State,,,
,no,Comboni PHCU,,,Visit Location;,,,,Tali Payam,,,,,Terekeka County,Central Equatoria State,,,
,no,Cuei Keer PHCU,,,Visit Location;,,,,Kolnyang Payam,,,,,Bor South County,Jonglei State,,,
,no,Cuei-Adukan PHCU,,,Visit Location;,,,,Amongpiny Payam,,,,,Rumbek Centre County,Lakes State,,,
,no,Cueibet County Hospital,,,Visit Location;,,,,Malou Pec Payam,,,,,Cueibet County,Lakes State,,,
,no,Cueicok PHCC,,,Visit Location;,,,,Cueicok Payam,,,,,Rumbek East County,Lakes State,,,
,no,Cuei-Magon PHCU,,,Visit Location;,,,,Amongpiny Payam,,,,,Rumbek Centre County,Jonglei State,,,
,no,Cuomator PHCU,,,Visit Location;,,,,Baach Payam,,,,,Aweil East County,Northern Bahr El Ghazal State,,,
,no,Da Geneisis Hospital,,,Visit Location;,,,,Kator Payam,,,,,Juba County,Central Equatoria State,,,
,no,Dablual PHCU,,,Visit Location;,,,,Dablual Payam,,,,,Mayendit County,Unity State,,,
,no,Dajok PHCC,,,Visit Location;,,,,Dajo Payam,,,,,Longochuk County,Upper Nile State,,,
,no,Dakjim PHCU,,,Visit Location;,,,,Aroyo Payam,,,,,Aweil Centre County,Northern Bahr El Ghazal State,,,
,no,Daktek PHCU,,,Visit Location;,,,,Boma Payam,,,,,Pibor County,Pibor Administrative Area,,,
,no,Dangaji PHCU,,,Visit Location;,,,,Banashowa Payam,,,,,Maban County,Upper Nile State,,,
,no,Dangu PHCU,,,Visit Location;,,,,Namutina Payam (Nagero),,,,,Nagero County,Western Equatoria State,,,
,no,Daniel Comboni HOSPITAL,,,Visit Location;,,,,Wau South Payam,,,,,Wau County,Western Bahr El Ghazal State,,,
,no,Dari PHCU,,,Visit Location;,,,,Dari Payam,,,,,Mvolo County,Central Equatoria State,,,
,no,Dari PHCU,,,Visit Location;,,,,Dari Payam,,,,,Mvolo County,Central Equatoria State,,,
,no,Degere PHCU,,,Visit Location;,,,,Ezo Centre Payam,,,,,Ezo County,Western Equatoria State,,,
,no,Deim Zubeir PHCC,,,Visit Location;,,,,Uyujuku Payam,,,,,Raga County,Western Bahr El Ghazal State,,,
,no,Deimjallab PHCU,,,Visit Location;,,,,Ringi Payam,,,,,Raga County,Western Bahr El Ghazal State,,,
,no,Dekom PHCU,,,Visit Location;,,,,Mayom Payam (Mayom),,,,,Panyijar County,Unity State,,,
,no,Delal Ajak PHCU,,,Visit Location;,,,,Kwoj Payam,,,,,Manyo County,Upper Nile State,,,
,no,Deleba PHCU,,,Visit Location;,,,,Raga Payam,,,,,Raga County,Western Bahr El Ghazal State,,,
,no,Deng Nhial PHCU,,,Visit Location;,,,,Rumbek Town Payam,,,,,Rumbek Centre County,Lakes State,,,
,no,Dera PHCU,,,Visit Location;,,,,Bentiu Town Payam,,,,,Rubkona County,Unity State,,,
,no,Detang PHCU,,,Visit Location;,,,,Lelo Payam,,,,,Malakal County,Upper Nile State,,,
,no,Deteku PHCU,,,Visit Location;,,,,Domoloto Payam,,,,,Wulu County,Lakes State,,,
,no,Detwok PHCU,,,Visit Location;,,,,Dethok Payam,,,,,Fashoda County,Upper Nile State,,,
,no,Dhekdhek PHCU,,,Visit Location;,,,,Kiech Kuon Payam,,,,,Luakpiny/Nasir County,Upper Nile State,,,
,no,Dhekou PHCU,,,Visit Location;,,,,Kangi Payam,,,,,Jur River County,Western Bahr El Ghazal State,,,
,no,Dhiau Agal PHCU,,,Visit Location;,,,,Akoc Payam,,,,,Twic County,Warrap State,,,
,no,Dhiau-Kuei PHCU,,,Visit Location;,,,,Aduel Payam,,,,,Rumbek East County,Lakes State,,,
,no,Dhor Manyang PHCU,,,Visit Location;,,,,Ganyliel Payam,,,,,Panyijar County,Unity State,,,
,no,Dhor Manyang PHCU,,,Visit Location;,,,,Ganyliel Payam,,,,,Panyijar County,Unity State,,,
,no,Dhorek PHCU,,,Visit Location;,,,,Manajang Payam,,,,,Fangak County,Jonglei State,,,
,no,Dhourding PHCU,,,Visit Location;,,,,Nasir Payam,,,,,Luakpiny/Nasir County,Upper Nile State,,,
,no,Diabio PHCU,,,Visit Location;,,,,Naandi Payam,,,,,Ezo County,Western Equatoria State,,,
,no,Diatoro PHCU,,,Visit Location;,,,,Yambio Town Payam,,,,,Yambio County,Western Equatoria State,,,
,no,Diayanga PHCU,,,Visit Location;,,,,Nagero Payam,,,,,Nagero County,Western Equatoria State,,,
,no,Diel PHCU,,,Visit Location;,,,,Atar Payam,,,,,Pigi County,Jonglei State,,,
,no,Digala PHCC,,,Visit Location;,,,,Terekeka Payam,,,,,Terekeka County,Central Equatoria State,,,
,no,Diingthama PHCC,,,Visit Location;,,,,Melut Payam,,,,,Melut County,Upper Nile State,,,
,no,Diko PHCU,,,Visit Location;,,,,Bangolo Payam,,,,,Mundri West County,Western Equatoria State,,,
,no,Dilule PHCU,,,Visit Location;,,,,Bilkey Payam,,,,,Akobo County,Jonglei State,,,
,no,Dimo One PHCU,,,Visit Location;,,,,Mukaya Payam,,,,,Lainya County,Central Equatoria State,,,
,no,Dindin PHCU,,,Visit Location;,,,,Padeah Payam,,,,,Leer County,Unity State,,,
,no,Dingapai PHCU,,,Visit Location;,,,,Sangua Payam,,,,,Nzara County,Western Equatoria State,,,
,no,Dingding PHCU,,,Visit Location;,,,,Rubkotne Payam,,,,,Rubkona County,Unity State,,,
,no,Dingimo PHCU,,,Visit Location;,,,,Tambura Payam,,,,,Tambura County,Western Equatoria State,,,
,no,Dingkar PHCU,,,Visit Location;,,,,Dingkar Payam,,,,,Luakpiny/Nasir County,Upper Nile State,,,
,no,Diocese of Rumbek PHCC,,,Visit Location;,,,,Matangai Payam,,,,,Rumbek Centre County,Lakes State,,,
,no,Diror PHCU,,,Visit Location;,,,,Diror Payam,,,,,Akobo County,Jonglei State,,,
,no,dokra PHCU,,,Visit Location;,,,,Alal Payam,,,,,Abyei County,Abyei Administrative Area,,,
,no,Dokuni PHCU,,,Visit Location;,,,,Wonduruba Payam,,,,,Juba County,Central Equatoria State,,,
,no,Dokuru PHCU,,,Visit Location;,,,,Domoloto Payam,,,,,Wulu County,Lakes State,,,
,no,Doliephill PHCU,,,Visit Location;,,,,Panyidwoi Payam,,,,,Panyikang County,Upper Nile State,,,
,no,Doma PHCU,,,Visit Location;,,,,Doma Payam,,,,,Ulang County,Upper Nile State,,,
,no,Domeri PHCU,,,Visit Location;,,,,Mvolo Payam,,,,,Mvolo County,Western Equatoria State,,,
,no,Don Bosco Clinic PHCC,,,Visit Location;,,,,Maridi Payam,,,,,Maridi County,Western Equatoria State,,,
,no,Don Bosco PHCC,,,Visit Location;,,,,Rejaf Payam,,,,,Juba County,Central Equatoria State,,,
,no,Dong PHCU,,,Visit Location;,,,,Lith Payam,,,,,Twic East County,Jonglei State,,,
,no,Dongchak PHCU,,,Visit Location;,,,,Dongchak Payam,,,,,Duk County,Jonglei State,,,
,no,Dongop PHCU,,,Visit Location;,,,,Amenth agouk Payam,,,,,Abyei County,Abyei Administrative Area,,,
,no,Dor PHCU,,,Visit Location;,,,,Dor Payam,,,,,Awerial County,Lakes State,,,
,no,Doro Extension PHCU,,,Visit Location;,,,,Khor El Amer Payam,,,,,Maban County,Upper Nile State,,,
,no,Doro PHCC,,,Visit Location;,,,,Khor El Amer Payam,,,,,Maban County,Upper Nile State,,,
,no,Doro PHCU,,,Visit Location;,,,,Lozoh Payam,,,,,Mundri East County,Western Equatoria State,,,
,no,Dorok PHCU,,,Visit Location;,,,,Padiet Payam,,,,,Duk County,Jonglei State,,,
,no,Dorrolilli PHCU,,,Visit Location;,,,,Landili Payam,,,,,Maridi County,Western Equatoria State,,,
,no,Dosho PHCU,,,Visit Location;,,,,Kediba Payam,,,,,Mundri East County,Western Equatoria State,,,
,no,Duar PHCU,,,Visit Location;,,,,Kuach Payam,,,,,Guit County,Unity State,,,
,no,Duatuka PHCU,,,Visit Location;,,,,Ibba Centre Payam,,,,,Ibba County,Western Equatoria State,,,
,no,Duduma PHCU,,,Visit Location;,,,,Yambio Town Payam,,,,,Yambio County,Western Equatoria State,,,
,no,Dugdug PHCU,,,Visit Location;,,,,Geger Payam,,,,,Renk County,Upper Nile State,,,
,no,Duk Lost Boy Hospital,,,Visit Location;,,,,Payuel Payam,,,,,Duk County,Jonglei State,,,
,no,Dukudu-olo PHCC,,,Visit Location;,,,,Landili Payam,,,,,Maridi County,Western Equatoria State,,,
,no,Duma PHCU,,,Visit Location;,,,,Duma Payam,,,,,Nagero County,Western Equatoria State,,,
,no,Duong PHCC,,,Visit Location;,,,,Nyal Payam,,,,,Panyijar County,Unity State,,,
,no,Duony PHCU,,,Visit Location;,,,,Duony Payam,,,,,Cueibet County,Lakes State,,,
,no,Dura PHCU,,,Visit Location;,,,,Ulang Payam,,,,,Ulang County,Upper Nile State,,,
,no,East Bank PHCC,,,Visit Location;,,,,Rocrocdong Payam,,,,,Jur River County,Western Bahr El Ghazal State,,,
,no,EB Clinic,,,Visit Location;,,,,Munuki Payam,,,,,Juba County,Central Equatoria State,,,
,no,ECS Good Samaritan PHCC,,,Visit Location;,,,,Nzara Centre Payam,,,,,Nzara County,Western Equatoria State,,,
,no,ECS Masumbu PHCU,,,Visit Location;,,,,Ezo Centre Payam,,,,,Ezo County,Western Equatoria State,,,
,no,ECS PHCC,,,Visit Location;,,,,North Renk Payam,,,,,Renk County,Upper Nile State,,,
,no,ECS PHCU,,,Visit Location;,,,,Central Malakal Payam,,,,,Malakal County,Upper Nile State,,,
,no,El-Sabah Children HOSPITAL,,,Visit Location;,,,,Juba Town Payam,,,,,Juba County,Central Equatoria State,,,
,no,Embe PHCU,,,Visit Location;,,,,Ngamunde Payam,,,,,Maridi County,Western Equatoria State,,,
,no,EPC PHCC,,,Visit Location;,,,,Yei Town Payam,,,,,Yei County,Central Equatoria State,,,
,no,Ezo PHCC,,,Visit Location;,,,,Ezo Centre Payam,,,,,Ezo County,Western Equatoria State,,,
,no,Ezo Border Point,,,Visit Location;,,,,Ezo Centre Payam,,,,,Ezo County,Western Equatoria State,,,
,no,Ezo Hospital,,,Visit Location;,,,,Ezo Centre Payam,,,,,Ezo County,Western Equatoria State,,,
,no,Fangak HOSPITAL,,,Visit Location;,,,,Old Fangak Payam,,,,,Fangak County,Jonglei State,,,
,no,Farajala PHCU,,,Visit Location;,,,,Bagari Payam,,,,,Wau County,Western Bahr El Ghazal State,,,
,no,Fareksika PHCU,,,Visit Location;,,,,Manloor Payam,,,,,Tonj North County,Warrap State,,,
,no,Festo Maternity HOSPITAL,,,Visit Location;,,,,Munuki Payam,,,,,Juba County,Central Equatoria State,,,
,no,FRAK-SIKA PHCU,,,Visit Location;,,,,Loriyok Payam,,,,,Budi County,Eastern Equatoria State,,,
,no,Friendship Medical HOSPITAL,,,Visit Location;,,,,Juba Town Payam,,,,,Juba County,Central Equatoria State,,,
,no,Gabat PHCC,,,Visit Location;,,,,Nyalath Payam,,,,,Aweil Centre County,Northern Bahr El Ghazal State,,,
,no,Gabat PHCU,,,Visit Location;,,,,Lozoh Payam,,,,,Mundri East County,Western Equatoria State,,,
,no,Gaderu PHCC,,,Visit Location;,,,,Nyepo Payam,,,,,Kajo-Keji County,Central Equatoria State,,,
,no,Gaireng PHCU,,,Visit Location;,,,,Roam Payam,,,,,Luakpiny/Nasir County,Upper Nile State,,,
,no,Gakyuom PHCU,,,Visit Location;,,,,Makuach Payam,,,,,Bor South County,Jonglei State,,,
,no,Galdora PHCC,,,Visit Location;,,,,Galdora Payam,,,,,Melut County,Upper Nile State,,,
,no,Gamunakpe PHCU,,,Visit Location;,,,,Tambura Payam,,,,,Tambura County,Western Equatoria State,,,
,no,Gandor PHCU,,,Visit Location;,,,,Padeah Payam,,,,,Leer County,Unity State,,,
,no,Gandrassa PHCC,,,Visit Location;,,,,Jinkuata Payam,,,,,Maban County,Upper Nile State,,,
,no,Ganga PHCU,,,Visit Location;,,,,Mijak Payam,,,,,Abyei County,Abyei Administrative Area,,,
,no,Gangura PHCC,,,Visit Location;,,,,Gangura Payam,,,,,Yambio County,Western Equatoria State,,,
,no,Ganji PHCC,,,Visit Location;,,,,Ganji Payam,,,,,Juba County,Central Equatoria State,,,
,no,Gany PHCU,,,Visit Location;,,,,Gany Payam,,,,,Koch County,Unity State,,,
,no,Ganyiel PHCC,,,Visit Location;,,,,Ganyliel Payam,,,,,Panyijar County,Unity State,,,
,no,Ganzi PHCU,,,Visit Location;,,,,Mugali Payam,,,,,Magwi County,Eastern Equatoria State,,,
,no,Garia PHCU,,,Visit Location;,,,,Kotobi Payam,,,,,Mundri West County,Western Equatoria State,,,
,no,Gasm Allah PHCU,,,Visit Location;,,,,Bunj Payam,,,,,Maban County,Upper Nile State,,,
,no,Gbatanzere PHCU,,,Visit Location;,,,,Rii - Yubu Payam,,,,,Tambura County,Western Equatoria State,,,
,no,Gellachol PHCU,,,Visit Location;,,,,Gel Achiel Payam,,,,,Baliet County,Upper Nile State,,,
,no,Gemeiza PHCU,,,Visit Location;,,,,Gameiza Payam,,,,,Terekeka County,Central Equatoria State,,,
,no,Gendressa PHCC,,,Visit Location;,,,,Kangapo Two Payam,,,,,Kajo-Keji County,Central Equatoria State,,,
,no,Gentil PHCC,,,Visit Location;,,,,Jinkuata Payam,,,,,Maban County,Upper Nile State,,,
,no,Gerger PHCC,,,Visit Location;,,,,Geger Payam,,,,,Renk County,Upper Nile State,,,
,no,Geri PHCU,,,Visit Location;,,,,Wudabi Payam,,,,,Morobo County,Central Equatoria State,,,
,no,Gessboro PHCU,,,Visit Location;,,,,Ringi Payam,,,,,Raga County,Western Bahr El Ghazal State,,,
,no,Gette PHCU,,,Visit Location;,,,,Udici Payam,,,,,Jur River County,Western Bahr El Ghazal State,,,
,no,Ghabat PHCC,,,Visit Location;,,,,Juba Town Payam,,,,,Juba County,Central Equatoria State,,,
,no,Giatan PHCU,,,Visit Location;,,,,Kpaile Payam,,,,,Wau County,Western Bahr El Ghazal State,,,
,no,Gilo PHCU,,,Visit Location;,,,,Hatire Payam,,,,,Ikotos County,Eastern Equatoria State,,,
,no,Gimora PHCU,,,Visit Location;,,,,Rokon Payam,,,,,Juba County,Central Equatoria State,,,
,no,Gimunu PHCU,,,Visit Location;,,,,Yei Town Payam,,,,,Yei County,Central Equatoria State,,,
,no,Ginyabio PHCU,,,Visit Location;,,,,Kupera Payam,,,,,Lainya County,Central Equatoria State,,,
,no,Gira PHCU,,,Visit Location;,,,,Bagori Payam,,,,,Mvolo County,Western Equatoria State,,,
,no,Global Health PHCC,,,Visit Location;,,,,Northern Malakal Payam,,,,,Malakal County,Upper Nile State,,,
,no,Globany PHCU,,,Visit Location;,,,,Kodok Payam,,,,,Fashoda County,Upper Nile State,,,
,no,Gogrial PHCC,,,Visit Location;,,,,Gogrial Payam,,,,,Gogrial West County,Warrap State,,,
,no,Goja PHCU,,,Visit Location;,,,,Otogo Payam,,,,,Yei County,Central Equatoria State,,,
,no,Gok Machar PHCC,,,Visit Location;,,,,Malual North Payam,,,,,Aweil North County,Northern Bahr El Ghazal State,,,
,no,Goldhim TB PHCC,,,Visit Location;,,,,Baach Payam,,,,,Aweil East County,Northern Bahr El Ghazal State,,,
,no,Goldora IDP PHCC,,,Visit Location;,,,,Galdora Payam,,,,,Melut County,Upper Nile State,,,
,no,Goli PHCU,,,Visit Location;,,,,Tore Payam,,,,,Yei County,Central Equatoria State,,,
,no,Gollo PHCU,,,Visit Location;,,,,Kodok Payam,,,,,Fashoda County,Upper Nile State,,,
,no,Gondokoro PHCU,,,Visit Location;,,,,Gondokoro Payam,,,,,Juba County,Central Equatoria State,,,
,no,Good Sephard PHCC,,,Visit Location;,,,,Juba Town Payam,,,,,Juba County,Central Equatoria State,,,
,no,Good Shephard PHCC,,,Visit Location;,,,,Kauto Payam,,,,,Kapoeta East County,Eastern Equatoria State,,,
,no,Gor Ayak PHCU,,,Visit Location;,,,,Wunrok Payam,,,,,Twic County,Warrap State,,,
,no,Gor Ayen PHCU,,,Visit Location;,,,,Malual North Payam,,,,,Aweil North County,Northern Bahr El Ghazal State,,,
,no,Goribalau PHCU,,,Visit Location;,,,,Kotobi Payam,,,,,Mundri West County,Western Equatoria State,,,
,no,Gorom PHCC,,,Visit Location;,,,,Rejaf Payam,,,,,Juba County,Central Equatoria State,,,
,no,Gorwai PHCC,,,Visit Location;,,,,Pajiek Payam,,,,,Ayod County,Jonglei State,,,
,no,Gorwai PHCU,,,Visit Location;,,,,Manajang Payam,,,,,Fangak County,Jonglei State,,,
,no,Guangnou PHCU,,,Visit Location;,,,,Gomjuer West Payam,,,,,Aweil West County,Northern Bahr El Ghazal State,,,
,no,Guangnou PHCU,,,Visit Location;,,,,Gomjuer West Payam,,,,,Aweil West County,Northern Bahr El Ghazal State,,,
,no,Guat PHCU,,,Visit Location;,,,,Guat Payam,,,,,Leer County,Unity State,,,
,no,Guba PHCU,,,Visit Location;,,,,Wulu Payam,,,,,Wulu County,Lakes State,,,
,no,Gudele Block 4 PHCU,,,Visit Location;,,,,Munuki Payam,,,,,Juba County,Central Equatoria State,,,
,no,Gudele Surgical Home PHCU,,,Visit Location;,,,,Munuki Payam,,,,,Juba County,Central Equatoria State,,,
,no,Gudele Surgical Home Private HOSPITAL,,,Visit Location;,,,,Munuki Payam,,,,,Juba County,Central Equatoria State,,,
,no,Guelguk PHCC,,,Visit Location;,,,,Guelguk Payam,,,,,Longochuk County,Upper Nile State,,,
,no,Guit PHCC,,,Visit Location;,,,,Guit Payam,,,,,Guit County,Unity State,,,
,no,Gulmar PHCU,,,Visit Location;,,,,Bargel Payam,,,,,Wulu County,Lakes State,,,
,no,Gulu PHCU,,,Visit Location;,,,,Mundri Payam,,,,,Mundri West County,Western Equatoria State,,,
,no,Gumbo PHCC,,,Visit Location;,,,,Rejaf Payam,,,,,Juba County,Central Equatoria State,,,
,no,Gumel PHCU,,,Visit Location;,,,,Kangi Payam,,,,,Jur River County,Western Bahr El Ghazal State,,,
,no,Gumriak PHCU,,,Visit Location;,,,,Jamjang Payam,,,,,Pariang County,Ruweng Administrative Area,,,
,no,Gumuruk PHCU,,,Visit Location;,,,,Pibor Payam,,,,,Pibor County,Pibor Administrative Area,,,
,no,Gurei PHCC,,,Visit Location;,,,,Northern Bari Payam,,,,,Juba County,Central Equatoria State,,,
,no,Gurnyang PHCU,,,Visit Location;,,,,Maker Payam,,,,,Luakpiny/Nasir County,Upper Nile State,,,
,no,Guruba PHCU,,,Visit Location;,,,,Yambio Town Payam,,,,,Yambio County,Western Equatoria State,,,
,no,Gurujo PHCU,,,Visit Location;,,,,Kangapo Two Payam,,,,,Kajo-Keji County,Central Equatoria State,,,
,no,Gurulotogu PHCU,,,Visit Location;,,,,Tijor Payam,,,,,Juba County,Central Equatoria State,,,
,no,Guruvanza PHCU,,,Visit Location;,,,,Namutina Payam (Nagero),,,,,Nagero County,Western Equatoria State,,,
,no,Gusfami PHCU,,,Visit Location;,,,,Geger Payam,,,,,Renk County,Upper Nile State,,,
,no,Gwulukuk PHCU,,,Visit Location;,,,,Reggo Payam,,,,,Terekeka County,Central Equatoria State,,,
,no,HAAKUOR PHCU,,,Visit Location;,,,,Reggo Payam,,,,,Terekeka County,Unity State,,,
,no,Haat PHCU,,,Visit Location;,,,,Kiech Kuon Payam,,,,,Luakpiny/Nasir County,Jonglei State,,,
,no,Haat PHCU,,,Visit Location;,,,,Kiech Kuon Payam,,,,,Luakpiny/Nasir County,Jonglei State,,,
,no,Haba PHCU,,,Visit Location;,,,,Longiro Payam,,,,,Lafon/Lopa County,Eastern Equatoria State,,,
,no,Haforiere PHCU,,,Visit Location;,,,,Hiyala Payam,,,,,Torit County,Eastern Equatoria State,,,
,no,Hai Bafra PHCU,,,Visit Location;,,,,Wau North Payam,,,,,Wau County,Western Bahr El Ghazal State,,,
,no,Hai Dinka PHCC,,,Visit Location;,,,,Wau North Payam,,,,,Wau County,Western Bahr El Ghazal State,,,
,no,Hai Ismael Hamed PHCU,,,Visit Location;,,,,Geger Payam,,,,,Renk County,Upper Nile State,,,
,no,Hai Jebel PHCU,,,Visit Location;,,,,Munuki Payam,,,,,Juba County,Central Equatoria State,,,
,no,Hai Matar PHCU,,,Visit Location;,,,,Lekuangole Payam,,,,,Pibor County,Pibor Administrative Area,,,
,no,Hakima Yacoub PHCC,,,Visit Location;,,,,Jamjang Payam,,,,,Pariang County,Ruweng Administrative Area,,,
,no,Haliba PHCU,,,Visit Location;,,,,Ngauro Payam,,,,,Budi County,Eastern Equatoria State,,,
,no,Hamia PHCC,,,Visit Location;,,,,Yei Town Payam,,,,,Yei County,Central Equatoria State,,,
,no,Hatire PHCC,,,Visit Location;,,,,Hatire Payam,,,,,Ikotos County,Eastern Equatoria State,,,
,no,Haykur PHCU,,,Visit Location;,,,,Nyal Payam,,,,,Panyijar County,Unity State,,,
,no,Hidonge Ifura PHCU,,,Visit Location;,,,,Hiyala Payam,,,,,Torit County,Eastern Equatoria State,,,
,no,Hidonge malagit PHCU,,,Visit Location;,,,,Hiyala Payam,,,,,Torit County,Eastern Equatoria State,,,
,no,Hikpiro PHCU,,,Visit Location;,,,,Yambio Town Payam,,,,,Yambio County,Western Equatoria State,,,
,no,Hilieu PHCC,,,Visit Location;,,,,Himodonge Payam,,,,,Torit County,Eastern Equatoria State,,,
,no,Hiyala PHCC,,,Visit Location;,,,,Hiyala Payam,,,,,Torit County,Eastern Equatoria State,,,
,no,Homkor PHCU,,,Visit Location;,,,,Roam Payam,,,,,Luakpiny/Nasir County,Upper Nile State,,,
,no,Hope health Center-Pamir,,,Visit Location;,,,,Jamjang Payam,,,,,Pariang County,Ruweng Administrative Area,,,
,no,Huma PHCU,,,Visit Location;,,,,Ikotos Payam,,,,,Ikotos County,Eastern Equatoria State,,,
,no,Ibalany PHCU,,,Visit Location;,,,,Nyong Payam,,,,,Torit County,Eastern Equatoria State,,,
,no,Ibba PHCC,,,Visit Location;,,,,Ibba Centre Payam,,,,,Ibba County,Western Equatoria State,,,
,no,Ibba Prison PHCU,,,Visit Location;,,,,Ibba Centre Payam,,,,,Ibba County,Western Equatoria State,,,
,no,Ibele PHCU,,,Visit Location;,,,,Lohutok Payam,,,,,Lafon/Lopa County,Eastern Equatoria State,,,
,no,Ibonni PHCU,,,Visit Location;,,,,Lohutok Payam,,,,,Lafon/Lopa County,Eastern Equatoria State,,,
,no,Idali PHCU,,,Visit Location;,,,,Longiro Payam,,,,,Lafon/Lopa County,Eastern Equatoria State,,,
,no,IDEAS PHCU,,,Visit Location;,,,,Yambio Town Payam,,,,,Yambio County,Western Equatoria State,,,
,no,IDU,,,Visit Location;,,,,Juba Town Payam,,,,,Juba County,Central Equatoria State,,,
,no,Ifuto PHCC,,,Visit Location;,,,,Ifwotu Payam,,,,,Torit County,Eastern Equatoria State,,,
,no,Iggi PHCU,,,Visit Location;,,,,Nabanga Payam,,,,,Ibba County,Western Equatoria State,,,
,no,Igyi PHCU,,,Visit Location;,,,,Nabanga Payam,,,,,Ibba County,Western Equatoria State,,,
,no,Ikwoto PHCC,,,Visit Location;,,,,Ikotos Payam,,,,,Ikotos County,Eastern Equatoria State,,,
,no,Ilieu PHCU,,,Visit Location;,,,,Hiyala Payam,,,,,Torit County,Eastern Equatoria State,,,
,no,Iloli PHCU,,,Visit Location;,,,,Hiyala Payam,,,,,Torit County,Eastern Equatoria State,,,
,no,Ilyangiri PHCU,,,Visit Location;,,,,Lirya Payam,,,,,Juba County,Central Equatoria State,,,
,no,IMEDU PHCU,,,Visit Location;,,,,Arihilo Payam,,,,,Lafon/Lopa County,Eastern Equatoria State,,,
,no,Imedu PHCU,,,Visit Location;,,,,Arihilo Payam,,,,,Lafon/Lopa County,Eastern Equatoria State,,,
,no,Imehejek PHCC,,,Visit Location;,,,,Imehejek Payam,,,,,Lafon/Lopa County,Eastern Equatoria State,,,
,no,Imila PHCU,,,Visit Location;,,,,Hatire Payam,,,,,Ikotos County,Eastern Equatoria State,,,
,no,Imilai PHCU,,,Visit Location;,,,,Himodonge Payam,,,,,Torit County,Eastern Equatoria State,,,
,no,Imokoru PHCU,,,Visit Location;,,,,Ifwotu Payam,,,,,Torit County,Eastern Equatoria State,,,
,no,Imotong PHCC,,,Visit Location;,,,,Imotong Payam,,,,,Ikotos County,Eastern Equatoria State,,,
,no,Imuluha PHCU,,,Visit Location;,,,,Lohutok Payam,,,,,Lafon/Lopa County,Eastern Equatoria State,,,
,no,Imurok PHCU,,,Visit Location;,,,,Imurok Payam,,,,,Torit County,Eastern Equatoria State,,,
,no,Indeed Truth PHCC,,,Visit Location;,,,,Tonj Payam,,,,,Tonj South County,Warrap State,,,
,no,International HOSPITAL,,,Visit Location;,,,,Juba Town Payam,,,,,Juba County,Central Equatoria State,,,
,no,Jaac PPF PHCU,,,Visit Location;,,,,Malual West Payam (Aweil N),,,,,Aweil North County,Northern Bahr El Ghazal State,,,
,no,Jaak PHCU,,,Visit Location;,,,,Jaak Payam,,,,,Koch County,Unity State,,,
,no,Jaguar PHCU,,,Visit Location;,,,,Tharjiath Payam,,,,,Mayendit County,Unity State,,,
,no,Jak PHCU,,,Visit Location;,,,,Jak Payam,,,,,Tonj South County,Warrap State,,,
,no,Jal Awan PHCU,,,Visit Location;,,,,Awada Payam,,,,,Aweil Centre County,Northern Bahr El Ghazal State,,,
,no,Jalhak PHCC,,,Visit Location;,,,,Jalhak Payam,,,,,Renk County,Upper Nile State,,,
,no,Jalhak PHCU,,,Visit Location;,,,,Jalhak Payam,,,,,Renk County,Upper Nile State,,,
,no,Jalimo PHCC,,,Visit Location;,,,,Kangapo Two Payam,,,,,Kajo-Keji County,Central Equatoria State,,,
,no,Jalite Gikokue PHCU,,,Visit Location;,,,,Lokiliri Payam,,,,,Juba County,Central Equatoria State,,,
,no,Jalle PHCC,,,Visit Location;,,,,Jalle Payam,,,,,Bor South County,Jonglei State,,,
,no,Jamam PHCU,,,Visit Location;,,,,Jinmakda Payam,,,,,Maban County,Upper Nile State,,,
,no,Jamara PHCC,,,Visit Location;,,,,Kupera Payam,,,,,Lainya County,Central Equatoria State,,,
,no,Jamjang PHCC,,,Visit Location;,,,,Jamjang Payam,,,,,Pariang County,Ruweng Administrative Area,,,
,no,Janglou PHCU,,,Visit Location;,,,,Nyal Payam,,,,,Panyijar County,Unity State,,,
,no,Jany Low PHCU,,,Visit Location;,,,,Pachienjok Payam,,,,,Panyijar County,Unity State,,,
,no,Jarweng PHCU,,,Visit Location;,,,,Bor Payam,,,,,Bor South County,Jonglei State,,,
,no,Jaw PHCU,,,Visit Location;,,,,Pariang Payam,,,,,Pariang County,Ruweng Administrative Area,,,
,no,Jebel Kheir PHCC,,,Visit Location;,,,,Wau South Payam,,,,,Wau County,Western Bahr El Ghazal State,,,
,no,Jekow PHCU,,,Visit Location;,,,,Jekow Payam,,,,,Maiwut County,Upper Nile State,,,
,no,Jelwan PHCU,,,Visit Location;,,,,Awada Payam,,,,,Aweil Centre County,Northern Bahr El Ghazal State,,,
,no,Jerbana PHCC,,,Visit Location;,,,,Geger Payam,,,,,Renk County,Upper Nile State,,,
,no,Jie PHCU,,,Visit Location;,,,,Jie Payam,,,,,Kapoeta East County,Eastern Equatoria State,,,
,no,Jiech / Wau PHCC,,,Visit Location;,,,,Wau Payam,,,,,Ayod County,Jonglei State,,,
,no,Jieliw PHCU,,,Visit Location;,,,,Thoarnhoum Payam,,,,,Panyijar County,Unity State,,,
,no,Jikmir PHCC,,,Visit Location;,,,,Jikmir Payam,,,,,Luakpiny/Nasir County,Upper Nile State,,,
,no,Jinkuatta PHCU,,,Visit Location;,,,,Jinkuata Payam,,,,,Maban County,Upper Nile State,,,
,no,Jobem PHCU,,,Visit Location;,,,,Reggo Payam,,,,,Terekeka County,Central Equatoria State,,,
,no,Jokari PHCU,,,Visit Location;,,,,Wonduruba Payam,,,,,Juba County,Central Equatoria State,,,
,no,Jombu PHCU,,,Visit Location;,,,,Mugwo Payam,,,,,Yei County,Central Equatoria State,,,
,no,Jondale PHCU,,,Visit Location;,,,,Nyepo Payam,,,,,Kajo-Keji County,Central Equatoria State,,,
,no,Jondoki PHCC,,,Visit Location;,,,,Munuki Payam,,,,,Juba County,Central Equatoria State,,,
,no,Jongok PHCU,,,Visit Location;,,,,Longochuk Payam,,,,,Longochuk County,Upper Nile State,,,
,no,Jonkok PHCU,,,Visit Location;,,,,Rijong Payam,,,,,Terekeka County,Central Equatoria State,,,
,no,Joor Gaar PHCU,,,Visit Location;,,,,Mariem East Payam,,,,,Aweil West County,Northern Bahr El Ghazal State,,,
,no,Jotome PHCU,,,Visit Location;,,,,Jotome Payam,,,,,Maiwut County,Upper Nile State,,,
,no,Juaibor PHCC,,,Visit Location;,,,,Manajang Payam,,,,,Fangak County,Jonglei State,,,
,no,Juba Central Prison PHCC,,,Visit Location;,,,,Juba Town Payam,,,,,Juba County,Central Equatoria State,,,
,no,Juba Int Airport,,,Visit Location;,,,,Juba Town Payam,,,,,Juba County,Central Equatoria State,,,
,no,Juba Medical Complex HOSPITAL,,,Visit Location;,,,,Juba Town Payam,,,,,Juba County,Central Equatoria State,,,
,no,Juba Military HOSPITAL,,,Visit Location;,,,,Munuki Payam,,,,,Juba County,Central Equatoria State,,,
,no,Juba POC,,,Visit Location;,,,,Munuki Payam,,,,,Juba County,Central Equatoria State,,,
,no,Juba Police PHCC,,,Visit Location;,,,,Juba Town Payam,,,,,Juba County,Central Equatoria State,,,
,no,Juba Prison PHCC,,,Visit Location;,,,,Juba Town Payam,,,,,Juba County,Central Equatoria State,,,
b7d4142c-9e54-45c8-bf08-c11510307480,no,Juba Teaching HOSPITAL,Juba Teaching Hospital Location,,Login Location;Visit Location;,CES/JTH,,,Juba Town Payam,,,,,Juba County,Central Equatoria State,,,
,no,Juljok PHCC,,,Visit Location;,,,,Rumamer Payam,,,,,Abyei County,Abyei Administrative Area,,,
,no,Juong PHCU,,,Visit Location;,,,,Dok Payam,,,,,Leer County,Unity State,,,
,no,Jurbeech PHCU,,,Visit Location;,,,,Malual West Payam (Aweil N),,,,,Aweil North County,Northern Bahr El Ghazal State,,,
,no,Jurbenak PHCU,,,Visit Location;,,,,Geger Payam,,,,,Renk County,Upper Nile State,,,
,no,Kaabi PHCU,,,Visit Location;,,,,Besselia Payam,,,,,Wau County,Western Bahr El Ghazal State,,,
,no,Kacbek PHCU,,,Visit Location;,,,,Turalei Payam,,,,,Twic County,Warrap State,,,
,no,Kacuat PHCU,,,Visit Location;,,,,Malualcum Payam,,,,,Tonj East County,Warrap State,,,
,no,Kadumakuc PHCU,,,Visit Location;,,,,Nagishot Payam,,,,,Budi County,Eastern Equatoria State,,,
,no,Kagelu PHCU,,,Visit Location;,,,,Otogo Payam,,,,,Yei County,Central Equatoria State,,,
,no,Kagwada PHCU,,,Visit Location;,,,,Ganji Payam,,,,,Juba County,Central Equatoria State,,,
,no,Kaikuiny PHCC,,,Visit Location;,,,,Diror Payam,,,,,Akobo County,Jonglei State,,,
,no,Kaikuiny PHCC,,,Visit Location;,,,,Diror Payam,,,,,Akobo County,Jonglei State,,,
,no,Kajik PHCU,,,Visit Location;,,,,Ariath Payam,,,,,Aweil North County,Northern Bahr El Ghazal State,,,
,no,Kajiko PHCU,,,Visit Location;,,,,Otogo Payam,,,,,Yei County,Central Equatoria State,,,
,no,Kajo Keji Civil Hospital,,,Visit Location;,,,,Kangapo Two Payam,,,,,Kajo-Keji County,Central Equatoria State,,,
,no,Kaka PHCC,,,Visit Location;,,,,Kaka Payam,,,,,Manyo County,Upper Nile State,,,
,no,Kala PHCU,,,Visit Location;,,,,Liwolo Payam,,,,,Kajo-Keji County,Central Equatoria State,,,
,no,Kalacha PHCU,,,Visit Location;,,,,Narus Payam,,,,,Kapoeta East County,Eastern Equatoria State,,,
,no,Kalel PHCU,,,Visit Location;,,,,Pajiek Payam,,,,,Ayod County,Jonglei State,,,
,no,Kalisoni PHCU,,,Visit Location;,,,,Yire Payam,,,,,Torit County,Eastern Equatoria State,,,
,no,Kaljak PHCC,,,Visit Location;,,,,Kaljak Payam,,,,,Rubkona County,Unity State,,,
,no,Kalthok PHCU,,,Visit Location;,,,,Puluk Payam,,,,,Awerial County,Lakes State,,,
,no,Kaludo PHCU,,,Visit Location;,,,,Narus Payam,,,,,Kapoeta East County,Eastern Equatoria State,,,
,no,Kalupe PHCU,,,Visit Location;,,,,Katodori Payam,,,,,Kapoeta East County,Eastern Equatoria State,,,
,no,Kandak PHCU,,,Visit Location;,,,,Mogok Payam,,,,,Ayod County,Jonglei State,,,
,no,Kangai PHCC,,,Visit Location;,,,,Kangapo One Payam,,,,,Kajo-Keji County,Central Equatoria State,,,
,no,Kangi PHCC,,,Visit Location;,,,,Kangi Payam,,,,,Jur River County,Western Bahr El Ghazal State,,,
,no,Kangkuot PHCU,,,Visit Location;,,,,Malual Centre Payam,,,,,Aweil North County,Northern Bahr El Ghazal State,,,
,no,Kanhnhial PHCU,,,Visit Location;,,,,Malual Centre Payam,,,,,Aweil North County,Unity State,,,
,no,Kansuk PHCC,,,Visit Location;,,,,Nyepo Payam,,,,,Kajo-Keji County,Central Equatoria State,,,
,no,Kanyango PHCU,,,Visit Location;,,,,Udici Payam,,,,,Jur River County,Western Bahr El Ghazal State,,,
,no,Kanynhial PHCU,,,Visit Location;,,,,Kol Payam,,,,,Panyijar County,Unity State,,,
,no,KAP PHCU,,,Visit Location;,,,,Pagarau Payam,,,,,Yirol East County,Lakes State,,,
,no,Kapara PHCU,,,Visit Location;,,,,Kuajiena Payam,,,,,Jur River County,Western Bahr El Ghazal State,,,
,no,Kapat PHCU,,,Visit Location;,,,,Makuach Payam,,,,,Bor South County,Jonglei State,,,
,no,Kapeta PHCU,,,Visit Location;,,,,Loudo Payam,,,,,Budi County,Eastern Equatoria State,,,
,no,Kapoeta Civil Hospital,,,Visit Location;,,,,Kapoeta Town Payam,,,,,Kapoeta South County,Eastern Equatoria State,,,
,no,Kapoeta Mission Hospital,,,Visit Location;,,,,Kapoeta Town Payam,,,,,Kapoeta South County,Eastern Equatoria State,,,
,no,Karam PHCC,,,Visit Location;,,,,Karam Payam,,,,,Uror County,Jonglei State,,,
,no,Karika PHCU,,,Visit Location;,,,,Kotobi Payam,,,,,Mundri West County,Western Equatoria State,,,
,no,Karpeto PHCU,,,Visit Location;,,,,Lobonok Payam,,,,,Juba County,Central Equatoria State,,,
,no,Kasia PHCU,,,Visit Location;,,,,Bangasu Payam,,,,,Yambio County,Western Equatoria State,,,
,no,Kasiko PHCU,,,Visit Location;,,,,Lakamadi Payam,,,,,Mundri East County,Western Equatoria State,,,
,no,Kasingor PHCU,,,Visit Location;,,,,Kiziongora Payam,,,,,Pibor County,Pibor Administrative Area,,,
,no,Kasurak PHCU,,,Visit Location;,,,,Kangapo Two Payam,,,,,Kajo-Keji County,Central Equatoria State,,,
,no,Kathac PHCU,,,Visit Location;,,,,Ngauro Payam,,,,,Budi County,Eastern Equatoria State,,,
,no,Katigiri PHCC,,,Visit Location;,,,,Wonduruba Payam,,,,,Juba County,Central Equatoria State,,,
,no,Katiko PHCC,,,Visit Location;,,,,Machi I Payam,,,,,Kapoeta South County,Eastern Equatoria State,,,
,no,Kator PHCC,,,Visit Location;,,,,Kator Payam,,,,,Juba County,Central Equatoria State,,,
,no,Katta PHCU,,,Visit Location;,,,,Ringi Payam,,,,,Raga County,Western Bahr El Ghazal State,,,
,no,Kaya PHCC,,,Visit Location;,,,,Jinkuata Payam,,,,,Maban County,Central Equatoria State,,,
,no,Kaya PHCC,,,Visit Location;,,,,Jinkuata Payam,,,,,Maban County,Central Equatoria State,,,
,no,Kaya PHCU,,,Visit Location;,,,,Jinkuata Payam,,,,,Maban County,Upper Nile State,,,
,no,Kedat PHCU,,,Visit Location;,,,,Kadet Payam,,,,,Guit County,Unity State,,,
,no,Kediba PHCC,,,Visit Location;,,,,Kediba Payam,,,,,Mundri East County,Western Equatoria State,,,
,no,Keet PHCU,,,Visit Location;,,,,Alek West Payam,,,,,Gogrial West County,Warrap State,,,
,no,Keew PHCC,,,Visit Location;,,,,Phom Payam,,,,,Fangak County,Jonglei State,,,
,no,Kendila PHCU,,,Visit Location;,,,,Gulumbi Payam,,,,,Morobo County,Central Equatoria State,,,
,no,Kenyi PHCU,,,Visit Location;,,,,Kenyi Payam,,,,,Lainya County,Central Equatoria State,,,
,no,Kera PHCC,,,Visit Location;,,,,Dolo Payam,,,,,Juba County,Central Equatoria State,,,
,no,Kerepi PHCU,,,Visit Location;,,,,Pageri Payam,,,,,Magwi County,Eastern Equatoria State,,,
,no,Kerwa PHCU,,,Visit Location;,,,,Liwolo Payam,,,,,Kajo-Keji County,Central Equatoria State,,,
,no,Kharmun PHCU,,,Visit Location;,,,,Wau Payam,,,,,Ayod County,Jonglei State,,,
,no,Khiir PHCU,,,Visit Location;,,,,Lith Payam,,,,,Twic East County,Jonglei State,,,
,no,Khor Ardep PHCU,,,Visit Location;,,,,Puolchuol Payam,,,,,Uror County,Jonglei State,,,
,no,Khor Jamus PHCU,,,Visit Location;,,,,Rocrocdong Payam,,,,,Jur River County,Western Bahr El Ghazal State,,,
,no,Khor Romula/Jenduru PHCU,,,Visit Location;,,,,Rejaf Payam,,,,,Juba County,Central Equatoria State,,,
,no,Khor Tombak PHCU,,,Visit Location;,,,,Khor El Amer Payam,,,,,Maban County,Upper Nile State,,,
,no,Khoradep PHCU,,,Visit Location;,,,,Kiziongora Payam,,,,,Pibor County,Pibor Administrative Area,,,
,no,Khorfulus PHCC,,,Visit Location;,,,,Atar Payam,,,,,Pigi County,Jonglei State,,,
,no,Khorghana PHCU,,,Visit Location;,,,,Besselia Payam,,,,,Wau County,Western Bahr El Ghazal State,,,
,no,Khorhajar PHCU,,,Visit Location;,,,,Uyujuku Payam,,,,,Raga County,Western Bahr El Ghazal State,,,
,no,Khormush PHCU,,,Visit Location;,,,,Imurok Payam,,,,,Torit County,Eastern Equatoria State,,,
,no,Khorwac PHCC,,,Visit Location;,,,,Khorwac Payam,,,,,Pigi County,Jonglei State,,,
,no,Khorwac PHCU,,,Visit Location;,,,,Khorwac Payam,,,,,Pigi County,Jonglei State,,,
,no,Khorwalliang PHCC,,,Visit Location;,,,,Rejaf Payam,,,,,Juba County,Central Equatoria State,,,
,no,Kibak PHCU,,,Visit Location;,,,,Karukomuge Payam,,,,,Kapoeta North County,Eastern Equatoria State,,,
,no,Kibongorok PHCU,,,Visit Location;,,,,Ngauro Payam,,,,,Budi County,Eastern Equatoria State,,,
,no,Kicenga PHCC,,,Visit Location;,,,,Lobone Payam,,,,,Magwi County,Eastern Equatoria State,,,
,no,Kidepo PHCU,,,Visit Location;,,,,Loudo Payam,,,,,Budi County,Eastern Equatoria State,,,
,no,Kidi PHCU,,,Visit Location;,,,,Gangura Payam,,,,,Yambio County,Western Equatoria State,,,
,no,Kiechkuon PHCC,,,Visit Location;,,,,Kiech Kuon Payam,,,,,Luakpiny/Nasir County,Upper Nile State,,,
,no,Kierwan PHCU,,,Visit Location;,,,,Kiech Kuon Payam,,,,,Luakpiny/Nasir County,Upper Nile State,,,
,no,Kierwanding PHCU,,,Visit Location;,,,,Kuerenge-ke Payam,,,,,Luakpiny/Nasir County,Upper Nile State,,,
,no,Kigile PHCU,,,Visit Location;,,,,Kigile Payam,,,,,Maiwut County,Upper Nile State,,,
,no,Kigwo PHCU,,,Visit Location;,,,,Kangapo One Payam,,,,,Kajo-Keji County,Central Equatoria State,,,
,no,Kiir adem PHCU,,,Visit Location;,,,,Malual North Payam,,,,,Aweil North County,Northern Bahr El Ghazal State,,,
,no,Kiir Mayardit Woman HOSPITAL,,,Visit Location;,,,,Rumbek Town Payam,,,,,Rumbek Centre County,Lakes State,,,
,no,Kiirkakbek PHCU,,,Visit Location;,,,,Malual Centre Payam,,,,,Aweil North County,Northern Bahr El Ghazal State,,,
,no,Kikilai PHCC,,,Visit Location;,,,,Lotukei Payam,,,,,Budi County,Eastern Equatoria State,,,
,no,Kilo 15 PHCU,,,Visit Location;,,,,Geger Payam,,,,,Renk County,Upper Nile State,,,
,no,Kilo 5 PHCU,,,Visit Location;,,,,Geger Payam,,,,,Renk County,Upper Nile State,,,
,no,Kimba PHCU,,,Visit Location;,,,,Kimba Payam,,,,,Morobo County,Central Equatoria State,,,
,no,Kimotong PHCC,,,Visit Location;,,,,Kimotong Payam,,,,,Budi County,Eastern Equatoria State,,,
,no,Kimu PHCC,,,Visit Location;,,,,Munuki Payam,,,,,Juba County,Central Equatoria State,,,
,no,Kinyiba PHCC,,,Visit Location;,,,,Kangapo Two Payam,,,,,Kajo-Keji County,Central Equatoria State,,,
,no,Kinyiba PHCU,,,Visit Location;,,,,Kangapo One Payam,,,,,Kajo-Keji County,Central Equatoria State,,,
,no,Kiri PHCU,,,Visit Location;,,,,Kangapo One Payam,,,,,Kajo-Keji County,Central Equatoria State,,,
,no,Kirikwa PHCU,,,Visit Location;,,,,Lasu Payam,,,,,Yei County,Central Equatoria State,,,
,no,Kirot nyumbo PHCU,,,Visit Location;,,,,Tali Payam,,,,,Terekeka County,Central Equatoria State,,,
,no,Kirrik PHCU,,,Visit Location;,,,,Kirik Payam,,,,,Tonj North County,Warrap State,,,
,no,Kitgwang PHCU,,,Visit Location;,,,,Kitgwang Payam,,,,,Manyo County,Upper Nile State,,,
,no,Kitgwang PHCC,,,Visit Location;,,,,Kitgwang Payam,,,,,Manyo County,Upper Nile State,,,
,no,Kiu/Kiyu PHCU,,,Visit Location;,,,,Tali Payam,,,,,Terekeka County,Central Equatoria State,,,
,no,Koat Nyakong PHCU,,,Visit Location;,,,,Paguer Payam,,,,,Fangak County,Jonglei State,,,
,no,Koat PHCU,,,Visit Location;,,,,Kiech Kuon Payam,,,,,Luakpiny/Nasir County,Upper Nile State,,,
,no,Koch PHCC,,,Visit Location;,,,,Kochlual Payam,,,,,Koch County,Unity State,,,
,no,kodalok PHCU,,,Visit Location;,,,,Kuach-deng Payam,,,,,Ayod County,Jonglei State,,,
,no,Kodok Hospital,,,Visit Location;,,,,Kodok Town Payam,,,,,Fashoda County,Upper Nile State,,,
,no,Koithiey PHCU,,,Visit Location;,,,,Bentiu Town Payam,,,,,Rubkona County,Unity State,,,
,no,Kol PHCU,,,Visit Location;,,,,Kol Payam,,,,,Panyijar County,Unity State,,,
,no,Kolang PHCU,,,Visit Location;,,,,Geger Payam,,,,,Renk County,Upper Nile State,,,
,no,Kolanyang PHCU,,,Visit Location;,,,,Khorwac Payam,,,,,Pigi County,Jonglei State,,,
,no,Kolmerak PHCU,,,Visit Location;,,,,Jalle Payam,,,,,Bor South County,Jonglei State,,,
,no,Kolnyang PHCC,,,Visit Location;,,,,Kolnyang Payam,,,,,Bor South County,Jonglei State,,,
,no,Kolom PHCU,,,Visit Location;,,,,Alal Payam,,,,,Abyei County,Abyei Administrative Area,,,
,no,Kombi PHCU,,,Visit Location;,,,,Kokori Payam,,,,,Mvolo County,Western Equatoria State,,,
,no,Komiri PHCC,,,Visit Location;,,,,Komori Payam,,,,,Budi County,Eastern Equatoria State,,,
,no,Komoi PHCU,,,Visit Location;,,,,Mukaya Payam,,,,,Lainya County,Central Equatoria State,,,
,no,Konbeek PHCU,,,Visit Location;,,,,Makuach Payam,,,,,Bor South County,Jonglei State,,,
,no,Kong PHCU,,,Visit Location;,,,,Nyiel Payam,,,,,Pariang County,Ruweng Administrative Area,,,
,no,Kongor PHCC,,,Visit Location;,,,,Kongor Payam,,,,,Twic East County,Jonglei State,,,
,no,Kony PHCU,,,Visit Location;,,,,Nyandit Payam,,,,,Akobo County,Jonglei State,,,
,no,Kotobi PHCC,,,Visit Location;,,,,Kotobi Payam,,,,,Mundri West County,Western Equatoria State,,,
,no,Kowori PHCU,,,Visit Location;,,,,Rijong Payam,,,,,Terekeka County,Central Equatoria State,,,
,no,Koyoki PHCC,,,Visit Location;,,,,Wuji Payam,,,,,Lainya County,Central Equatoria State,,,
,no,Koyom Island PHCU,,,Visit Location;,,,,Padiet Payam,,,,,Duk County,Jonglei State,,,
,no,Koyoom PHCU,,,Visit Location;,,,,Dongchak Payam,,,,,Duk County,Jonglei State,,,
,no,Kozi PHCU,,,Visit Location;,,,,Kozi Payam,,,,,Maridi County,Western Equatoria State,,,
,no,Kpaila/Bazia PHCC,,,Visit Location;,,,,Kpaile Payam,,,,,Wau County,Western Bahr El Ghazal State,,,
,no,Kpasua PHCU,,,Visit Location;,,,,Nzara Centre Payam,,,,,Nzara County,Western Equatoria State,,,
,no,Kporoloo PHCU,,,Visit Location;,,,,Witto Payam,,,,,Mundri East County,Western Equatoria State,,,
,no,Krot Nyumbo PHCU,,,Visit Location;,,,,Dolo Payam,,,,,Juba County,Central Equatoria State,,,
,no,Kuach PHCC,,,Visit Location;,,,,Kuach Payam,,,,,Guit County,Unity State,,,
,no,Kuachdeng PHCU,,,Visit Location;,,,,Kuach-deng Payam,,,,,Ayod County,Jonglei State,,,
,no,Kuajena PHCC,,,Visit Location;,,,,Kuajiena Payam,,,,,Jur River County,Western Bahr El Ghazal State,,,
,no,Kuajok State HOSPITAL,,,Visit Location;,,,,Kuac North Payam,,,,,Gogrial West County,Warrap State,,,
,no,Kubi PHCU,,,Visit Location;,,,,Lokiliri Payam,,,,,Juba County,Central Equatoria State,,,
,no,kubri William PHCU,,,Visit Location;,,,,Abiriu Payam,,,,,Cueibet County,Lakes State,,,
,no,Kuda PHCC,,,Visit Location;,,,,Dolo Payam,,,,,Juba County,Central Equatoria State,,,
,no,Kuda PHCU,,,Visit Location;,,,,Nyori Payam,,,,,Terekeka County,Central Equatoria State,,,
,no,Kudaji PHCU,,,Visit Location;,,,,Lire Payam,,,,,Kajo-Keji County,Central Equatoria State,,,
,no,Kudo PHCC,,,Visit Location;,,,,Kudo Payam,,,,,Torit County,Eastern Equatoria State,,,
,no,Kuelcuk PHCU,,,Visit Location;,,,,Paweng Payam,,,,,Tonj East County,Warrap State,,,
,no,Kuelkuec PHCU,,,Visit Location;,,,,Malenagok Payam,,,,,Rumbek East County,Lakes State,,,
,no,Kuemduok PHCU,,,Visit Location;,,,,Manajang Payam,,,,,Fangak County,Jonglei State,,,
,no,Kuerdeng PHCU,,,Visit Location;,,,,Mareang Payam,,,,,Fangak County,Jonglei State,,,
,no,Kuerenge-ke PHCU,,,Visit Location;,,,,Kuerenge-ke Payam,,,,,Luakpiny/Nasir County,Upper Nile State,,,
,no,Kuerguini PHCU,,,Visit Location;,,,,Kuerguini Payam,,,,,Guit County,Unity State,,,
,no,Kuernyang PHCC,,,Visit Location;,,,,Manajang Payam,,,,,Fangak County,Jonglei State,,,
,no,Kuerphon PHCU,,,Visit Location;,,,,Paguer Payam,,,,,Fangak County,Jonglei State,,,
,no,Kueryiek PHCU,,,Visit Location;,,,,Kueryiek Payam,,,,,Mayom County,Unity State,,,
,no,Kuich PHCC,,,Visit Location;,,,,Kurmuot Payam,,,,,Ulang County,Upper Nile State,,,
,no,Kujikor PHCU,,,Visit Location;,,,,Kurumi Payam,,,,,Lafon/Lopa County,Eastern Equatoria State,,,
,no,Kuli Papa PHCU,,,Visit Location;,,,,Ganji Payam,,,,,Juba County,Central Equatoria State,,,
,no,Kulu PHCU,,,Visit Location;,,,,Kokori Payam,,,,,Mvolo County,Western Equatoria State,,,
,no,Kulundu PHCU,,,Visit Location;,,,,Amadi Payam,,,,,Mundri West County,Western Equatoria State,,,
,no,Kundru PHCU,,,Visit Location;,,,,Tore Payam,,,,,Yei County,Central Equatoria State,,,
,no,Kuok PHCU,,,Visit Location;,,,,Thaker Payam,,,,,Mayendit County,Unity State,,,
,no,Kuom PHCU,,,Visit Location;,,,,Marial Bai Payam,,,,,Jur River County,Northern Bahr El Ghazal State,,,
,no,Kuom PHCU,,,Visit Location;,,,,Marial Bai Payam,,,,,Jur River County,Northern Bahr El Ghazal State,,,
,no,Kupera PHCU,,,Visit Location;,,,,Kupera Payam,,,,,Lainya County,Central Equatoria State,,,
,no,Kuro PHCU,,,Visit Location;,,,,Nagero Payam,,,,,Nagero County,Western Equatoria State,,,
,no,Kuron PHCC,,,Visit Location;,,,,Kauto Payam,,,,,Kapoeta East County,Eastern Equatoria State,,,
,no,Kuru PHCC,,,Visit Location;,,,,Uyujuku Payam,,,,,Raga County,Western Bahr El Ghazal State,,,
,no,Kutali PHCU,,,Visit Location;,,,,Wonduruba Payam,,,,,Juba County,Central Equatoria State,,,
,no,Kutuk na woko PHCU,,,Visit Location;,,,,Reggo Payam,,,,,Terekeka County,Central Equatoria State,,,
,no,Kwanga PHCU,,,Visit Location;,,,,Ngamunde Payam,,,,,Maridi County,Western Equatoria State,,,
,no,Kwek PHCU,,,Visit Location;,,,,Wadakona Payam,,,,,Manyo County,Upper Nile State,,,
,no,Kworijik PHCU,,,Visit Location;,,,,Northern Bari Payam,,,,,Juba County,Central Equatoria State,,,
,no,Kwornyang PHCU,,,Visit Location;,,,,Reggo Payam,,,,,Terekeka County,Central Equatoria State,,,
,no,Laam PHCU,,,Visit Location;,,,,Makundi Payam,,,,,Wulu County,Lakes State,,,
,no,Labarab PHCU,,,Visit Location;,,,,Miwono Payam,,,,,Pibor County,Pibor Administrative Area,,,
,no,Lacharok PHCU,,,Visit Location;,,,,Arihilo Payam,,,,,Lafon/Lopa County,Eastern Equatoria State,,,
,no,Lafon PHCC,,,Visit Location;,,,,Burgilo Payam,,,,,Lafon/Lopa County,Eastern Equatoria State,,,
,no,Lagii PHCU,,,Visit Location;,,,,Pajok Payam,,,,,Magwi County,Eastern Equatoria State,,,
,no,Laidit PHCU,,,Visit Location;,,,,Tiap Payam,,,,,Panyijar County,Unity State,,,
,no,Lainya PHCC,,,Visit Location;,,,,Lainya Payam,,,,,Lainya County,Central Equatoria State,,,
,no,Lakamadi PHCC,,,Visit Location;,,,,Lakamadi Payam,,,,,Mundri East County,Western Equatoria State,,,
,no,Lalanga PHCU,,,Visit Location;,,,,Lohutok Payam,,,,,Lafon/Lopa County,Eastern Equatoria State,,,
,no,Lali PHCU,,,Visit Location;,,,,Bahr El Grindi Payam,,,,,Mvolo County,Western Equatoria State,,,
,no,Lang Matol PHCU,,,Visit Location;,,,,Malek Payam (Yirol E),,,,,Yirol East County,Lakes State,,,
,no,Langaro PHCU,,,Visit Location;,,,,Kudo Payam,,,,,Torit County,Eastern Equatoria State,,,
,no,Langbar PHCU,,,Visit Location;,,,,Bor Payam,,,,,Bor South County,Jonglei State,,,
,no,Langdit PHCU,,,Visit Location;,,,,Malou Pec Payam,,,,,Cueibet County,Lakes State,,,
,no,Lange PHCU,,,Visit Location;,,,,Nyandit Payam,,,,,Akobo County,Jonglei State,,,
,no,Langi PHCU,,,Visit Location;,,,,Lobonok Payam,,,,,Juba County,Central Equatoria State,,,
,no,Langua PHCU,,,Visit Location;,,,,Mambe Payam,,,,,Maridi County,Western Equatoria State,,,
,no,Lankien PHCC,,,Visit Location;,,,,Thol Payam,,,,,Nyirol County,Jonglei State,,,
,no,Lanleer PHCU,,,Visit Location;,,,,Tharjiath Payam,,,,,Mayendit County,Unity State,,,
,no,Lanyi PHCC,,,Visit Location;,,,,Lozoh Payam,,,,,Mundri East County,Western Equatoria State,,,
,no,Lasu PHCC,,,Visit Location;,,,,Lasu Payam,,,,,Yei County,Central Equatoria State,,,
,no,Latbier PHCU,,,Visit Location;,,,,Chemmedi Payam,,,,,Renk County,Upper Nile State,,,
,no,Latta PHCU,,,Visit Location;,,,,Otogo Payam,,,,,Yei County,Central Equatoria State,,,
,no,Lawaci PHCU,,,Visit Location;,,,,Pajok Payam,,,,,Magwi County,Eastern Equatoria State,,,
,no,Leah PHCU,,,Visit Location;,,,,Luom Payam,,,,,Mayendit County,Unity State,,,
,no,Ledingwa PHCU,,,Visit Location;,,,,Bangolo Payam,,,,,Mundri West County,Western Equatoria State,,,
,no,Leer PHCU,,,Visit Location;,,,,Adok Payam,,,,,Leer County,Unity State,,,
,no,Leikor PHCU,,,Visit Location;,,,,Kangapo One Payam,,,,,Kajo-Keji County,Central Equatoria State,,,
,no,Lekakedu PHCU,,,Visit Location;,,,,Lekakedu Payam,,,,,Yirol East County,Lakes State,,,
,no,Lekuangole PHCU,,,Visit Location;,,,,Lekuangole Payam,,,,,Pibor County,Pibor Administrative Area,,,
,no,Lelang PHCU,,,Visit Location;,,,,Lohutok Payam,,,,,Lafon/Lopa County,Eastern Equatoria State,,,
,no,Lelo PHCU,,,Visit Location;,,,,Lelo Payam,,,,,Malakal County,Upper Nile State,,,
,no,Lengi PHCU,,,Visit Location;,,,,Reggo Payam,,,,,Terekeka County,Central Equatoria State,,,
,no,Lerwa PHCU,,,Visit Location;,,,,Magwi Payam,,,,,Magwi County,Eastern Equatoria State,,,
,no,Lesi PHCU,,,Visit Location;,,,,Lessi Payam,,,,,Mvolo County,Western Equatoria State,,,
,no,Leybolo PHCU,,,Visit Location;,,,,Bahr El Grindi Payam,,,,,Mvolo County,Western Equatoria State,,,
,no,Li Rangu PHCC,,,Visit Location;,,,,Ri-rangu Payam,,,,,Yambio County,Western Equatoria State,,,
,no,Liang PHCU,,,Visit Location;,,,,Banashowa Payam,,,,,Maban County,Upper Nile State,,,
,no,Libogo PHCU,,,Visit Location;,,,,Lasu Payam,,,,,Yei County,Central Equatoria State,,,
,no,Lieth PHCC,,,Visit Location;,,,,Malual Bai Payam,,,,,Aweil East County,Northern Bahr El Ghazal State,,,
,no,Lietnhom DTC PHCC,,,Visit Location;,,,,Toch East Payam,,,,,Gogrial East County,Warrap State,,,
,no,Light House Medical Center,,,Visit Location;,,,,Awulic Payam,,,,,Aweil Centre County,Northern Bahr El Ghazal State,,,
,no,Ligi PHCU,,,Visit Location;,,,,Tijor Payam,,,,,Juba County,Central Equatoria State,,,
,no,Limbe PHCC,,,Visit Location;,,,,Kenyi Payam,,,,,Lainya County,Central Equatoria State,,,
,no,Limi PHCU,,,Visit Location;,,,,Kangapo One Payam,,,,,Kajo-Keji County,Central Equatoria State,,,
,no,Limkuon PHCU,,,Visit Location;,,,,Nyambor Payam,,,,,Nyirol County,Jonglei State,,,
,no,Limuro PHCU,,,Visit Location;,,,,Wuji Payam,,,,,Lainya County,Central Equatoria State,,,
,no,Lire PHCC,,,Visit Location;,,,,Lire Payam,,,,,Kajo-Keji County,Central Equatoria State,,,
,no,Lirya PHCC,,,Visit Location;,,,,Lirya Payam,,,,,Juba County,Central Equatoria State,,,
,no,Litoba PHCU,,,Visit Location;,,,,Kangapo One Payam,,,,,Kajo-Keji County,Central Equatoria State,,,
,no,Liwolo Missionaries Hospital,,,Visit Location;,,,,Liwolo Payam,,,,,Kajo-Keji County,Central Equatoria State,,,
,no,Loa Mission PHCC,,,Visit Location;,,,,Pageri Payam,,,,,Magwi County,Eastern Equatoria State,,,
,no,Lobira PHCU,,,Visit Location;,,,,Lomohidang North Payam,,,,,Ikotos County,Eastern Equatoria State,,,
,no,Lobone PHCC,,,Visit Location;,,,,Lobone Payam,,,,,Magwi County,Eastern Equatoria State,,,
,no,Lobonok PHCC,,,Visit Location;,,,,Lobonok Payam,,,,,Juba County,Central Equatoria State,,,
,no,Lobwaye PHCU,,,Visit Location;,,,,Imotong Payam,,,,,Ikotos County,Eastern Equatoria State,,,
,no,Lodurumo PHCU,,,Visit Location;,,,,Lomohidang South Payam,,,,,Ikotos County,Eastern Equatoria State,,,
,no,Lodwara PHCU,,,Visit Location;,,,,Lomohidang South Payam,,,,,Ikotos County,Eastern Equatoria State,,,
,no,Lofulung PHCU,,,Visit Location;,,,,Imotong Payam,,,,,Ikotos County,Eastern Equatoria State,,,
,no,Lofus PHCU,,,Visit Location;,,,,Losite Payam,,,,,Ikotos County,Eastern Equatoria State,,,
,no,Logili PHCU,,,Visit Location;,,,,Kangapo Two Payam,,,,,Kajo-Keji County,Central Equatoria State,,,
,no,Logire Hutuk-hinyang PHCU,,,Visit Location;,,,,Imotong Payam,,,,,Ikotos County,Eastern Equatoria State,,,
,no,Logo PHCU,,,Visit Location;,,,,Otogo Payam,,,,,Yei County,Central Equatoria State,,,
,no,Logobero PHCU,,,Visit Location;,,,,Yei Town Payam,,,,,Yei County,Central Equatoria State,,,
,no,Logonowati PHCU,,,Visit Location;,,,,Arihilo Payam,,,,,Lafon/Lopa County,Eastern Equatoria State,,,
,no,Logotibari PHCU,,,Visit Location;,,,,Mangala South Payam,,,,,Juba County,Central Equatoria State,,,
,no,Logu PHCU,,,Visit Location;,,,,Kangapo Two Payam,,,,,Kajo-Keji County,Central Equatoria State,,,
,no,Logwerle PHCU,,,Visit Location;,,,,Wonduruba Payam,,,,,Juba County,Central Equatoria State,,,
,no,Logwili PHCU,,,Visit Location;,,,,Lainya Payam,,,,,Lainya County,Central Equatoria State,,,
,no,Loier PHCU,,,Visit Location;,,,,Akudueng Payam,,,,,Akoka County,Upper Nile State,,,
,no,Lojiong PHCU,,,Visit Location;,,,,Komori Payam,,,,,Budi County,Eastern Equatoria State,,,
,no,Lojora PHCU,,,Visit Location;,,,,Reggo Payam,,,,,Terekeka County,Central Equatoria State,,,
,no,Loka Orphanage PHCU,,,Visit Location;,,,,Kenyi Payam,,,,,Lainya County,Central Equatoria State,,,
,no,Loka Round PHCU,,,Visit Location;,,,,Lainya Payam,,,,,Lainya County,Central Equatoria State,,,
,no,Loka West PHCU,,,Visit Location;,,,,Kenyi Payam,,,,,Lainya County,Central Equatoria State,,,
,no,Lokidele PHCU,,,Visit Location;,,,,Komori Payam,,,,,Budi County,Eastern Equatoria State,,,
,no,Lokiliri PHCC,,,Visit Location;,,,,Lokiliri Payam,,,,,Juba County,Central Equatoria State,,,
,no,Lokoges PHCU,,,Visit Location;,,,,Karukomuge Payam,,,,,Kapoeta North County,Eastern Equatoria State,,,
,no,Lokoloko PHCC,,,Visit Location;,,,,Wau North Payam,,,,,Wau County,Western Bahr El Ghazal State,,,
,no,Lokoyo PHCU,,,Visit Location;,,,,Bangolo Payam,,,,,Mundri West County,Western Equatoria State,,,
,no,Lokweni PHCU,,,Visit Location;,,,,Terekeka Payam,,,,,Terekeka County,Central Equatoria State,,,
,no,Lologo PHCC,,,Visit Location;,,,,Kator Payam,,,,,Juba County,Central Equatoria State,,,
,no,Lomarati PHCU,,,Visit Location;,,,,Lobone Payam,,,,,Magwi County,Eastern Equatoria State,,,
,no,Lomega PHCU,,,Visit Location;,,,,Lokiliri Payam,,,,,Juba County,Central Equatoria State,,,
,no,Lomeyen PHCU,,,Visit Location;,,,,Lomeyen Payam,,,,,Kapoeta North County,Eastern Equatoria State,,,
,no,Lomilikin PHCU,,,Visit Location;,,,,Kenyi Payam,,,,,Lainya County,Central Equatoria State,,,
,no,Lomin PHCC,,,Visit Location;,,,,Kangapo Two Payam,,,,,Kajo-Keji County,Central Equatoria State,,,
,no,Loming PHCU,,,Visit Location;,,,,Lohutok Payam,,,,,Lafon/Lopa County,Eastern Equatoria State,,,
,no,Lomwoo PHCU,,,Visit Location;,,,,Imotong Payam,,,,,Ikotos County,Eastern Equatoria State,,,
,no,LONGARIO PHCU,,,Visit Location;,,,,Losite Payam,,,,,Ikotos County,Eastern Equatoria State,,,
,no,Longbua PHCU,,,Visit Location;,,,,Mambe Payam,,,,,Maridi County,Western Equatoria State,,,
,no,Longeleya PHCU,,,Visit Location;,,,,Longeleya Payam,,,,,Kapoeta South County,Eastern Equatoria State,,,
,no,Longira PHCU,,,Visit Location;,,,,Lire Payam,,,,,Kajo-Keji County,Central Equatoria State,,,
,no,Longiro PHCU,,,Visit Location;,,,,Longiro Payam,,,,,Lafon/Lopa County,Eastern Equatoria State,,,
,no,Longonawati PHCU,,,Visit Location;,,,,Arihilo Payam,,,,,Lafon/Lopa County,Eastern Equatoria State,,,
,no,Longu PHCU,,,Visit Location;,,,,Nimule Payam,,,,,Magwi County,Eastern Equatoria State,,,
,no,Longwere PHCC,,,Visit Location;,,,,Yire Payam,,,,,Torit County,Eastern Equatoria State,,,
,no,Lonylok PHCU,,,Visit Location;,,,,Kiech Kuon Payam,,,,,Luakpiny/Nasir County,Upper Nile State,,,
,no,Loolim PHCU,,,Visit Location;,,,,Narus Payam,,,,,Kapoeta East County,Eastern Equatoria State,,,
,no,Lopetet PHCU,,,Visit Location;,,,,Karukomuge Payam,,,,,Kapoeta North County,Eastern Equatoria State,,,
,no,Lopua PHCU,,,Visit Location;,,,,Karukomuge Payam,,,,,Kapoeta North County,Eastern Equatoria State,,,
,no,Lora PHCC,,,Visit Location;,,,,Kenyi Payam,,,,,Lainya County,Central Equatoria State,,,
,no,Lora PHCU,,,Visit Location;,,,,Liwolo Payam,,,,,Kajo-Keji County,Central Equatoria State,,,
,no,Lorema PHCC,,,Visit Location;,,,,Lotukei Payam,,,,,Budi County,Eastern Equatoria State,,,
,no,Lori PHCU,,,Visit Location;,,,,Nyepo Payam,,,,,Kajo-Keji County,Central Equatoria State,,,
,no,Lorima PHCU,,,Visit Location;,,,,Ikotos Payam,,,,,Ikotos County,Eastern Equatoria State,,,
,no,Loriyok PHCU,,,Visit Location;,,,,Loriyok Payam,,,,,Budi County,Eastern Equatoria State,,,
,no,Loro PHCU,,,Visit Location;,,,,Liwolo Payam,,,,,Kajo-Keji County,Central Equatoria State,,,
,no,Lorumba PHCU,,,Visit Location;,,,,Tore Payam,,,,,Yei County,Central Equatoria State,,,
,no,Lotemba PHCU,,,Visit Location;,,,,Dolo Payam,,,,,Juba County,Central Equatoria State,,,
,no,LOTIMOR PHCU,,,Visit Location;,,,,Lotimor Payam,,,,,Kapoeta East County,Eastern Equatoria State,,,
,no,Lotome PHCU,,,Visit Location;,,,,Losite Payam,,,,,Ikotos County,Eastern Equatoria State,,,
,no,Loulang PHCU,,,Visit Location;,,,,Kudo Payam,,,,,Torit County,Eastern Equatoria State,,,
,no,Lowirja PHCU,,,Visit Location;,,,,Reggo Payam,,,,,Terekeka County,Central Equatoria State,,,
,no,Lowoi PHCC,,,Visit Location;,,,,Kudo Payam,,,,,Torit County,Eastern Equatoria State,,,
,no,Lowoyakali PHCU,,,Visit Location;,,,,Katodori Payam,,,,,Kapoeta East County,Eastern Equatoria State,,,
,no,Lozoh PHCU,,,Visit Location;,,,,Lozoh Payam,,,,,Mundri East County,Western Equatoria State,,,
,no,Luakat PHCU,,,Visit Location;,,,,Northern Malakal Payam,,,,,Malakal County,Upper Nile State,,,
,no,Lual PHCU,,,Visit Location;,,,,Padeah Payam,,,,,Leer County,Unity State,,,
,no,Lual Yak PHCU,,,Visit Location;,,,,Dingkar Payam,,,,,Luakpiny/Nasir County,Upper Nile State,,,
,no,Lualdit PHCU,,,Visit Location;,,,,Makuach Payam,,,,,Bor South County,Jonglei State,,,
,no,Ludabot PHCC,,,Visit Location;,,,,Wunrok Payam,,,,,Twic County,Warrap State,,,
,no,Luek PHCU,,,Visit Location;,,,,Roam Payam,,,,,Luakpiny/Nasir County,Upper Nile State,,,
,no,Lueth Lual PHCU,,,Visit Location;,,,,Ariath Payam,,,,,Aweil North County,Northern Bahr El Ghazal State,,,
,no,Lueth Ngor PHCU,,,Visit Location;,,,,Ariath Payam,,,,,Aweil North County,Northern Bahr El Ghazal State,,,
,no,Lui HOSPITAL,,,Visit Location;,,,,Lozoh Payam,,,,,Mundri East County,Western Equatoria State,,,
,no,Lujulo PHCU,,,Visit Location;,,,,Lujulo Payam,,,,,Morobo County,Central Equatoria State,,,
,no,Lul West PHCU,,,Visit Location;,,,,Lul Payam,,,,,Fashoda County,Upper Nile State,,,
,no,Lulic PHCU,,,Visit Location;,,,,Achana Payam,,,,,Aweil Centre County,Northern Bahr El Ghazal State,,,
,no,Luom PHCU,,,Visit Location;,,,,Luom Payam,,,,,Mayendit County,Unity State,,,
,no,Luonyaker PHCC,,,Visit Location;,,,,Pathuon West Payam,,,,,Gogrial East County,Warrap State,,,
,no,Lurchuk PHCU,,,Visit Location;,,,,Pagol Payam,,,,,Tonj North County,Warrap State,,,
,no,Luri rokwe PHCU,,,Visit Location;,,,,Northern Bari Payam,,,,,Juba County,Central Equatoria State,,,
,no,Luri-Somba PHCU,,,Visit Location;,,,,Northern Bari Payam,,,,,Juba County,Central Equatoria State,,,
,no,Lutheran PHCC,,,Visit Location;,,,,Munuki Payam,,,,,Juba County,Central Equatoria State,,,
,no,Luthern Church PHCU,,,Visit Location;,,,,Yambio Town Payam,,,,,Yambio County,Western Equatoria State,,,
,no,Lwala PHCU,,,Visit Location;,,,,Pachidi Payam,,,,,Lafon/Lopa County,Eastern Equatoria State,,,
,no,Lwoki PHCU,,,Visit Location;,,,,Nyori Payam,,,,,Terekeka County,Central Equatoria State,,,
,no,Maal PHCU,,,Visit Location;,,,,Maal Payam,,,,,Mayendit County,Unity State,,,
,no,Maar PHCC,,,Visit Location;,,,,Pakeer Payam,,,,,Twic East County,Jonglei State,,,
,no,Maar PHCU,,,Visit Location;,,,,Pajiek Payam,,,,,Ayod County,Jonglei State,,,
,no,Mabaiku PHCU,,,Visit Location;,,,,Tambura Payam,,,,,Tambura County,Western Equatoria State,,,
,no,Mabema PHCU,,,Visit Location;,,,,Ri-rangu Payam,,,,,Yambio County,Western Equatoria State,,,
,no,Mabenge PHCU,,,Visit Location;,,,,Rii - Yubu Payam,,,,,Tambura County,Western Equatoria State,,,
,no,Mabia PHCU,,,Visit Location;,,,,Mupoi Payam,,,,,Tambura County,Western Equatoria State,,,
,no,Mabil PHCC,,,Visit Location;,,,,Baach Payam,,,,,Aweil East County,Northern Bahr El Ghazal State,,,
,no,Mabil Yow PHCU,,,Visit Location;,,,,Pannyok Payam,,,,,Twic County,Warrap State,,,
,no,Mabilindi PHCU,,,Visit Location;,,,,Maridi Payam,,,,,Maridi County,Western Equatoria State,,,
,no,Mabior Abiem PHCU,,,Visit Location;,,,,Wau Bai Payam,,,,,Jur River County,Western Bahr El Ghazal State,,,
,no,Mabior Anguei PHCU,,,Visit Location;,,,,Malual East Payam,,,,,Aweil North County,Northern Bahr El Ghazal State,,,
,no,Mabior Kot PHCU,,,Visit Location;,,,,Wunrok Payam,,,,,Twic County,Warrap State,,,
,no,Mabior Nyang PHCU,,,Visit Location;,,,,Malual West Payam (Aweil N),,,,,Aweil North County,Northern Bahr El Ghazal State,,,
,no,Mabior PHCU,,,Visit Location;,,,,Ayat East Payam,,,,,Aweil West County,Jonglei State,,,
,no,Mabior PHCU,,,Visit Location;,,,,Ayat East Payam,,,,,Aweil West County,Jonglei State,,,
,no,Mabior PHCU,,,Visit Location;,,,,Ayat East Payam,,,,,Aweil West County,Jonglei State,,,
,no,Mabior Tiit PHCU,,,Visit Location;,,,,Toch North Payam,,,,,Gogrial East County,Warrap State,,,
,no,Mabior yar PHCU,,,Visit Location;,,,,Wath-alel Payam,,,,,Tonj South County,Warrap State,,,
,no,Mabiorkuot PHCU,,,Visit Location;,,,,Malual Centre Payam,,,,,Aweil North County,Northern Bahr El Ghazal State,,,
,no,Mabiorwundiing PHCU,,,Visit Location;,,,,Mangok Payam,,,,,Aweil East County,Northern Bahr El Ghazal State,,,
,no,Mabok Akot PHCU,,,Visit Location;,,,,Chel South Payam,,,,,Aweil Centre County,Northern Bahr El Ghazal State,,,
,no,Mabok PHCU,,,Visit Location;,,,,Rumamer Payam,,,,,Abyei County,Abyei Administrative Area,,,
,no,Mabok Tong PHCU,,,Visit Location;,,,,Madhol Payam,,,,,Aweil East County,Northern Bahr El Ghazal State,,,
,no,Mabor Abun PHCU,,,Visit Location;,,,,Marial Bai Payam,,,,,Jur River County,Western Bahr El Ghazal State,,,
,no,Mabor Duang PHCC,,,Visit Location;,,,,Aduel Payam,,,,,Rumbek East County,Lakes State,,,
,no,Maboric PHCU,,,Visit Location;,,,,Atiaba Payam,,,,,Rumbek East County,Lakes State,,,
,no,Mabui PHCU,,,Visit Location;,,,,Matangai Payam,,,,,Rumbek Centre County,Lakes State,,,
,no,Machar Adhot PHCU,,,Visit Location;,,,,Mariem East Payam,,,,,Aweil West County,Northern Bahr El Ghazal State,,,
,no,Machar PHCU,,,Visit Location;,,,,Tiap Payam,,,,,Panyijar County,Unity State,,,
,no,Macharluong PHCU,,,Visit Location;,,,,Malual Bai Payam,,,,,Aweil East County,Northern Bahr El Ghazal State,,,
,no,Madau PHCU,,,Visit Location;,,,,Turalei Payam,,,,,Twic County,Warrap State,,,
,no,Madebe PHCC,,,Visit Location;,,,,Madebe Payam,,,,,Ibba County,Western Equatoria State,,,
,no,Madhol PHCU,,,Visit Location;,,,,Madhol Payam,,,,,Aweil East County,Northern Bahr El Ghazal State,,,
,no,Madhol PHCU,,,Visit Location;,,,,Madhol Payam,,,,,Aweil East County,Northern Bahr El Ghazal State,,,
,no,Madikolok PHCU,,,Visit Location;,,,,Dolo Payam,,,,,Juba County,Central Equatoria State,,,
,no,Mading Achueng PHCU,,,Visit Location;,,,,Alal Payam,,,,,Abyei County,Abyei Administrative Area,,,
,no,Mading Jok Thiang PHCU,,,Visit Location;,,,,Rumamer Payam,,,,,Abyei County,Abyei Administrative Area,,,
,no,Mading Luit PHCU,,,Visit Location;,,,,Pannyok Payam,,,,,Twic County,Warrap State,,,
,no,Mading PHCC,,,Visit Location;,,,,Mading Payam,,,,,Luakpiny/Nasir County,Upper Nile State,,,
,no,Mading PHCU,,,Visit Location;,,,,Tali Payam,,,,,Terekeka County,Central Equatoria State,,,
,no,Madol PHCU,,,Visit Location;,,,,Pabuong Payam,,,,,Mayendit County,Unity State,,,
,no,Madoro PHCC,,,Visit Location;,,,,Ezo Centre Payam,,,,,Ezo County,Western Equatoria State,,,
,no,Maduany PHCU,,,Visit Location;,,,,Mariem East Payam,,,,,Aweil West County,Northern Bahr El Ghazal State,,,
,no,Mafuyu PHCU,,,Visit Location;,,,,Yangiri Payam,,,,,Ezo County,Western Equatoria State,,,
,no,Magai PHCU,,,Visit Location;,,,,Kuac South Payam,,,,,Gogrial West County,Warrap State,,,
,no,Magak PHCC,,,Visit Location;,,,,Turalei Payam,,,,,Twic County,Warrap State,,,
,no,Magar PHCU,,,Visit Location;,,,,Mariem East Payam,,,,,Aweil West County,Northern Bahr El Ghazal State,,,
,no,Magbuka PHCU,,,Visit Location;,,,,Bangasu Payam,,,,,Yambio County,Western Equatoria State,,,
,no,Magida PHCU,,,Visit Location;,,,,Gangura Payam,,,,,Yambio County,Western Equatoria State,,,
,no,Magok Ateny PHCU,,,Visit Location;,,,,Pannyok Payam,,,,,Twic County,Warrap State,,,
,no,Magok PHCU,,,Visit Location;,,,,Abiemnom Payam,,,,,Abiemnhom County,Ruweng Administrative Area,,,
,no,Magwi CDOT PHCC,,,Visit Location;,,,,Magwi Payam,,,,,Magwi County,Eastern Equatoria State,,,
,no,Magwi PHCC,,,Visit Location;,,,,Magwi Payam,,,,,Magwi County,Eastern Equatoria State,,,
,no,Magyirii PHCU,,,Visit Location;,,,,Kediba Payam,,,,,Mundri East County,Western Equatoria State,,,
,no,Mahad PHCU,,,Visit Location;,,,,Juba Town Payam,,,,,Juba County,Central Equatoria State,,,
,no,Maiwut PHCC,,,Visit Location;,,,,Maiwut Payam,,,,,Maiwut County,Upper Nile State,,,
,no,Majak Bai PHCC,,,Visit Location;,,,,Malual West Payam (Aweil N),,,,,Aweil North County,Northern Bahr El Ghazal State,,,
,no,Majak Bol PHCU,,,Visit Location;,,,,Malual North Payam,,,,,Aweil North County,Northern Bahr El Ghazal State,,,
,no,Majak Kar PHCC,,,Visit Location;,,,,Malual Centre Payam,,,,,Aweil North County,Northern Bahr El Ghazal State,,,
,no,Majak Pagai PHCC,,,Visit Location;,,,,Pannyok Payam,,,,,Twic County,Warrap State,,,
,no,Majakbol PHCU,,,Visit Location;,,,,Toch North Payam,,,,,Gogrial East County,Warrap State,,,
,no,Majakgoi PHCU,,,Visit Location;,,,,Toch North Payam,,,,,Gogrial East County,Northern Bahr El Ghazal State,,,
,no,Majak-Jier PHCU,,,Visit Location;,,,,Pannyok Payam,,,,,Twic County,Lakes State,,,
,no,Majak-Nyuom PHCU,,,Visit Location;,,,,Toch North Payam,,,,,Gogrial East County,Warrap State,,,
,no,Majangai PHCU,,,Visit Location;,,,,Wathmuok Payam,,,,,Aweil South County,Northern Bahr El Ghazal State,,,
,no,Maji PHCU,,,Visit Location;,,,,Magwi Payam,,,,,Magwi County,Eastern Equatoria State,,,
,no,Majiok PHCU,,,Visit Location;,,,,Malual Payam,,,,,Longochuk County,Upper Nile State,,,
,no,Majok Thany PHCU,,,Visit Location;,,,,Riau Payam,,,,,Gogrial West County,Warrap State,,,
,no,Majok Yith Thiou PHCU,,,Visit Location;,,,,Malual Bai Payam,,,,,Aweil East County,Northern Bahr El Ghazal State,,,
,no,Majok-Akeen PHCU,,,Visit Location;,,,,Baach Payam,,,,,Aweil East County,Northern Bahr El Ghazal State,,,
,no,Majook Adim PHCU,,,Visit Location;,,,,Ayat East Payam,,,,,Aweil West County,Northern Bahr El Ghazal State,,,
,no,Majook Dengdit PHCU,,,Visit Location;,,,,Achana Payam,,,,,Aweil West County,Northern Bahr El Ghazal State,,,
,no,Majook Dengdit PHCU,,,Visit Location;,,,,Achana Payam,,,,,Aweil West County,Northern Bahr El Ghazal State,,,
,no,Majook Noon PHCC,,,Visit Location;,,,,Aweeng Payam,,,,,Twic County,Warrap State,,,
,no,Maju PHCU,,,Visit Location;,,,,Kpaile Payam,,,,,Wau County,Western Bahr El Ghazal State,,,
,no,Makal PHCU,,,Visit Location;,,,,Lelo Payam,,,,,Malakal County,Upper Nile State,,,
,no,Makamagor PHCU,,,Visit Location;,,,,Reggo Payam,,,,,Terekeka County,Central Equatoria State,,,
,no,Makembele PHCU,,,Visit Location;,,,,Cueicok Payam,,,,,Rumbek East County,Lakes State,,,
,no,Maker Anei PHCU,,,Visit Location;,,,,Wunlang Payam,,,,,Aweil East County,Northern Bahr El Ghazal State,,,
,no,Maker PHCC,,,Visit Location;,,,,Alal Payam,,,,,Abyei County,Abyei Administrative Area,,,
,no,Maker PHCU,,,Visit Location;,,,,Maker Payam,,,,,Luakpiny/Nasir County,Northern Bahr El Ghazal State,,,
,no,Maker PHCU,,,Visit Location;,,,,Maker Payam,,,,,Luakpiny/Nasir County,Northern Bahr El Ghazal State,,,
,no,Makeranei PHCU,,,Visit Location;,,,,Mangok Payam,,,,,Aweil East County,Northern Bahr El Ghazal State,,,
,no,Makido PHCU,,,Visit Location;,,,,Tali Payam,,,,,Terekeka County,Central Equatoria State,,,
,no,Makila PHCU,,,Visit Location;,,,,Bargel Payam,,,,,Wulu County,Lakes State,,,
,no,Makol-Cuei PHCU,,,Visit Location;,,,,Baidit Payam,,,,,Bor South County,Jonglei State,,,
,no,Makor PHCU,,,Visit Location;,,,,Bargel Payam,,,,,Wulu County,Lakes State,,,
,no,Makpandu PHCC,,,Visit Location;,,,,Bangasu Payam,,,,,Yambio County,Western Equatoria State,,,
,no,Makuac Akech PHCU,,,Visit Location;,,,,Malual East Payam,,,,,Aweil North County,Northern Bahr El Ghazal State,,,
,no,Makuac PHCU,,,Visit Location;,,,,Makuac Payam,,,,,Tonj East County,Warrap State,,,
,no,Makuach PHCC,,,Visit Location;,,,,Makuach Payam,,,,,Bor South County,Jonglei State,,,
,no,Makuei Alel PHCU,,,Visit Location;,,,,Tar-Weng Payam,,,,,Aweil South County,Northern Bahr El Ghazal State,,,
,no,Makuoc PHCU,,,Visit Location;,,,,Ayat Center Payam,,,,,Aweil West County,Northern Bahr El Ghazal State,,,
,no,Makuoc PHCU,,,Visit Location;,,,,Ayat Center Payam,,,,,Aweil West County,Northern Bahr El Ghazal State,,,
,no,Makur PHCU,,,Visit Location;,,,,Thoarnhoum Payam,,,,,Panyijar County,Unity State,,,
,no,Malakal PoC IOM Clinic,,,Visit Location;,,,,Northern Malakal Payam,,,,,Malakal County,Upper Nile State,,,
,no,Malakal Teaching HOSPITAL,,,Visit Location;,,,,Central Malakal Payam,,,,,Malakal County,Upper Nile State,,,
,no,Malakia PHCC,,,Visit Location;,,,,Kator Payam,,,,,Juba County,Central Equatoria State,,,
,no,Malakia PHCU,,,Visit Location;,,,,Kator Payam,,,,,Juba County,Central Equatoria State,,,
,no,Malaya PHCU,,,Visit Location;,,,,Yire Payam,,,,,Torit County,Eastern Equatoria State,,,
,no,Malek Bol PHCU,,,Visit Location;,,,,Baach Payam,,,,,Aweil East County,Northern Bahr El Ghazal State,,,
,no,Malek Mir PHCU,,,Visit Location;,,,,Malual North Payam,,,,,Aweil North County,Northern Bahr El Ghazal State,,,
,no,Malek PHCC,,,Visit Location;,,,,Malek Payam (Yirol E),,,,,Yirol East County,Lakes State,,,
,no,Malek PHCU,,,Visit Location;,,,,Kuac North Payam,,,,,Gogrial West County,Jonglei State,,,
,no,Malek PHCU,,,Visit Location;,,,,Kuac North Payam,,,,,Gogrial West County,Jonglei State,,,
,no,Malek PHCU,,,Visit Location;,,,,Kuac North Payam,,,,,Gogrial West County,Jonglei State,,,
,no,Malek PHCU,,,Visit Location;,,,,Kuac North Payam,,,,,Gogrial West County,Jonglei State,,,
,no,Malek PHCU,,,Visit Location;,,,,Kuac North Payam,,,,,Gogrial West County,Jonglei State,,,
,no,Malek PHCU,,,Visit Location;,,,,Kuac North Payam,,,,,Gogrial West County,Jonglei State,,,
,no,Malek PHCU,,,Visit Location;,,,,Kuac North Payam,,,,,Gogrial West County,Jonglei State,,,
,no,Malekalel PHCU,,,Visit Location;,,,,Nyocawany I Payam,,,,,Aweil South County,Northern Bahr El Ghazal State,,,
,no,Malengok PHCU,,,Visit Location;,,,,Malenagok Payam,,,,,Rumbek East County,Lakes State,,,
,no,Maliai PHCU,,,Visit Location;,,,,Toch East Payam,,,,,Gogrial East County,Warrap State,,,
,no,Malith Alekyai PHCU,,,Visit Location;,,,,Madhol Payam,,,,,Aweil East County,Northern Bahr El Ghazal State,,,
,no,Malkuer PHCU,,,Visit Location;,,,,Maal Payam,,,,,Mayendit County,Unity State,,,
,no,Mallo PHCU,,,Visit Location;,,,,Dethok Payam,,,,,Fashoda County,Upper Nile State,,,
,no,MALNYANG PHCU,,,Visit Location;,,,,Kurumi Payam,,,,,Lafon/Lopa County,Eastern Equatoria State,,,
,no,Malou Jiec PHCC,,,Visit Location;,,,,Cueicok Payam,,,,,Rumbek East County,Lakes State,,,
,no,Malou mou PHCU,,,Visit Location;,,,,Madhol Payam,,,,,Aweil East County,Northern Bahr El Ghazal State,,,
,no,Malou Pec PHCC,,,Visit Location;,,,,Malou Pec Payam,,,,,Cueibet County,Lakes State,,,
,no,Malou PHCU,,,Visit Location;,,,,Mathiang-kok Payam,,,,,Rumbek East County,Jonglei State,,,
,no,Malou PHCU,,,Visit Location;,,,,Mathiang-kok Payam,,,,,Rumbek East County,Jonglei State,,,
,no,Malou-Hol PHCU,,,Visit Location;,,,,Wunrok Payam,,,,,Twic County,Warrap State,,,
,no,Malow PHCU,,,Visit Location;,,,,Malual Payam,,,,,Longochuk County,Upper Nile State,,,
,no,Maluak PHCU,,,Visit Location;,,,,Mayom Payam (Mayom),,,,,Panyijar County,Unity State,,,
,no,Malual Agaak (Long) PHCU,,,Visit Location;,,,,Wunrok Payam,,,,,Twic County,Warrap State,,,
,no,Malual Aleiu PHCU,,,Visit Location;,,,,Alal Payam,,,,,Abyei County,Abyei Administrative Area,,,
,no,Malual Baai PHCC,,,Visit Location;,,,,Malual Bai Payam,,,,,Aweil East County,Northern Bahr El Ghazal State,,,
,no,Malual Bab PHCC,,,Visit Location;,,,,Rumbek Town Payam,,,,,Rumbek Centre County,Lakes State,,,
,no,Malual Chaat PHCU,,,Visit Location;,,,,Kolnyang Payam,,,,,Bor South County,Jonglei State,,,
,no,Malual Deng Aruom PHCU,,,Visit Location;,,,,Malual East Payam,,,,,Aweil North County,Northern Bahr El Ghazal State,,,
,no,Malual Dit PHCU,,,Visit Location;,,,,Yargot Payam,,,,,Aweil East County,Northern Bahr El Ghazal State,,,
,no,Malual Kuel PHCU,,,Visit Location;,,,,Toch North Payam,,,,,Gogrial East County,Northern Bahr El Ghazal State,,,
,no,Malual Kuel PHCU,,,Visit Location;,,,,Toch North Payam,,,,,Gogrial East County,Northern Bahr El Ghazal State,,,
,no,Malual Muok PHCU,,,Visit Location;,,,,Tonj Payam,,,,,Tonj South County,Warrap State,,,
,no,Malual PHCU,,,Visit Location;,,,,Malual Payam,,,,,Longochuk County,Upper Nile State,,,
,no,Malualkon PHCC,,,Visit Location;,,,,Malual Bai Payam,,,,,Aweil East County,Northern Bahr El Ghazal State,,,
,no,Malualkon PHCC,,,Visit Location;,,,,Malual Bai Payam,,,,,Aweil East County,Northern Bahr El Ghazal State,,,
,no,Malual-Kuel PHCU,,,Visit Location;,,,,Malual Payam,,,,,Longochuk County,Northern Bahr El Ghazal State,,,
,no,Malualmonyjoc PHCU,,,Visit Location;,,,,Kuac North Payam,,,,,Gogrial West County,Warrap State,,,
,no,Malueth PHCU,,,Visit Location;,,,,Malueeth Payam,,,,,Rumbek North County,Lakes State,,,
,no,Maluil Ajak PHCU,,,Visit Location;,,,,Gogrial Payam,,,,,Gogrial West County,Warrap State,,,
,no,Maluil Akot PHCU,,,Visit Location;,,,,Bar Mayen Payam,,,,,Aweil Centre County,Northern Bahr El Ghazal State,,,
,no,Maluil PHCU,,,Visit Location;,,,,Marial Bai Payam,,,,,Jur River County,Western Bahr El Ghazal State,,,
,no,Maluok PHCU,,,Visit Location;,,,,Kol Payam,,,,,Panyijar County,Unity State,,,
,no,Mambe 1 PHCU,,,Visit Location;,,,,Mambe Payam,,,,,Maridi County,Western Equatoria State,,,
,no,MAMBE T PHCU,,,Visit Location;,,,,Mambe Payam,,,,,Maridi County,Western Equatoria State,,,
,no,Mamiir Luit PHCC,,,Visit Location;,,,,Pannyok Payam,,,,,Twic County,Warrap State,,,
,no,Mamoi PHCU,,,Visit Location;,,,,Bagari Payam,,,,,Wau County,Western Bahr El Ghazal State,,,
,no,Managuer PHCU,,,Visit Location;,,,,Pariang Payam,,,,,Pariang County,Ruweng Administrative Area,,,
,no,Manai PHCU,,,Visit Location;,,,,Aduel Payam,,,,,Rumbek East County,Lakes State,,,
,no,Manajoga PHCU,,,Visit Location;,,,,Aliiny Payam,,,,,Pariang County,Ruweng Administrative Area,,,
,no,Manajoga PHCU,,,Visit Location;,,,,Aliiny Payam,,,,,Pariang County,Ruweng Administrative Area,,,
,no,Manam PHCU,,,Visit Location;,,,,Kaka Payam,,,,,Manyo County,Upper Nile State,,,
,no,Manamba B PHCU,,,Visit Location;,,,,Ringi Payam,,,,,Raga County,Western Bahr El Ghazal State,,,
,no,Mandeng PHCU,,,Visit Location;,,,,Gogrial Payam,,,,,Gogrial West County,Jonglei State,,,
,no,Mandeng PHCU,,,Visit Location;,,,,Gogrial Payam,,,,,Gogrial West County,Jonglei State,,,
,no,Mandeng PHCU,,,Visit Location;,,,,Gogrial Payam,,,,,Gogrial West County,Jonglei State,,,
,no,Mandi PHCU,,,Visit Location;,,,,Kotobi Payam,,,,,Mundri West County,Western Equatoria State,,,
,no,Manga PHCU,,,Visit Location;,,,,Kuerguini Payam,,,,,Guit County,Unity State,,,
,no,Mangalla PHCC,,,Visit Location;,,,,Mangala North Payam,,,,,Juba County,Central Equatoria State,,,
,no,Mangalla PHCU,,,Visit Location;,,,,Lomohidang North Payam,,,,,Ikotos County,Eastern Equatoria State,,,
,no,Mangalotore PHCU,,,Visit Location;,,,,Liwolo Payam,,,,,Kajo-Keji County,Central Equatoria State,,,
,no,Mangang PHCU,,,Visit Location;,,,,Anuol Payam,,,,,Yirol West County,Lakes State,,,
,no,Mangar Tong PHCU,,,Visit Location;,,,,Mangar Tong Payam,,,,,Aweil East County,Northern Bahr El Ghazal State,,,
,no,Mangaten PHCU,,,Visit Location;,,,,Northern Bari Payam,,,,,Juba County,Central Equatoria State,,,
,no,Mangayat PHCU,,,Visit Location;,,,,Uyujuku Payam,,,,,Raga County,Western Bahr El Ghazal State,,,
,no,Mangbangau PHCU,,,Visit Location;,,,,Ezo Centre Payam,,,,,Ezo County,Western Equatoria State,,,
,no,Mangbondo PHCU,,,Visit Location;,,,,Yambio Town Payam,,,,,Yambio County,Western Equatoria State,,,
,no,Mangburu PHCU,,,Visit Location;,,,,Tambura Payam,,,,,Tambura County,Western Equatoria State,,,
,no,Mangele PHCU,,,Visit Location;,,,,Wonduruba Payam,,,,,Juba County,Central Equatoria State,,,
,no,Mangkaro PHCU,,,Visit Location;,,,,Northern Bari Payam,,,,,Juba County,Central Equatoria State,,,
,no,Mangok PHCU,,,Visit Location;,,,,Mangok Payam,,,,,Aweil East County,Northern Bahr El Ghazal State,,,
,no,Mangol PHCU,,,Visit Location;,,,,Toch North Payam,,,,,Gogrial East County,Warrap State,,,
,no,Manikakare PHCU,,,Visit Location;,,,,Manikakara Payam,,,,,Ibba County,Western Equatoria State,,,
,no,Manime PHCC,,,Visit Location;,,,,Pagil Payam,,,,,Ayod County,Jonglei State,,,
,no,Mankaro PHCU,,,Visit Location;,,,,Wonduruba Payam,,,,,Juba County,Central Equatoria State,,,
,no,Mankien PHCC,,,Visit Location;,,,,Mankien Payam,,,,,Mayom County,Unity State,,,
,no,Manvugo PHCU,,,Visit Location;,,,,Nzara Centre Payam,,,,,Nzara County,Western Equatoria State,,,
,no,Manyang PHCU,,,Visit Location;,,,,Marial Bai Payam,,,,,Jur River County,Western Bahr El Ghazal State,,,
,no,Manyang-ngok PHCC,,,Visit Location;,,,,Manyang-ngok Payam,,,,,Tonj South County,Warrap State,,,
,no,Manyel PHCU,,,Visit Location;,,,,Gakrol Payam,,,,,Aweil South County,Northern Bahr El Ghazal State,,,
,no,Manyiel Akok PHCU,,,Visit Location;,,,,Malual West Payam (Aweil N),,,,,Aweil North County,Northern Bahr El Ghazal State,,,
,no,Manyiel PHCU,,,Visit Location;,,,,Wunlang Payam,,,,,Aweil East County,Jonglei State,,,
,no,Manyiel PHCU,,,Visit Location;,,,,Wunlang Payam,,,,,Aweil East County,Jonglei State,,,
,no,Manyiel-Thonny PHCU,,,Visit Location;,,,,Manyang-ngok Payam,,,,,Tonj South County,Warrap State,,,
,no,Manzengbi PHCU,,,Visit Location;,,,,Maruko Payam,,,,,Ibba County,Western Equatoria State,,,
,no,Manzinzi PHCU,,,Visit Location;,,,,Ezo Centre Payam,,,,,Ezo County,Western Equatoria State,,,
,no,Mapako PHCU,,,Visit Location;,,,,Tore Payam,,,,,Yei County,Central Equatoria State,,,
,no,Mapakuka PHCU,,,Visit Location;,,,,Bangasu Payam,,,,,Yambio County,Western Equatoria State,,,
,no,Mapara PHCU,,,Visit Location;,,,,Maparah Payam,,,,,Tonj East County,Warrap State,,,
,no,Mapel PHCC,,,Visit Location;,,,,Kuajiena Payam,,,,,Jur River County,Western Bahr El Ghazal State,,,
,no,Maper 2 PHCU,,,Visit Location;,,,,Maper Payam,,,,,Rumbek North County,Lakes State,,,
,no,Maper Centre HOSPITAL,,,Visit Location;,,,,Maper Payam,,,,,Rumbek North County,Lakes State,,,
,no,Maper Centre PHCC,,,Visit Location;,,,,Aweeng Payam,,,,,Twic County,Warrap State,,,
,no,Maper Ngok PHCU,,,Visit Location;,,,,Ariath Payam,,,,,Aweil North County,Northern Bahr El Ghazal State,,,
,no,Maper PHCC,,,Visit Location;,,,,Maper Payam,,,,,Rumbek North County,Lakes State,,,
,no,Maper PHCU,,,Visit Location;,,,,Awulic Payam,,,,,Aweil Centre County,Northern Bahr El Ghazal State,,,
,no,Mapuordit HOSPITAL,,,Visit Location;,,,,Mapuordit Payam,,,,,Yirol West County,Lakes State,,,
,no,Marakas Jerau PHCC,,,Visit Location;,,,,Wau South Payam,,,,,Wau County,Western Bahr El Ghazal State,,,
,no,Marangu PHCU,,,Visit Location;,,,,Naandi Payam,,,,,Ezo County,Western Equatoria State,,,
,no,Maranya PHCU,,,Visit Location;,,,,Kuajiena Payam,,,,,Jur River County,Western Bahr El Ghazal State,,,
,no,Mareng Akok PHCU,,,Visit Location;,,,,Malual Centre Payam,,,,,Aweil North County,Northern Bahr El Ghazal State,,,
,no,Mareng PHCU,,,Visit Location;,,,,Anyidi Payam,,,,,Bor South County,Jonglei State,,,
,no,Mareng PHCU,,,Visit Location;,,,,Anyidi Payam,,,,,Bor South County,Jonglei State,,,
,no,Mariagba PHCU,,,Visit Location;,,,,Ezo Centre Payam,,,,,Ezo County,Western Equatoria State,,,
,no,Marial Achak PHCC,,,Visit Location;,,,,Rumamer Payam,,,,,Abyei County,Abyei Administrative Area,,,
,no,Marial Ajieth PHCU,,,Visit Location;,,,,Marial Bai Payam,,,,,Jur River County,Western Bahr El Ghazal State,,,
,no,Marial Bai DTC PHCC,,,Visit Location;,,,,Ayat East Payam,,,,,Aweil West County,Northern Bahr El Ghazal State,,,
,no,Marial Bai DTC PHCC,,,Visit Location;,,,,Ayat East Payam,,,,,Aweil West County,Northern Bahr El Ghazal State,,,
,no,Marial Bai PHCC,,,Visit Location;,,,,Marial Bai Payam,,,,,Jur River County,Western Bahr El Ghazal State,,,
,no,Marial Guot Juur PHCC,,,Visit Location;,,,,Ajak-kuac Payam,,,,,Twic County,Warrap State,,,
,no,Marial Lou HOSPITAL,,,Visit Location;,,,,Marial Lou Payam,,,,,Tonj North County,Warrap State,,,
,no,Marial Maper PHCC,,,Visit Location;,,,,Aweeng Payam,,,,,Twic County,Warrap State,,,
,no,Maridi HOSPITAL,,,Visit Location;,,,,Maridi Payam,,,,,Maridi County,Western Equatoria State,,,
,no,Maridi Prison PHCU,,,Visit Location;,,,,Maridi Payam,,,,,Maridi County,Western Equatoria State,,,
,no,Marie Stopes Torit Centre PHCC,,,Visit Location;,,,,Nyong Payam,,,,,Torit County,Eastern Equatoria State,,,
,no,Maringindo PHCU,,,Visit Location;,,,,Nagero Payam,,,,,Nagero County,Western Equatoria State,,,
,no,Marko PHCU,,,Visit Location;,,,,Madebe Payam,,,,,Ibba County,Western Equatoria State,,,
,no,Marol Anyuang PHCU,,,Visit Location;,,,,Ajak-kuac Payam,,,,,Twic County,Warrap State,,,
,no,Marol buol PHCU,,,Visit Location;,,,,Mariem East Payam,,,,,Aweil West County,Northern Bahr El Ghazal State,,,
,no,Marol Deng Geng PHCU,,,Visit Location;,,,,Malual Centre Payam,,,,,Aweil North County,Northern Bahr El Ghazal State,,,
,no,Marol Madhan PHCU,,,Visit Location;,,,,Achana Payam,,,,,Aweil West County,Northern Bahr El Ghazal State,,,
,no,Marolajuong PHCU,,,Visit Location;,,,,Mangar Tong Payam,,,,,Aweil East County,Northern Bahr El Ghazal State,,,
,no,Marolduliit PHCU,,,Visit Location;,,,,Mangok Payam,,,,,Aweil East County,Northern Bahr El Ghazal State,,,
,no,Martha PHCC,,,Visit Location;,,,,Yei Town Payam,,,,,Yei County,Central Equatoria State,,,
,no,Maruko PHCU,,,Visit Location;,,,,Maruko Payam,,,,,Ibba County,Western Equatoria State,,,
,no,Mary Help HOSPITAL,,,Visit Location;,,,,Marial Bai Payam,,,,,Jur River County,Western Bahr El Ghazal State,,,
,no,Mary Ward PHCC,,,Visit Location;,,,,Matangai Payam,,,,,Rumbek Centre County,Lakes State,,,
,no,Masindi PHCU,,,Visit Location;,,,,Mugali Payam,,,,,Magwi County,Eastern Equatoria State,,,
,no,Masiya PHCU,,,Visit Location;,,,,Yambio Town Payam,,,,,Yambio County,Western Equatoria State,,,
,no,Masumbu PHCU,,,Visit Location;,,,,Gangura Payam,,,,,Yambio County,Western Equatoria State,,,
,no,Matakurungu PHCU,,,Visit Location;,,,,Tambura Payam,,,,,Tambura County,Western Equatoria State,,,
,no,Matangai PHCC,,,Visit Location;,,,,Matangai Payam,,,,,Rumbek Centre County,Lakes State,,,
,no,Matar HOSPITAL,,,Visit Location;,,,,Boma Payam,,,,,Pibor County,Pibor Administrative Area,,,
,no,Matato PHCU,,,Visit Location;,,,,Tambura Payam,,,,,Tambura County,Western Equatoria State,,,
,no,Mathiang Kok PHCU,,,Visit Location;,,,,Mathiang-kok Payam,,,,,Rumbek East County,Lakes State,,,
,no,Mathiang PHCC,,,Visit Location;,,,,Longochuk Payam,,,,,Longochuk County,Upper Nile State,,,
,no,Mathiang PHCU,,,Visit Location;,,,,Malek Payam,,,,,Rumbek Centre County,Jonglei State,,,
,no,Mathiang PHCU,,,Visit Location;,,,,Malek Payam,,,,,Rumbek Centre County,Jonglei State,,,
,no,Mathiangdhiei PHCU,,,Visit Location;,,,,Matangai Payam,,,,,Rumbek Centre County,Lakes State,,,
,no,Matiel PHCU,,,Visit Location;,,,,Pathuon West Payam,,,,,Gogrial East County,Warrap State,,,
,no,Matika PHCU,,,Visit Location;,,,,Lasu Payam,,,,,Yei County,Central Equatoria State,,,
,no,Matoto PHCU,,,Visit Location;,,,,Namutina Payam,,,,,Nagero County,Western Equatoria State,,,
,no,Matuic PHCU,,,Visit Location;,,,,Malual Centre Payam,,,,,Aweil North County,Northern Bahr El Ghazal State,,,
,no,Mawuna HOSPITAL,,,Visit Location;,,,,Munuki Payam,,,,,Juba County,Central Equatoria State,,,
,no,Mayak PHCU,,,Visit Location;,,,,Khor El Amer Payam,,,,,Maban County,Upper Nile State,,,
,no,Mayath PHCU,,,Visit Location;,,,,Duony Payam,,,,,Cueibet County,Lakes State,,,
,no,Mayen Abun PHCC,,,Visit Location;,,,,Wunrok Payam,,,,,Twic County,Warrap State,,,
,no,Mayen Ador PHCU,,,Visit Location;,,,,Mayen Payam (Tonj E),,,,,Tonj East County,Warrap State,,,
,no,Mayen Gumel PHCC,,,Visit Location;,,,,Kuac North Payam,,,,,Gogrial West County,Warrap State,,,
,no,Mayen PHCU,,,Visit Location;,,,,Akon North Payam,,,,,Gogrial West County,Lakes State,,,
,no,Mayen PHCU,,,Visit Location;,,,,Akon North Payam,,,,,Gogrial West County,Lakes State,,,
,no,Mayen Thon PHCU,,,Visit Location;,,,,Ngap Payam,,,,,Cueibet County,Lakes State,,,
,no,Mayen Ulem PHCU,,,Visit Location;,,,,Malual East Payam,,,,,Aweil North County,Northern Bahr El Ghazal State,,,
,no,Mayenadhot PHCU,,,Visit Location;,,,,Baach Payam,,,,,Aweil East County,Northern Bahr El Ghazal State,,,
,no,Mayendit PHCC,,,Visit Location;,,,,Pathuon East Payam,,,,,Gogrial East County,Unity State,,,
,no,Mayen-Rual PHCU,,,Visit Location;,,,,Malual East Payam,,,,,Aweil North County,Warrap State,,,
,no,Mayom Adhal PHCU,,,Visit Location;,,,,Malual North Payam,,,,,Aweil North County,Northern Bahr El Ghazal State,,,
,no,Mayom Akuang Rel PHCC,,,Visit Location;,,,,Ayat Center Payam,,,,,Aweil West County,Northern Bahr El Ghazal State,,,
,no,Mayom Akuang Rel PHCC,,,Visit Location;,,,,Ayat Center Payam,,,,,Aweil West County,Northern Bahr El Ghazal State,,,
,no,Mayom Chol Luk PHCU,,,Visit Location;,,,,Pannyok Payam,,,,,Twic County,Warrap State,,,
,no,Mayom Chol PHCU,,,Visit Location;,,,,Toch North Payam,,,,,Gogrial East County,Warrap State,,,
,no,Mayom Lach PHCC,,,Visit Location;,,,,Nyocawany I Payam,,,,,Aweil South County,Northern Bahr El Ghazal State,,,
,no,Mayom PHCC,,,Visit Location;,,,,Kuerbone Payam,,,,,Mayom County,Unity State,,,
,no,Mayom PHCU,,,Visit Location;,,,,Alek North Payam,,,,,Gogrial West County,Unity State,,,
,no,Mayom PHCU,,,Visit Location;,,,,Alek North Payam,,,,,Gogrial West County,Unity State,,,
,no,Mayom Wel PHCU,,,Visit Location;,,,,Mangar Tong Payam,,,,,Aweil East County,Northern Bahr El Ghazal State,,,
,no,Mayom-Bioung PHCU,,,Visit Location;,,,,Pathuon East Payam,,,,,Gogrial East County,Warrap State,,,
,no,Mayonga A PHCC,,,Visit Location;,,,,Raga Payam,,,,,Raga County,Western Bahr El Ghazal State,,,
,no,Mbara PHCU,,,Visit Location;,,,,Yeri Payam,,,,,Mvolo County,Western Equatoria State,,,
,no,Mbara PHCU,,,Visit Location;,,,,Yeri Payam,,,,,Mvolo County,Western Equatoria State,,,
,no,Mbili PHCU,,,Visit Location;,,,,Kuajiena Payam,,,,,Jur River County,Western Bahr El Ghazal State,,,
,no,Mboro PHCU,,,Visit Location;,,,,Besselia Payam,,,,,Wau County,Western Bahr El Ghazal State,,,
,no,Mboroko PHCU,,,Visit Location;,,,,Maridi Payam,,,,,Maridi County,Western Equatoria State,,,
,no,Medicare HOSPITAL,,,Visit Location;,,,,Munuki Payam,,,,,Juba County,Central Equatoria State,,,
,no,Medil PHCU,,,Visit Location;,,,,Kuajiena Payam,,,,,Jur River County,Western Bahr El Ghazal State,,,
,no,Meer PHCU,,,Visit Location;,,,,Dingkar Payam,,,,,Luakpiny/Nasir County,Jonglei State,,,
,no,Meer PHCU,,,Visit Location;,,,,Dingkar Payam,,,,,Luakpiny/Nasir County,Jonglei State,,,
,no,Meiwun PHCU,,,Visit Location;,,,,Lekuangole Payam,,,,,Pibor County,Pibor Administrative Area,,,
,no,Meke 2 PHCU,,,Visit Location;,,,,Ngamunde Payam,,,,,Maridi County,Western Equatoria State,,,
,no,Mekke II PHCC,,,Visit Location;,,,,Maridi Payam,,,,,Maridi County,Western Equatoria State,,,
,no,Melut Civil HOSPITAL,,,Visit Location;,,,,Melut Payam,,,,,Melut County,Upper Nile State,,,
,no,Menamba PHCU,,,Visit Location;,,,,Ringi Payam,,,,,Raga County,Western Bahr El Ghazal State,,,
,no,Mengele/Mankole PHCU,,,Visit Location;,,,,Wonduruba Payam,,,,,Juba County,Central Equatoria State,,,
,no,Menime PHCU,,,Visit Location;,,,,Pagil Payam,,,,,Ayod County,Jonglei State,,,
,no,Mere PHCU,,,Visit Location;,,,,Lire Payam,,,,,Kajo-Keji County,Central Equatoria State,,,
,no,Mereguga PHCU,,,Visit Location;,,,,Kangapo Two Payam,,,,,Kajo-Keji County,Central Equatoria State,,,
,no,Merlsland PHCU,,,Visit Location;,,,,Nyal Payam,,,,,Panyijar County,Unity State,,,
,no,Mideh PHCC,,,Visit Location;,,,,Witto Payam,,,,,Mundri East County,Western Equatoria State,,,
,no,Mijak PHCU,,,Visit Location;,,,,Mijak Payam,,,,,Abyei County,Abyei Administrative Area,,,
,no,Mijiki PHCU,,,Visit Location;,,,,Tali Payam,,,,,Terekeka County,Central Equatoria State,,,
,no,Mina PHCU,,,Visit Location;,,,,Tali Payam,,,,,Terekeka County,Central Equatoria State,,,
,no,Ming PHCU,,,Visit Location;,,,,Biu Payam,,,,,Pariang County,Ruweng Administrative Area,,,
,no,Minga PHCC,,,Visit Location;,,,,Minga Payam,,,,,Mundri East County,Western Equatoria State,,,
,no,Minkaman PHCC,,,Visit Location;,,,,Puluk Payam,,,,,Awerial County,Lakes State,,,
,no,Minyori PHCU,,,Visit Location;,,,,Yei Town Payam,,,,,Yei County,Central Equatoria State,,,
,no,Miodol PHCC,,,Visit Location;,,,,Rumamer Payam,,,,,Abyei County,Abyei Administrative Area,,,
,no,Miriba PHCU,,,Visit Location;,,,,Witto Payam,,,,,Mundri East County,Western Equatoria State,,,
,no,Mirikio PHCC,,,Visit Location;,,,,Rokon Payam,,,,,Juba County,Central Equatoria State,,,
,no,Mirmir PHCC,,,Visit Location;,,,,Ngony Payam,,,,,Koch County,Unity State,,,
,no,Miyom Ngok PHCU,,,Visit Location;,,,,Rumamer Payam,,,,,Abyei County,Abyei Administrative Area,,,
,no,MMM Healing PHCC,,,Visit Location;,,,,Rocrocdong Payam,,,,,Jur River County,Western Bahr El Ghazal State,,,
,no,Moba PHCU,,,Visit Location;,,,,Bangolo Payam,,,,,Mundri West County,Western Equatoria State,,,
,no,Mobil PHCU,,,Visit Location;,,,,Northern Bari Payam,,,,,Juba County,Central Equatoria State,,,
,no,Modit PHCU,,,Visit Location;,,,,Pathai Payam,,,,,Uror County,Jonglei State,,,
,no,Mogiri PHCU,,,Visit Location;,,,,Lire Payam,,,,,Kajo-Keji County,Central Equatoria State,,,
,no,Mogiri/Jobur PHCC,,,Visit Location;,,,,Mangala South Payam,,,,,Juba County,Central Equatoria State,,,
,no,Mogok PHCC,,,Visit Location;,,,,Mogok Payam,,,,,Ayod County,Jonglei State,,,
,no,Mogos PHCC,,,Visit Location;,,,,Mogos Payam,,,,,Kapoeta East County,Eastern Equatoria State,,,
,no,Moijo PHCU,,,Visit Location;,,,,Kangapo One Payam,,,,,Kajo-Keji County,Central Equatoria State,,,
,no,Moje PHCU,,,Visit Location;,,,,Wonduruba Payam,,,,,Juba County,Central Equatoria State,,,
,no,Moku PHCU,,,Visit Location;,,,,Maridi Payam,,,,,Maridi County,Western Equatoria State,,,
,no,Molbang PHCU,,,Visit Location;,,,,Ajak-kuac Payam,,,,,Twic County,Warrap State,,,
,no,Molbuk PHCU,,,Visit Location;,,,,Jalhak Payam,,,,,Renk County,Upper Nile State,,,
,no,Moli Andru PHCU,,,Visit Location;,,,,Pageri Payam,,,,,Magwi County,Eastern Equatoria State,,,
,no,Moli Tokuro PHCC,,,Visit Location;,,,,Pageri Payam,,,,,Magwi County,Eastern Equatoria State,,,
,no,Molosuk PHCU,,,Visit Location;,,,,Reggo Payam,,,,,Terekeka County,Central Equatoria State,,,
,no,Momboi PHCU,,,Visit Location;,,,,Ri-rangu Payam,,,,,Yambio County,Western Equatoria State,,,
,no,Momoria PHCU,,,Visit Location;,,,,Ikotos Payam,,,,,Ikotos County,Eastern Equatoria State,,,
,no,Mondi PHCU,,,Visit Location;,,,,Nyepo Payam,,,,,Kajo-Keji County,Central Equatoria State,,,
,no,Mondikolok Missionary PHCC,,,Visit Location;,,,,Lire Payam,,,,,Kajo-Keji County,Central Equatoria State,,,
,no,Mondikolok PHCU,,,Visit Location;,,,,Lire Payam,,,,,Kajo-Keji County,Central Equatoria State,,,
,no,Mondikolok PHCU,,,Visit Location;,,,,Lire Payam,,,,,Kajo-Keji County,Central Equatoria State,,,
,no,Mongo PHCU,,,Visit Location;,,,,Otogo Payam,,,,,Yei County,Central Equatoria State,,,
,no,Monoji PHCU,,,Visit Location;,,,,Gondokoro Payam,,,,,Juba County,Central Equatoria State,,,
,no,Mony PHCU,,,Visit Location;,,,,Malual West Payam (Aweil N),,,,,Aweil North County,Northern Bahr El Ghazal State,,,
,no,Morgok PHCU,,,Visit Location;,,,,Pachaar Payam,,,,,Panyijar County,Unity State,,,
,no,Moridi PHCU,,,Visit Location;,,,,Nyori Payam,,,,,Terekeka County,Central Equatoria State,,,
,no,Morkuec PHCU,,,Visit Location;,,,,Bargel Payam,,,,,Wulu County,Lakes State,,,
,no,Morobo Hospital,,,Visit Location;,,,,Gulumbi Payam,,,,,Morobo County,Central Equatoria State,,,
,no,Morobo PHCC,,,Visit Location;,,,,Gulumbi Payam,,,,,Morobo County,Central Equatoria State,,,
,no,Morsack PHCU,,,Visit Location;,,,,Lobonok Payam,,,,,Juba County,Central Equatoria State,,,
,no,Morsak PHCC,,,Visit Location;,,,,Otogo Payam,,,,,Yei County,Central Equatoria State,,,
,no,Moruanrengan PHCU,,,Visit Location;,,,,Otogo Payam,,,,,Yei County,Eastern Equatoria State,,,
,no,Moso PHCU,,,Visit Location;,,,,Bagidi Payam,,,,,Ezo County,Western Equatoria State,,,
,no,Mossingo PHCU,,,Visit Location;,,,,Mosingo Payam,,,,,Kapoeta North County,Eastern Equatoria State,,,
,no,Mother Theresa General HOSPITAL,,,Visit Location;,,,,Turalei Payam,,,,,Twic County,Warrap State,,,
,no,Moti PHCU,,,Visit Location;,,,,Ifwotu Payam,,,,,Torit County,Eastern Equatoria State,,,
,no,Motot PHCC,,,Visit Location;,,,,Wuror Payam,,,,,Uror County,Jonglei State,,,
,no,Movo PHCU,,,Visit Location;,,,,Kediba Payam,,,,,Mundri East County,Western Equatoria State,,,
,no,MSF - HOLLAND HOSPITAL,,,Visit Location;,,,,Nasir Payam,,,,,Luakpiny/Nasir County,Upper Nile State,,,
,no,MSF Clinic PHCC,,,Visit Location;,,,,Central Malakal Payam,,,,,Malakal County,Upper Nile State,,,
,no,MSF HOSPITAL (Bentiu),,,Visit Location;,,,,Bentiu PoC Payam,,,,,Rubkona County,Unity State,,,
,no,MSF-H PHCU,,,Visit Location;,,,,Pathai Payam,,,,,Uror County,Jonglei State,,,
,no,Mudubai PHCU,,,Visit Location;,,,,Maridi Payam,,,,,Maridi County,Western Equatoria State,,,
,no,Mugali PHCC,,,Visit Location;,,,,Mugali Payam,,,,,Magwi County,Eastern Equatoria State,,,
,no,Mugiri PHCU,,,Visit Location;,,,,Mangala South Payam,,,,,Juba County,Central Equatoria State,,,
,no,Mugwo PHCC,,,Visit Location;,,,,Mugwo Payam,,,,,Yei County,Central Equatoria State,,,
,no,Muktah PHCC,,,Visit Location;,,,,Wau North Payam,,,,,Wau County,Western Bahr El Ghazal State,,,
,no,Mundari Bura PHCC,,,Visit Location;,,,,Tindilo Payam,,,,,Terekeka County,Central Equatoria State,,,
,no,Mundri PHCC,,,Visit Location;,,,,Mundri Payam,,,,,Mundri West County,Western Equatoria State,,,
,no,Muni PHCC,,,Visit Location;,,,,Muni Payam,,,,,Terekeka County,Central Equatoria State,,,
,no,Munuki PHCC,,,Visit Location;,,,,Munuki Payam,,,,,Juba County,Central Equatoria State,,,
,no,Mupoi PHCC,,,Visit Location;,,,,Mupoi Payam,,,,,Tambura County,Western Equatoria State,,,
,no,Mura Hatiha PHCU,,,Visit Location;,,,,Hiyala Payam,,,,,Torit County,Eastern Equatoria State,,,
,no,Mura Lopit PHCU,,,Visit Location;,,,,Imehejek Payam,,,,,Lafon/Lopa County,Eastern Equatoria State,,,
,no,Mutebwa PHCU,,,Visit Location;,,,,Mugali Payam,,,,,Magwi County,Eastern Equatoria State,,,
,no,Mvolo PHCC,,,Visit Location;,,,,Mvolo Payam,,,,,Mvolo County,Western Equatoria State,,,
,no,N.H.I PHCC,,,Visit Location;,,,,North Renk Payam,,,,,Renk County,Upper Nile State,,,
,no,N.H.I PHCC,,,Visit Location;,,,,North Renk Payam,,,,,Renk County,Upper Nile State,,,
,no,N.H.I Yambio PHCC,,,Visit Location;,,,,Yambio Town Payam,,,,,Yambio County,Western Equatoria State,,,
,no,Naakwa PHCC,,,Visit Location;,,,,Karukomuge Payam,,,,,Kapoeta North County,Eastern Equatoria State,,,
,no,Naam PHCU,,,Visit Location;,,,,Ngamunde Payam,,,,,Maridi County,Western Equatoria State,,,
,no,Naandi PHCC,,,Visit Location;,,,,Naandi Payam,,,,,Ezo County,Western Equatoria State,,,
,no,Naangbimo PHCU,,,Visit Location;,,,,Yambio Town Payam,,,,,Yambio County,Western Equatoria State,,,
,no,Nabaga PHCC,,,Visit Location;,,,,Nabanga Payam,,,,,Ibba County,Western Equatoria State,,,
,no,Nabagu I PHCU,,,Visit Location;,,,,Yambio Town Payam,,,,,Yambio County,Western Equatoria State,,,
,no,Nabagu II PHCU,,,Visit Location;,,,,Yambio Town Payam,,,,,Yambio County,Western Equatoria State,,,
,no,Nabanga PHCC,,,Visit Location;,,,,Nabanga Payam,,,,,Ibba County,Western Equatoria State,,,
,no,Nabaria PHCU,,,Visit Location;,,,,Tambura Payam,,,,,Tambura County,Western Equatoria State,,,
,no,Nabia Pai PHCU,,,Visit Location;,,,,Gangura Payam,,,,,Yambio County,Western Equatoria State,,,
,no,Nabubu PHCU,,,Visit Location;,,,,Sakure Payam,,,,,Nzara County,Western Equatoria State,,,
,no,Nachilagur PHCU,,,Visit Location;,,,,Machi I Payam,,,,,Kapoeta South County,Eastern Equatoria State,,,
,no,Nachukut PHCU,,,Visit Location;,,,,Pwata Payam,,,,,Kapoeta South County,Eastern Equatoria State,,,
,no,Nadapal PHCU,,,Visit Location;,,,,Narus Payam,,,,,Kapoeta East County,Eastern Equatoria State,,,
,no,Nadiagere PHCC,,,Visit Location;,,,,Nadiangere Payam,,,,,Yambio County,Western Equatoria State,,,
,no,Nagasi PHCU,,,Visit Location;,,,,Naandi Payam,,,,,Ezo County,Western Equatoria State,,,
,no,Nagbaka PHCU,,,Visit Location;,,,,Maridi Payam,,,,,Maridi County,Western Equatoria State,,,
,no,Nagero PHCC,,,Visit Location;,,,,Nagero Payam,,,,,Nagero County,Western Equatoria State,,,
,no,Nagishot PHCC,,,Visit Location;,,,,Nagishot Payam,,,,,Budi County,Eastern Equatoria State,,,
,no,Naivasha PHCC,,,Visit Location;,,,,Wau North Payam,,,,,Wau County,Western Bahr El Ghazal State,,,
,no,Nak Nak PHCU,,,Visit Location;,,,,Pwata Payam,,,,,Kapoeta South County,Eastern Equatoria State,,,
,no,Nakabangole PHCU,,,Visit Location;,,,,Katodori Payam,,,,,Kapoeta East County,Eastern Equatoria State,,,
,no,Nakabangole PHCU,,,Visit Location;,,,,Katodori Payam,,,,,Kapoeta East County,Eastern Equatoria State,,,
,no,Nakapazi P PHCU,,,Visit Location;,,,,Nzara Centre Payam,,,,,Nzara County,Western Equatoria State,,,
,no,Nakdiar PHCU,,,Visit Location;,,,,Panyikang Payam,,,,,Panyikang County,Upper Nile State,,,
,no,Nakiri PHCU,,,Visit Location;,,,,Yambio Town Payam,,,,,Yambio County,Western Equatoria State,,,
,no,Nakofo PHCU,,,Visit Location;,,,,Yambio Town Payam,,,,,Yambio County,Western Equatoria State,,,
,no,Nakoringole PHCU,,,Visit Location;,,,,Losite Payam,,,,,Ikotos County,Eastern Equatoria State,,,
,no,Nakware PHCU,,,Visit Location;,,,,Machi II Payam,,,,,Kapoeta South County,Eastern Equatoria State,,,
,no,NALIEL PHCU,,,Visit Location;,,,,Narus Payam,,,,,Kapoeta East County,Eastern Equatoria State,,,
,no,NALINGARO PHCU,,,Visit Location;,,,,Machi I Payam,,,,,Kapoeta South County,Eastern Equatoria State,,,
,no,Namaiku PHCU,,,Visit Location;,,,,Nzara Centre Payam,,,,,Nzara County,Western Equatoria State,,,
,no,Namama II PHCU,,,Visit Location;,,,,Gangura Payam,,,,,Yambio County,Western Equatoria State,,,
,no,Namama PHCU,,,Visit Location;,,,,Basukangbi Payam,,,,,Nzara County,Western Equatoria State,,,
,no,Nambia PHCU,,,Visit Location;,,,,Nzara Centre Payam,,,,,Nzara County,Western Equatoria State,,,
,no,Nambia PHCU,,,Visit Location;,,,,Nzara Centre Payam,,,,,Nzara County,Western Equatoria State,,,
,no,NambiaII PHCU,,,Visit Location;,,,,Yambio Town Payam,,,,,Yambio County,Western Equatoria State,,,
,no,Naminitoit PHCU,,,Visit Location;,,,,Lomeyen Payam,,,,,Kapoeta North County,Eastern Equatoria State,,,
,no,Naminitoit Prison PHCU,,,Visit Location;,,,,Lomeyen Payam,,,,,Kapoeta North County,Eastern Equatoria State,,,
,no,Namonicheck PHCU,,,Visit Location;,,,,Mosingo Payam,,,,,Kapoeta North County,Eastern Equatoria State,,,
,no,NAMORONYANG PHCU,,,Visit Location;,,,,Pwata Payam,,,,,Kapoeta South County,Eastern Equatoria State,,,
,no,NAMORUPUS PHCU,,,Visit Location;,,,,Kauto Payam,,,,,Kapoeta East County,Eastern Equatoria State,,,
,no,Namutina PHCC,,,Visit Location;,,,,Namutina Payam (Nagero),,,,,Nagero County,Western Equatoria State,,,
,no,Nangbabe PHCU,,,Visit Location;,,,,Bagidi Payam,,,,,Ezo County,Western Equatoria State,,,
,no,Nangbabe1 PHCU,,,Visit Location;,,,,Bagidi Payam,,,,,Ezo County,Western Equatoria State,,,
,no,Nangere PHCU,,,Visit Location;,,,,Bangasu Payam,,,,,Yambio County,Western Equatoria State,,,
,no,Nangirimo PHCU,,,Visit Location;,,,,Sakure Payam,,,,,Nzara County,Western Equatoria State,,,
,no,Nangolet PHCU,,,Visit Location;,,,,Sakure Payam,,,,,Nzara County,Eastern Equatoria State,,,
,no,Nangoletirae PHCU,,,Visit Location;,,,,Najie Payam,,,,,Kapoeta North County,Eastern Equatoria State,,,
,no,Nangongo PHCU,,,Visit Location;,,,,Mupoi Payam,,,,,Tambura County,Western Equatoria State,,,
,no,Nangume PHCU,,,Visit Location;,,,,Nadiangere Payam,,,,,Yambio County,Western Equatoria State,,,
,no,Nanguruza PHCU,,,Visit Location;,,,,Gangura Payam,,,,,Yambio County,Western Equatoria State,,,
,no,Nanzinga PHCU,,,Visit Location;,,,,Ezo Centre Payam,,,,,Ezo County,Western Equatoria State,,,
,no,Napere PHCU,,,Visit Location;,,,,Ezo Centre Payam,,,,,Ezo County,Western Equatoria State,,,
,no,Napetait PHCC,,,Visit Location;,,,,Pwata Payam,,,,,Kapoeta South County,Eastern Equatoria State,,,
,no,NAPOTPOT (Loburi) PHCU,,,Visit Location;,,,,Katodori Payam,,,,,Kapoeta East County,Eastern Equatoria State,,,
,no,Narus Border Point,,,Visit Location;,,,,Narus Payam,,,,,Kapoeta East County,Eastern Equatoria State,,,
,no,Narus CDoT PHCC,,,Visit Location;,,,,Narus Payam,,,,,Kapoeta East County,Eastern Equatoria State,,,
,no,Narus PHCC,,,Visit Location;,,,,Narus Payam,,,,,Kapoeta East County,Eastern Equatoria State,,,
,no,Nasigigriate PHCU,,,Visit Location;,,,,Mogos Payam,,,,,Kapoeta East County,Eastern Equatoria State,,,
,no,Nasir HOSPITAL,,,Visit Location;,,,,Nasir Payam,,,,,Luakpiny/Nasir County,Upper Nile State,,,
,no,Nasue PHCU,,,Visit Location;,,,,Gangura Payam,,,,,Yambio County,Western Equatoria State,,,
,no,Naswat PHCU,,,Visit Location;,,,,Gangura Payam,,,,,Yambio County,Eastern Equatoria State,,,
,no,Natabu PHCU,,,Visit Location;,,,,Bagari Payam,,,,,Wau County,Western Bahr El Ghazal State,,,
,no,Nathilani PHCU,,,Visit Location;,,,,Loudo Payam,,,,,Budi County,Eastern Equatoria State,,,
,no,Natikai OTP,,,Visit Location;,,,,Karukomuge Payam,,,,,Kapoeta North County,Eastern Equatoria State,,,
,no,Natinga PHCU,,,Visit Location;,,,,Natinga Payam,,,,,Kapoeta East County,Eastern Equatoria State,,,
,no,National Health Insurance PHCC,,,Visit Location;,,,,Nyong Payam,,,,,Torit County,Eastern Equatoria State,,,
,no,National Insuarence PHCC,,,Visit Location;,,,,Geger Payam,,,,,Renk County,Upper Nile State,,,
,no,National Leprosy PHCC,,,Visit Location;,,,,Wau South Payam,,,,,Wau County,Western Bahr El Ghazal State,,,
,no,Nawoyamuria PHCU,,,Visit Location;,,,,Chumakori Payam,,,,,Kapoeta North County,Eastern Equatoria State,,,
,no,Nawoyamuria PHCU,,,Visit Location;,,,,Chumakori Payam,,,,,Kapoeta North County,Eastern Equatoria State,,,
,no,Nayure PHCU,,,Visit Location;,,,,Yambio Town Payam,,,,,Yambio County,Western Equatoria State,,,
,no,Ndaku PHCU,,,Visit Location;,,,,Bagari Payam,,,,,Wau County,Western Bahr El Ghazal State,,,
,no,Ndauuro PHCU,,,Visit Location;,,,,Yambio Town Payam,,,,,Yambio County,Western Equatoria State,,,
,no,Ndavura PHCU,,,Visit Location;,,,,Yambio Town Payam,,,,,Yambio County,Western Equatoria State,,,
,no,Ndoromo PHCU,,,Visit Location;,,,,Basukangbi Payam,,,,,Nzara County,Western Equatoria State,,,
,no,Nesitu PHCU,,,Visit Location;,,,,Lokiliri Payam,,,,,Juba County,Central Equatoria State,,,
,no,New Fangak Lele PHCC,,,Visit Location;,,,,Mareang Payam,,,,,Fangak County,Jonglei State,,,
,no,New Guffa PHCU,,,Visit Location;,,,,Khor El Amer Payam,,,,,Maban County,Upper Nile State,,,
,no,New Site PHCC,,,Visit Location;,,,,Northern Bari Payam,,,,,Juba County,Central Equatoria State,,,
,no,New Site PHCC,,,Visit Location;,,,,Northern Bari Payam,,,,,Juba County,Western Bahr El Ghazal State,,,
,no,New Site Wodran PHCC,,,Visit Location;,,,,Natinga Payam,,,,,Kapoeta East County,Eastern Equatoria State,,,
,no,Ngaluma PHCU,,,Visit Location;,,,,Imotong Payam,,,,,Ikotos County,Eastern Equatoria State,,,
,no,Ngamunde PHCC,,,Visit Location;,,,,Ngamunde Payam,,,,,Maridi County,Western Equatoria State,,,
,no,Ngangalla PHCU,,,Visit Location;,,,,Lirya Payam,,,,,Juba County,Central Equatoria State,,,
,no,Ngapagok PHCC,,,Visit Location;,,,,Ananatak Payam,,,,,Tonj East County,Warrap State,,,
,no,Ngatuba PHCU,,,Visit Location;,,,,Loudo Payam,,,,,Budi County,Eastern Equatoria State,,,
,no,Ngauro PHCC,,,Visit Location;,,,,Ngauro Payam,,,,,Budi County,Eastern Equatoria State,,,
,no,Ngbambia PHCU,,,Visit Location;,,,,Ringasi Payam,,,,,Nzara County,Western Equatoria State,,,
,no,Ngboko PHCU,,,Visit Location;,,,,Rii - Yubu Payam,,,,,Tambura County,Western Equatoria State,,,
,no,Ngburusai PHCU,,,Visit Location;,,,,Ngamunde Payam,,,,,Maridi County,Western Equatoria State,,,
,no,Ngisa PHCU,,,Visit Location;,,,,Bagari Payam,,,,,Wau County,Western Bahr El Ghazal State,,,
,no,Ngodakala PHCC,,,Visit Location;,,,,Bagari Payam,,,,,Wau County,Western Bahr El Ghazal State,,,
,no,Ngogala PHCU,,,Visit Location;,,,,Namutina Payam (Nagero),,,,,Nagero County,Western Equatoria State,,,
,no,Ngohalima A PHCU,,,Visit Location;,,,,Bagari Payam,,,,,Wau County,Western Bahr El Ghazal State,,,
,no,Ngohalima B PHCU,,,Visit Location;,,,,Bagari Payam,,,,,Wau County,Western Bahr El Ghazal State,,,
,no,Ngoku PHCU,,,Visit Location;,,,,Besselia Payam,,,,,Wau County,Western Bahr El Ghazal State,,,
,no,Ngoku PHCU,,,Visit Location;,,,,Besselia Payam,,,,,Wau County,Western Bahr El Ghazal State,,,
,no,Ngolingbo PHCU,,,Visit Location;,,,,Besselia Payam,,,,,Wau County,Western Bahr El Ghazal State,,,
,no,Ngong PHCU,,,Visit Location;,,,,Ngony Payam,,,,,Koch County,Unity State,,,
,no,Ngongba PHCU,,,Visit Location;,,,,Besselia Payam,,,,,Wau County,Western Bahr El Ghazal State,,,
,no,Ngoni PHCU,,,Visit Location;,,,,Duma Payam,,,,,Nagero County,Western Equatoria State,,,
,no,Ngonzorono PHCU,,,Visit Location;,,,,Namutina Payam (Nagero),,,,,Nagero County,Western Equatoria State,,,
,no,Ngop PHCU,,,Visit Location;,,,,Ngop Payam,,,,,Mayom County,Unity State,,,
,no,Ngulere PHCU,,,Visit Location;,,,,Lirya Payam,,,,,Juba County,Central Equatoria State,,,
,no,Ngunkata PHCU,,,Visit Location;,,,,Yambio Town Payam,,,,,Yambio County,Western Equatoria State,,,
,no,Nhialdiu PHCC,,,Visit Location;,,,,Nhialdiu Payam,,,,,Rubkona County,Unity State,,,
,no,Niemni PHCC,,,Visit Location;,,,,Niemni Payam,,,,,Guit County,Unity State,,,
,no,Nile Ganga PHCC,,,Visit Location;,,,,Pariang Payam,,,,,Pariang County,Ruweng Administrative Area,,,
,no,Nile Gangah PHCC,,,Visit Location;,,,,Rubkotne Payam,,,,,Rubkona County,Unity State,,,
,no,Nilla PHCU,,,Visit Location;,,,,Khor El Amer Payam,,,,,Maban County,Upper Nile State,,,
,no,Nimule Border Point,,,Visit Location;,,,,Khor El Amer Payam,,,,,Maban County,Eastern Equatoria State,,,
,no,Nimule CDOT PHCC,,,Visit Location;,,,,Nimule Payam,,,,,Magwi County,Eastern Equatoria State,,,
c8a713c1-1876-4fe5-a09c-59fa379a08ac,no,Nimule HOSPITAL,Nimule Location,,Visit Location;,EES/NMC,,,Nimule Payam,,,,,Magwi County,Eastern Equatoria State,,,
,no,Nimule Isolation,,,Visit Location;,,,,Nimule Payam,,,,,Magwi County,Eastern Equatoria State,,,
,no,Nomanyang PHCU,,,Visit Location;,,,,Pajiek Payam,,,,,Ayod County,Jonglei State,,,
,no,Noon PHCU,,,Visit Location;,,,,Kwoj Payam,,,,,Manyo County,Upper Nile State,,,
,no,Noong PHCU,,,Visit Location;,,,,Alal Payam,,,,,Abyei County,Abyei Administrative Area,,,
,no,Nor Bor PHCU,,,Visit Location;,,,,Norbor Payam,,,,,Koch County,Unity State,,,
,no,Normeca PHCC,,,Visit Location;,,,,Machi I Payam,,,,,Kapoeta South County,Eastern Equatoria State,,,
,no,Nukta Thoklial PHCC,,,Visit Location;,,,,Dengjok Payam,,,,,Akobo County,Jonglei State,,,
,no,Nuktamanga PHCU,,,Visit Location;,,,,Domoloto Payam,,,,,Wulu County,Lakes State,,,
,no,Nuni PHCU,,,Visit Location;,,,,Bangolo Payam,,,,,Mundri West County,Western Equatoria State,,,
,no,Nyadin PHCC,,,Visit Location;,,,,Mareang Payam,,,,,Fangak County,Jonglei State,,,
,no,Nyadiu PHCC,,,Visit Location;,,,,Paguer Payam,,,,,Fangak County,Jonglei State,,,
,no,Nyadong PHCU,,,Visit Location;,,,,Nyal Payam,,,,,Panyijar County,Unity State,,,
,no,Nyaka PHCU,,,Visit Location;,,,,Bangasu Payam,,,,,Yambio County,Western Equatoria State,,,
,no,Nyakuron PHCC,,,Visit Location;,,,,Munuki Payam,,,,,Juba County,Central Equatoria State,,,
,no,Nyal PHCC,,,Visit Location;,,,,Nyal Payam,,,,,Panyijar County,Unity State,,,
,no,Nyalangoro PHCU,,,Visit Location;,,,,Boma Payam,,,,,Pibor County,Pibor Administrative Area,,,
,no,Nyalath PHCU,,,Visit Location;,,,,Nyalath Payam,,,,,Aweil Centre County,Northern Bahr El Ghazal State,,,
,no,Nyamini PHCU,,,Visit Location;,,,,Dolo Payam,,,,,Juba County,Central Equatoria State,,,
,no,Nyamlel PHCC,,,Visit Location;,,,,Gomjuer Center Payam,,,,,Aweil West County,Northern Bahr El Ghazal State,,,
,no,Nyamlel PHCC,,,Visit Location;,,,,Gomjuer Center Payam,,,,,Aweil West County,Northern Bahr El Ghazal State,,,
,no,Nyang Koot PHCU,,,Visit Location;,,,,Matangai Payam,,,,,Rumbek Centre County,Lakes State,,,
,no,Nyang PHCC,,,Visit Location;,,,,Lekakedu Payam,,,,,Yirol East County,Lakes State,,,
,no,Nyanga PHCU,,,Visit Location;,,,,Tindilo Payam,,,,,Terekeka County,Central Equatoria State,,,
,no,Nyangore PHCU,,,Visit Location;,,,,Ulang Payam,,,,,Ulang County,Upper Nile State,,,
,no,Nyara PHCU,,,Visit Location;,,,,Yire Payam,,,,,Torit County,Eastern Equatoria State,,,
,no,Nyarjuw PHCU,,,Visit Location;,,,,Lobonok Payam,,,,,Juba County,Central Equatoria State,,,
,no,Nyasi PHCU,,,Visit Location;,,,,Naandi Payam,,,,,Ezo County,Western Equatoria State,,,
,no,Nyat PHCU,,,Visit Location;,,,,Marow Payam,,,,,Pibor County,Pibor Administrative Area,,,
,no,Nyathoar PHCU,,,Visit Location;,,,,Nyathoar Payam,,,,,Guit County,Unity State,,,
,no,Nyawit PHCU,,,Visit Location;,,,,Kurwai Payam,,,,,Ayod County,Jonglei State,,,
,no,Nyerjebi PHCU,,,Visit Location;,,,,Lokiliri Payam,,,,,Juba County,Central Equatoria State,,,
,no,Nyetok PHCU,,,Visit Location;,,,,Kigile Payam,,,,,Maiwut County,Upper Nile State,,,
,no,Nyibodo PHCU,,,Visit Location;,,,,Tonga Payam,,,,,Panyikang County,Upper Nile State,,,
,no,Nyiel PHCC,,,Visit Location;,,,,Nyiel Payam,,,,,Pariang County,Ruweng Administrative Area,,,
,no,Nyien Alel PHCU,,,Visit Location;,,,,Chel South Payam,,,,,Aweil Centre County,Northern Bahr El Ghazal State,,,
,no,Nyieth PHCU,,,Visit Location;,,,,Akon South Payam,,,,,Gogrial West County,Northern Bahr El Ghazal State,,,
,no,Nyieth PHCU,,,Visit Location;,,,,Akon South Payam,,,,,Gogrial West County,Northern Bahr El Ghazal State,,,
,no,Nyikabur PHCU,,,Visit Location;,,,,Terekeka Payam,,,,,Terekeka County,Central Equatoria State,,,
,no,Nyiliech PHCU,,,Visit Location;,,,,Athidwoi Payam,,,,,Manyo County,Upper Nile State,,,
,no,Nyiluak PHCC,,,Visit Location;,,,,Panyikang Payam,,,,,Panyikang County,Upper Nile State,,,
,no,Nyinakok PHCU,,,Visit Location;,,,,Wau Bai Payam,,,,,Jur River County,Western Bahr El Ghazal State,,,
,no,Nyinbouli PHCC,,,Visit Location;,,,,Ayat West Payam,,,,,Aweil West County,Northern Bahr El Ghazal State,,,
,no,Nyinbouli PHCC,,,Visit Location;,,,,Ayat West Payam,,,,,Aweil West County,Northern Bahr El Ghazal State,,,
,no,Nyium PHCU,,,Visit Location;,,,,Adongo Payam,,,,,Pochalla County,Pibor Administrative Area,,,
,no,Nyokthiang PHCU,,,Visit Location;,,,,Alek West Payam,,,,,Gogrial West County,Warrap State,,,
,no,Nyong PHCC,,,Visit Location;,,,,Nyong Payam,,,,,Torit County,Eastern Equatoria State,,,
,no,Nyori PHCU,,,Visit Location;,,,,Lasu Payam,,,,,Yei County,Central Equatoria State,,,
,no,Nyori PHCU,,,Visit Location;,,,,Lasu Payam,,,,,Yei County,Central Equatoria State,,,
,no,Nyoro PHCU,,,Visit Location;,,,,Dolo Payam,,,,,Juba County,Central Equatoria State,,,
,no,Nyuwa PHCU,,,Visit Location;,,,,Northern Bari Payam,,,,,Juba County,Central Equatoria State,,,
,no,Nzama PHCU,,,Visit Location;,,,,Tambura Payam,,,,,Tambura County,Western Equatoria State,,,
,no,Nzara HOSPITAL,,,Visit Location;,,,,Nzara Centre Payam,,,,,Nzara County,Western Equatoria State,,,
,no,Nzara PHCC,,,Visit Location;,,,,Nzara Centre Payam,,,,,Nzara County,Western Equatoria State,,,
,no,Oagn PHCC,,,Visit Location;,,,,Boma Payam,,,,,Pibor County,Pibor Administrative Area,,,
,no,Obbo PHCC,,,Visit Location;,,,,Magwi Payam,,,,,Magwi County,Eastern Equatoria State,,,
,no,Obei PHCC,,,Visit Location;,,,,Panyidwoi Payam,,,,,Panyikang County,Upper Nile State,,,
,no,Obel PHCC,,,Visit Location;,,,,Panyidwoi Payam,,,,,Panyikang County,Upper Nile State,,,
,no,Obud PHCU,,,Visit Location;,,,,Kaka Payam,,,,,Manyo County,Upper Nile State,,,
,no,Obuodi PHCU,,,Visit Location;,,,,Pochalla Payam,,,,,Pochalla County,Pibor Administrative Area,,,
,no,Offi PHCU,,,Visit Location;,,,,Hiyala Payam,,,,,Torit County,Eastern Equatoria State,,,
,no,Offiri PHCU,,,Visit Location;,,,,Kudo Payam,,,,,Torit County,Eastern Equatoria State,,,
,no,Ofiriha Magwi PHCU,,,Visit Location;,,,,Magwi Payam,,,,,Magwi County,Eastern Equatoria State,,,
,no,Ofiriha PHCU,,,Visit Location;,,,,Kudo Payam,,,,,Torit County,Eastern Equatoria State,,,
,no,Ogon PHCU,,,Visit Location;,,,,Athidwoi Payam,,,,,Manyo County,Upper Nile State,,,
,no,Ogot IPD PHCU,,,Visit Location;,,,,Ogot Payam,,,,,Malakal County,Upper Nile State,,,
,no,Oguruny PHCU,,,Visit Location;,,,,Hiyala Payam,,,,,Torit County,Eastern Equatoria State,,,
,no,Ohila PHCU,,,Visit Location;,,,,Bur Payam,,,,,Torit County,Eastern Equatoria State,,,
,no,Ohiri PHCU,,,Visit Location;,,,,Bur Payam,,,,,Torit County,Eastern Equatoria State,,,
,no,Ojangbai PHCU,,,Visit Location;,,,,Pochalla Payam,,,,,Pochalla County,Pibor Administrative Area,,,
,no,Okadi PHCU,,,Visit Location;,,,,Akiela Payam,,,,,Pochalla County,Pibor Administrative Area,,,
,no,Okadi PHCU,,,Visit Location;,,,,Akiela Payam,,,,,Pochalla County,Pibor Administrative Area,,,
,no,Okorohore PHCU,,,Visit Location;,,,,Lomohidang South Payam,,,,,Ikotos County,Eastern Equatoria State,,,
,no,Old Akobo PHCU,,,Visit Location;,,,,Bilkey Payam,,,,,Akobo County,Jonglei State,,,
,no,Old Fangak HOSPITAL,,,Visit Location;,,,,Old Fangak Payam,,,,,Fangak County,Jonglei State,,,
,no,Olere PHCU,,,Visit Location;,,,,Imurok Payam,,,,,Torit County,Eastern Equatoria State,,,
,no,Olianga PHCU,,,Visit Location;,,,,Hiyala Payam,,,,,Torit County,Eastern Equatoria State,,,
,no,Olikwi PHCU,,,Visit Location;,,,,Nimule Payam,,,,,Magwi County,Eastern Equatoria State,,,
,no,Olo PHCC,,,Visit Location;,,,,Mambe Payam,,,,,Maridi County,Western Equatoria State,,,
,no,Omar PHCU,,,Visit Location;,,,,Wadakona Payam,,,,,Manyo County,Upper Nile State,,,
,no,Ombasi PHCC,,,Visit Location;,,,,Otogo Payam,,,,,Yei County,Central Equatoria State,,,
,no,Omdulus PHCU,,,Visit Location;,,,,Geger Payam,,,,,Renk County,Upper Nile State,,,
,no,Omdurman PHCC,,,Visit Location;,,,,Baach Payam,,,,,Aweil East County,Northern Bahr El Ghazal State,,,
,no,Omeo PHCU,,,Visit Location;,,,,Magwi Payam,,,,,Magwi County,Eastern Equatoria State,,,
,no,Ommire PHCU,,,Visit Location;,,,,Magwi Payam,,,,,Magwi County,Upper Nile State,,,
,no,Ongelet PHCU,,,Visit Location;,,,,Bur Payam,,,,,Torit County,Eastern Equatoria State,,,
,no,Opari PHCC,,,Visit Location;,,,,Pageri Payam,,,,,Magwi County,Eastern Equatoria State,,,
,no,Oriaju PHCU,,,Visit Location;,,,,Bur Payam,,,,,Torit County,Eastern Equatoria State,,,
,no,Origena PHCU,,,Visit Location;,,,,Boma Payam,,,,,Pibor County,Pibor Administrative Area,,,
,no,Orinyi PHCC,,,Visit Location;,,,,Lul Payam,,,,,Fashoda County,Upper Nile State,,,
,no,Orobe PHCU,,,Visit Location;,,,,Pageri Payam,,,,,Magwi County,Eastern Equatoria State,,,
,no,Oronyo PHCC,,,Visit Location;,,,,Bur Payam,,,,,Torit County,Eastern Equatoria State,,,
,no,Orphanage PHCU,,,Visit Location;,,,,Kangapo One Payam,,,,,Kajo-Keji County,Central Equatoria State,,,
,no,Osito PHCU,,,Visit Location;,,,,Bur Payam,,,,,Torit County,Eastern Equatoria State,,,
,no,Otallo PHCU,,,Visit Location;,,,,Adongo Payam,,,,,Pochalla County,Pibor Administrative Area,,,
,no,Otego PHCU,,,Visit Location;,,,,Kodok Payam,,,,,Fashoda County,Upper Nile State,,,
,no,Oweci PHCC,,,Visit Location;,,,,Dheteim Payam,,,,,Panyikang County,Upper Nile State,,,
,no,OWING KIBUL M. TXC VCT PHCU,,,Visit Location;,,,,Magwi Payam,,,,,Magwi County,Eastern Equatoria State,,,
,no,Owinykibul PHCC,,,Visit Location;,,,,Magwi Payam,,,,,Magwi County,Eastern Equatoria State,,,
,no,OWINYKIBUL PHCU,,,Visit Location;,,,,Magwi Payam,,,,,Magwi County,Eastern Equatoria State,,,
,no,P.H.Care Unit PHCU,,,Visit Location;,,,,Maal Payam,,,,,Mayendit County,Unity State,,,
,no,PAAK PHCU,,,Visit Location;,,,,Maal Payam,,,,,Mayendit County,Unity State,,,
,no,Pabar PHCU,,,Visit Location;,,,,Panyijiar Payam,,,,,Panyijar County,Unity State,,,
,no,Pabo PHCU,,,Visit Location;,,,,Kodok Payam,,,,,Fashoda County,Upper Nile State,,,
,no,Pabuong PHCU,,,Visit Location;,,,,Pabuong Payam,,,,,Mayendit County,Unity State,,,
,no,Pabur PHCU,,,Visit Location;,,,,Geng-geng Payam,,,,,Yirol West County,Lakes State,,,
,no,Pachak PHCU,,,Visit Location;,,,,Pachaar Payam,,,,,Panyijar County,Unity State,,,
,no,Pachar PHCU,,,Visit Location;,,,,Pachaar Payam,,,,,Panyijar County,Unity State,,,
,no,Pachidi/Lwala PHCU,,,Visit Location;,,,,Pachidi Payam,,,,,Lafon/Lopa County,Eastern Equatoria State,,,
,no,Pacienjok PHCC,,,Visit Location;,,,,Pachak Payam,,,,,Panyijar County,Unity State,,,
,no,Pacong PHCC,,,Visit Location;,,,,Pachong Payam,,,,,Rumbek East County,Lakes State,,,
,no,Padeah PHCU,,,Visit Location;,,,,Padeah Payam,,,,,Leer County,Unity State,,,
,no,Padek PHCC,,,Visit Location;,,,,Wau Payam,,,,,Ayod County,Jonglei State,,,
,no,Padieng PHCU,,,Visit Location;,,,,Tiap Payam,,,,,Panyijar County,Unity State,,,
,no,Padiet PHCC,,,Visit Location;,,,,Padiet Payam,,,,,Duk County,Jonglei State,,,
,no,Pading PHCU,,,Visit Location;,,,,Pading Payam,,,,,Nyirol County,Jonglei State,,,
,no,Pagaak PHCC,,,Visit Location;,,,,Pagak Payam,,,,,Duk County,Jonglei State,,,
,no,Pagai Anyuon PHCC,,,Visit Location;,,,,Aweeng Payam,,,,,Twic County,Warrap State,,,
,no,Pagai PHCU,,,Visit Location;,,,,Baach Payam,,,,,Aweil East County,Northern Bahr El Ghazal State,,,
,no,Pagak PHCC,,,Visit Location;,,,,Pagak Payam (Maiwut),,,,,Maiwut County,Upper Nile State,,,
,no,Pagakdit PHCU,,,Visit Location;,,,,Awuul Payam,,,,,Tonj North County,Warrap State,,,
,no,Pagang PHCU,,,Visit Location;,,,,Paloch Payam,,,,,Rumbek East County,Lakes State,,,
,no,Pagara PHCU,,,Visit Location;,,,,Tali Payam,,,,,Terekeka County,Central Equatoria State,,,
,no,Pagarau PHCC,,,Visit Location;,,,,Pagarau Payam,,,,,Yirol East County,Lakes State,,,
,no,Pager PHCC,,,Visit Location;,,,,Lobonok Payam,,,,,Juba County,Central Equatoria State,,,
,no,Pageri PHCC,,,Visit Location;,,,,Pageri Payam,,,,,Magwi County,Eastern Equatoria State,,,
,no,Pagil PHCC,,,Visit Location;,,,,Pagil Payam,,,,,Ayod County,Jonglei State,,,
,no,Pagok PHCU,,,Visit Location;,,,,Baidit Payam,,,,,Bor South County,Jonglei State,,,
,no,Pagol PHCU,,,Visit Location;,,,,Pagol Payam,,,,,Tonj North County,Warrap State,,,
,no,Pagor PHCU,,,Visit Location;,,,,Pagor Payam,,,,,Cueibet County,Lakes State,,,
,no,Paguir PHCU,,,Visit Location;,,,,Paguer Payam,,,,,Fangak County,Jonglei State,,,
,no,Pajiek PHCU,,,Visit Location;,,,,Pajiek Payam,,,,,Ayod County,Jonglei State,,,
,no,Pajok PHCC,,,Visit Location;,,,,Pajok Payam,,,,,Magwi County,Eastern Equatoria State,,,
,no,Pajok PHCU,,,Visit Location;,,,,Pajok Payam,,,,,Magwi County,Eastern Equatoria State,,,
,no,Pajokbeek PHCU,,,Visit Location;,,,,Alek South Payam,,,,,Gogrial West County,Warrap State,,,
,no,Pajut Kurgai PHCC,,,Visit Location;,,,,Panyang Payam,,,,,Duk County,Jonglei State,,,
,no,Pakaan PHCC,,,Visit Location;,,,,Phom Payam,,,,,Fangak County,Jonglei State,,,
,no,Pakam PHCU,,,Visit Location;,,,,Pachienjok Payam,,,,,Panyijar County,Jonglei State,,,
,no,Pakam PHCU,,,Visit Location;,,,,Pachienjok Payam,,,,,Panyijar County,Jonglei State,,,
,no,Pakang PHCU,,,Visit Location;,,,,Pakang Payam,,,,,Panyikang County,Upper Nile State,,,
,no,Pakor PHCU,,,Visit Location;,,,,Riau Payam,,,,,Gogrial West County,Warrap State,,,
,no,Pakula PHCU,,,Visit Location;,,,,Yei Town Payam,,,,,Yei County,Central Equatoria State,,,
,no,Pakur PHCU,,,Visit Location;,,,,Pakur Payam,,,,,Koch County,Unity State,,,
,no,Pakwar PHCU,,,Visit Location;,,,,Panyikang Payam,,,,,Panyikang County,Upper Nile State,,,
,no,Palabach PHCU,,,Visit Location;,,,,Makuach Payam,,,,,Bor South County,Jonglei State,,,
,no,Palal PHCU,,,Visit Location;,,,,Palal Payam,,,,,Tonj East County,Warrap State,,,
,no,Paliang PHCU,,,Visit Location;,,,,Paliang Payam,,,,,Tonj East County,Warrap State,,,
,no,Palieu PHCC,,,Visit Location;,,,,Ajuong Payam,,,,,Twic East County,Jonglei State,,,
,no,Paloc PHCC,,,Visit Location;,,,,Paloch Payam,,,,,Rumbek East County,Lakes State,,,
,no,Paloch PHCC,,,Visit Location;,,,,Paloch Payam (Melut),,,,,Melut County,Upper Nile State,,,
,no,Palotaka PHCU,,,Visit Location;,,,,Magwi Payam,,,,,Magwi County,Eastern Equatoria State,,,
,no,Paluonganyi PHCU,,,Visit Location;,,,,Magwi Payam,,,,,Magwi County,Eastern Equatoria State,,,
,no,Palwar PHCU,,,Visit Location;,,,,Lobone Payam,,,,,Magwi County,Eastern Equatoria State,,,
,no,Pamac PHCU,,,Visit Location;,,,,Pamach Payam,,,,,Longochuk County,Upper Nile State,,,
,no,Pamai PHCU,,,Visit Location;,,,,Wuror Payam,,,,,Uror County,Jonglei State,,,
,no,Pamat PHCU,,,Visit Location;,,,,Malual Centre Payam,,,,,Aweil North County,Northern Bahr El Ghazal State,,,
,no,Pamiir PHCC,,,Visit Location;,,,,Jamjang Payam,,,,,Pariang County,Ruweng Administrative Area,,,
,no,Pan Ameth PHCU,,,Visit Location;,,,,Pannyok Payam,,,,,Twic County,Warrap State,,,
,no,Panabei Awutdeng PHCU,,,Visit Location;,,,,Pannyok Payam,,,,,Twic County,Warrap State,,,
,no,Panacier PHCU,,,Visit Location;,,,,Pannyok Payam,,,,,Twic County,Warrap State,,,
,no,Panadhot PHCU,,,Visit Location;,,,,Pannyok Payam,,,,,Twic County,Northern Bahr El Ghazal State,,,
,no,Panakdit PHCU,,,Visit Location;,,,,Pannyok Payam,,,,,Twic County,Warrap State,,,
,no,Panawac PHCU,,,Visit Location;,,,,Pannyok Payam,,,,,Twic County,Lakes State,,,
,no,Panbai Liangarol PHCU,,,Visit Location;,,,,Pannyok Payam,,,,,Twic County,Warrap State,,,
,no,Pandit Liangarol PHCU,,,Visit Location;,,,,Pannyok Payam,,,,,Twic County,Warrap State,,,
,no,Pandit PHCU,,,Visit Location;,,,,Pannyok Payam,,,,,Twic County,Lakes State,,,
,no,Pandit PHCU,,,Visit Location;,,,,Pannyok Payam,,,,,Twic County,Lakes State,,,
,no,Pandit PHCU,,,Visit Location;,,,,Pannyok Payam,,,,,Twic County,Lakes State,,,
,no,Pangborong PHCU,,,Visit Location;,,,,Pannyok Payam,,,,,Twic County,Jonglei State,,,
,no,Panjap PHCU,,,Visit Location;,,,,Pannyok Payam,,,,,Twic County,Northern Bahr El Ghazal State,,,
,no,Pankar PHCU,,,Visit Location;,,,,Pannyok Payam,,,,,Twic County,Lakes State,,,
,no,Pankot PHCU,,,Visit Location;,,,,Pannyok Payam,,,,,Twic County,Warrap State,,,
,no,Pankuel Thon PHCU,,,Visit Location;,,,,Pannyok Payam,,,,,Twic County,Warrap State,,,
,no,Panlang Noon PHCU,,,Visit Location;,,,,Pannyok Payam,,,,,Twic County,Warrap State,,,
,no,Panliet PHCU,,,Visit Location;,,,,Pannyok Payam,,,,,Twic County,Warrap State,,,
,no,Pan-Nyok PHCC,,,Visit Location;,,,,Pannyok Payam,,,,,Twic County,Warrap State,,,
,no,Panomdit PHCU,,,Visit Location;,,,,Panomdit Payam,,,,,Melut County,Upper Nile State,,,
,no,Panpadiar PHCU,,,Visit Location;,,,,Kolnyang Payam,,,,,Bor South County,Jonglei State,,,
,no,Panthou DTC PHCC,,,Visit Location;,,,,Panthou Payam,,,,,Aweil South County,Northern Bahr El Ghazal State,,,
,no,Pantit PHCU,,,Visit Location;,,,,Gomjuer West Payam,,,,,Aweil West County,Northern Bahr El Ghazal State,,,
,no,Pantit PHCU,,,Visit Location;,,,,Gomjuer West Payam,,,,,Aweil West County,Northern Bahr El Ghazal State,,,
,no,Panwel PHCU,,,Visit Location;,,,,Kolnyang Payam,,,,,Bor South County,Jonglei State,,,
,no,Panyagor County Hospital,,,Visit Location;,,,,Kongor Payam,,,,,Twic East County,Jonglei State,,,
,no,Panyang PHCC,,,Visit Location;,,,,Pariang Payam,,,,,Pariang County,Ruweng Administrative Area,,,
,no,Panyang PHCU,,,Visit Location;,,,,Abiemnom Payam,,,,,Abiemnhom County,Jonglei State,,,
,no,Panyang PHCU,,,Visit Location;,,,,Abiemnom Payam,,,,,Abiemnhom County,Jonglei State,,,
,no,Panyijiar PHCC,,,Visit Location;,,,,Panyijiar Payam,,,,,Panyijar County,Unity State,,,
,no,Panyume PHCU,,,Visit Location;,,,,Panyume Payam,,,,,Morobo County,Central Equatoria State,,,
,no,Papwojo PHCU,,,Visit Location;,,,,Tonga Payam,,,,,Panyikang County,Upper Nile State,,,
,no,Pariak PHCC,,,Visit Location;,,,,Kolnyang Payam,,,,,Bor South County,Jonglei State,,,
,no,Pariak PHCU,,,Visit Location;,,,,Bimachuk Payam,,,,,Melut County,Upper Nile State,,,
,no,Pariang HOSPITAL,,,Visit Location;,,,,Pariang Payam,,,,,Pariang County,Ruweng Administrative Area,,,
,no,PARINGA PHCU,,,Visit Location;,,,,Paringa Payam,,,,,Kapoeta North County,Eastern Equatoria State,,,
,no,Paroc PHCU,,,Visit Location;,,,,Kodok Payam,,,,,Fashoda County,Upper Nile State,,,
,no,Pastor Poul MC PHCU,,,Visit Location;,,,,Ibba Centre Payam,,,,,Ibba County,Western Equatoria State,,,
,no,Patai PHCU,,,Visit Location;,,,,Khorwac Payam,,,,,Pigi County,Jonglei State,,,
,no,Pathai PHCU,,,Visit Location;,,,,Motot Payam,,,,,Uror County,Jonglei State,,,
,no,Pathiang PHCU,,,Visit Location;,,,,Jamjang Payam,,,,,Pariang County,Ruweng Administrative Area,,,
,no,Pathiel PHCU,,,Visit Location;,,,,Kol Payam,,,,,Panyijar County,Unity State,,,
,no,Pathiew PHCU,,,Visit Location;,,,,Abiemnom Payam,,,,,Abiemnhom County,Ruweng Administrative Area,,,
,no,PATIBI PHCU,,,Visit Location;,,,,Pageri Payam,,,,,Magwi County,Eastern Equatoria State,,,
,no,Patiou PHCC,,,Visit Location;,,,,Pakeer Payam,,,,,Twic East County,Jonglei State,,,
,no,Patit PHCC,,,Visit Location;,,,,Ngony Payam,,,,,Koch County,Unity State,,,
,no,Patuenoi PHCU,,,Visit Location;,,,,Ageer Payam,,,,,Duk County,Jonglei State,,,
,no,Patuet PHCC,,,Visit Location;,,,,Karam Payam,,,,,Uror County,Jonglei State,,,
,no,Patuet PHCU,,,Visit Location;,,,,Panyang Payam,,,,,Duk County,Jonglei State,,,
,no,Pawel PHCU,,,Visit Location;,,,,Wath-alel Payam,,,,,Tonj South County,Warrap State,,,
,no,Paweng PHCC,,,Visit Location;,,,,Paweng Payam,,,,,Tonj East County,Warrap State,,,
,no,Payai PHCU,,,Visit Location;,,,,Pathai Payam,,,,,Uror County,Jonglei State,,,
,no,Payawa PHCU,,,Visit Location;,,,,Mugwo Payam,,,,,Yei County,Central Equatoria State,,,
,no,Peace HOSPITAL,,,Visit Location;,,,,Munuki Payam,,,,,Juba County,Central Equatoria State,,,
,no,Peeth PHCU,,,Visit Location;,,,,Akon South Payam,,,,,Gogrial West County,Warrap State,,,
,no,Peiti PHCC,,,Visit Location;,,,,Northern Bari Payam,,,,,Juba County,Central Equatoria State,,,
,no,Pen PHCU,,,Visit Location;,,,,Kitgwang Payam,,,,,Manyo County,Upper Nile State,,,
,no,Peri PHCU,,,Visit Location;,,,,Tindilo Payam,,,,,Terekeka County,Central Equatoria State,,,
,no,Peth PHCU,,,Visit Location;,,,,Malual Bai Payam,,,,,Aweil East County,Northern Bahr El Ghazal State,,,
,no,Peth PHCU,,,Visit Location;,,,,Malual Bai Payam,,,,,Aweil East County,Northern Bahr El Ghazal State,,,
,no,Peth PHCU,,,Visit Location;,,,,Malual Bai Payam,,,,,Aweil East County,Northern Bahr El Ghazal State,,,
,no,Petpet PHCU,,,Visit Location;,,,,Jaak Payam,,,,,Koch County,Unity State,,,
,no,Pibor PHCC,,,Visit Location;,,,,Pibor Payam,,,,,Pibor County,Pibor Administrative Area,,,
,no,Pieri PHCC,,,Visit Location;,,,,Pieri Payam,,,,,Uror County,Jonglei State,,,
,no,Pilieny PHCU,,,Visit Location;,,,,Pilieny Payam,,,,,Leer County,Unity State,,,
,no,Pinydit PHCU,,,Visit Location;,,,,Toch West Payam,,,,,Gogrial East County,Warrap State,,,
,no,Pinythor PHCU,,,Visit Location;,,,,Pagak Payam (Maiwut),,,,,Maiwut County,Upper Nile State,,,
,no,Piobokoi PHCU,,,Visit Location;,,,,Lotukei Payam,,,,,Budi County,Eastern Equatoria State,,,
,no,Pirisa PHCU,,,Visit Location;,,,,Rokon Payam,,,,,Juba County,Central Equatoria State,,,
,no,Pisak PHCU,,,Visit Location;,,,,Lasu Payam,,,,,Yei County,Central Equatoria State,,,
,no,POC clininc IDPs PHCC,,,Visit Location;,,,,Northern Malakal Payam,,,,,Malakal County,Upper Nile State,,,
,no,POC Hospital IDPs HOSPITAL,,,Visit Location;,,,,Northern Malakal Payam,,,,,Malakal County,Upper Nile State,,,
,no,Pochalla PHCC,,,Visit Location;,,,,Pochalla Payam,,,,,Pochalla County,Pibor Administrative Area,,,
,no,Pogee PHCU,,,Visit Location;,,,,Pajok Payam,,,,,Magwi County,Eastern Equatoria State,,,
,no,Pokbor PHCU,,,Visit Location;,,,,Thol Payam,,,,,Nyirol County,Jonglei State,,,
,no,Poktap PHCC,,,Visit Location;,,,,Ageer Payam,,,,,Duk County,Jonglei State,,,
,no,Police PHCC,,,Visit Location;,,,,Kuac North Payam,,,,,Gogrial West County,Lakes State,,,
,no,Police PHCC,,,Visit Location;,,,,Kuac North Payam,,,,,Gogrial West County,Lakes State,,,
,no,Police PHCU,,,Visit Location;,,,,Wau South Payam,,,,,Wau County,Western Bahr El Ghazal State,,,
,no,Pouloul PHCU,,,Visit Location;,,,,Maal Payam,,,,,Mayendit County,Unity State,,,
,no,Poumki PHCU,,,Visit Location;,,,,Jinkuata Payam,,,,,Maban County,Upper Nile State,,,
,no,Prison PHCC,,,Visit Location;,,,,Kuac North Payam,,,,,Gogrial West County,Warrap State,,,
,no,Pub PHCU,,,Visit Location;,,,,Pub Payam,,,,,Mayom County,Unity State,,,
,no,Pulchol PHCC,,,Visit Location;,,,,Wuror Payam,,,,,Uror County,Jonglei State,,,
,no,Pulita PHCU,,,Visit Location;,,,,Paguer Payam,,,,,Fangak County,Jonglei State,,,
,no,Pultruk PHCC,,,Visit Location;,,,,Thol Payam,,,,,Nyirol County,Jonglei State,,,
,no,Raad PHCU,,,Visit Location;,,,,Boma Payam,,,,,Pibor County,Pibor Administrative Area,,,
,no,Raingmal PHCU,,,Visit Location;,,,,Mangok Payam,,,,,Aweil East County,Northern Bahr El Ghazal State,,,
,no,Raja HOSPITAL,,,Visit Location;,,,,Raga Payam,,,,,Raga County,Western Bahr El Ghazal State,,,
,no,Rajaf East PHCC,,,Visit Location;,,,,Rejaf Payam,,,,,Juba County,Central Equatoria State,,,
,no,Ramula PHCU,,,Visit Location;,,,,Lomohidang South Payam,,,,,Ikotos County,Eastern Equatoria State,,,
,no,Ras-Tigi PHCU,,,Visit Location;,,,,Maridi Payam,,,,,Maridi County,Western Equatoria State,,,
,no,Reang PHCC,,,Visit Location;,,,,Maridi Payam,,,,,Maridi County,Unity State,,,
,no,Rejaf West PHCC,,,Visit Location;,,,,Rejaf Payam,,,,,Juba County,Central Equatoria State,,,
,no,Renk,,,Visit Location;,,,,North Renk Payam,,,,,Renk County,Upper Nile State,,,
,no,Renk Border Point,,,Visit Location;,,,,North Renk Payam,,,,,Renk County,Upper Nile State,,,
,no,Renk HOSPITAL,,,Visit Location;,,,,North Renk Payam,,,,,Renk County,Upper Nile State,,,
,no,Renk Military HOSPITAL,,,Visit Location;,,,,North Renk Payam,,,,,Renk County,Upper Nile State,,,
,no,Riah PHCU,,,Visit Location;,,,,Riah Payam,,,,,Mayom County,Unity State,,,
,no,Rial Diit PHCC,,,Visit Location;,,,,Mangar Tong Payam,,,,,Aweil East County,Northern Bahr El Ghazal State,,,
,no,Riang PHCU,,,Visit Location;,,,,Doma Payam,,,,,Ulang County,Jonglei State,,,
,no,Riang PHCU,,,Visit Location;,,,,Doma Payam,,,,,Ulang County,Jonglei State,,,
,no,Riang PHCU,,,Visit Location;,,,,Doma Payam,,,,,Ulang County,Jonglei State,,,
,no,Riang PHCU,,,Visit Location;,,,,Doma Payam,,,,,Ulang County,Jonglei State,,,
,no,Riangagany PHCU,,,Visit Location;,,,,Gogrial Payam,,,,,Gogrial West County,Warrap State,,,
,no,Riangaker PHCU,,,Visit Location;,,,,Panthou Payam,,,,,Aweil South County,Northern Bahr El Ghazal State,,,
,no,Riangaketh PHCU,,,Visit Location;,,,,Mangar Tong Payam,,,,,Aweil East County,Northern Bahr El Ghazal State,,,
,no,Riangangon PHCU,,,Visit Location;,,,,Mariem West Payam,,,,,Aweil West County,Northern Bahr El Ghazal State,,,
,no,Riangnum PHCU,,,Visit Location;,,,,Nyongkuach Payam,,,,,Baliet County,Upper Nile State,,,
,no,Ribodo PHCU,,,Visit Location;,,,,Yambio Town Payam,,,,,Yambio County,Western Equatoria State,,,
,no,Rier PHCU,,,Visit Location;,,,,Jaak Payam,,,,,Koch County,Unity State,,,
,no,Rihan Fei PHCU,,,Visit Location;,,,,Besselia Payam,,,,,Wau County,Western Bahr El Ghazal State,,,
,no,Rii-Bodo PHCU,,,Visit Location;,,,,Bangasu Payam,,,,,Yambio County,Western Equatoria State,,,
,no,Rii-Rangu PHCC,,,Visit Location;,,,,Yambio Town Payam,,,,,Yambio County,Western Equatoria State,,,
,no,Rijong PHCC,,,Visit Location;,,,,Rijong Payam,,,,,Terekeka County,Central Equatoria State,,,
,no,Rimeize PHCU,,,Visit Location;,,,,Bangasu Payam,,,,,Yambio County,Western Equatoria State,,,
,no,Ringasi PHCC,,,Visit Location;,,,,Ringasi Payam,,,,,Nzara County,Western Equatoria State,,,
,no,Rirnyang PHCU,,,Visit Location;,,,,Ulang Payam,,,,,Ulang County,Upper Nile State,,,
,no,Riwoto PHCC,,,Visit Location;,,,,Najie Payam,,,,,Kapoeta North County,Eastern Equatoria State,,,
,no,Roam PHCU,,,Visit Location;,,,,Roam Payam,,,,,Luakpiny/Nasir County,Upper Nile State,,,
,no,RocRoc Dong PHCU,,,Visit Location;,,,,Rocrocdong Payam,,,,,Jur River County,Western Bahr El Ghazal State,,,
,no,Rodo PHCU,,,Visit Location;,,,,Nyepo Payam,,,,,Kajo-Keji County,Central Equatoria State,,,
,no,Rodoba PHCU,,,Visit Location;,,,,Gulumbi Payam,,,,,Morobo County,Central Equatoria State,,,
,no,Roingut PHCU,,,Visit Location;,,,,Malual North Payam,,,,,Aweil North County,Northern Bahr El Ghazal State,,,
,no,Roja PHCU,,,Visit Location;,,,,Dolo Payam,,,,,Juba County,Central Equatoria State,,,
,no,Rokon Centre PHCU,,,Visit Location;,,,,Rokon Payam,,,,,Juba County,Central Equatoria State,,,
,no,Rokon PHCC,,,Visit Location;,,,,Rokon Payam,,,,,Juba County,Central Equatoria State,,,
,no,Rom PHCC,,,Visit Location;,,,,Rom Payam,,,,,Akoka County,Upper Nile State,,,
,no,Rom PHCU,,,Visit Location;,,,,Rom Payam (Baliet),,,,,Akoka County,Upper Nile State,,,
,no,Romale PHCU,,,Visit Location;,,,,Geger Payam,,,,,Renk County,Upper Nile State,,,
,no,Romogi PHCU,,,Visit Location;,,,,Lire Payam,,,,,Kajo-Keji County,Central Equatoria State,,,
,no,Roronyo PHCC,,,Visit Location;,,,,Mukaya Payam,,,,,Lainya County,Central Equatoria State,,,
,no,Ruadhnyibol PHCU,,,Visit Location;,,,,Ruathnyibuol Payam,,,,,Mayom County,Unity State,,,
,no,Rualbet PHCU,,,Visit Location;,,,,Rual-bet Payam,,,,,Tonj North County,Warrap State,,,
,no,Rualngol PHCU,,,Visit Location;,,,,Mariem East Payam,,,,,Aweil West County,Northern Bahr El Ghazal State,,,
,no,Rubeke PHCU,,,Visit Location;,,,,Otogo Payam,,,,,Yei County,Central Equatoria State,,,
,no,Rubkona Care PHCC,,,Visit Location;,,,,Rubkotne Payam,,,,,Rubkona County,Unity State,,,
,no,Rubkona Military HOSPITAL,,,Visit Location;,,,,Rubkotne Payam,,,,,Rubkona County,Unity State,,,
,no,Rubkuay PHCC,,,Visit Location;,,,,Rubkuay Payam,,,,,Mayendit County,Unity State,,,
,no,Rubkuay PHCC,,,Visit Location;,,,,Rubkuay Payam,,,,,Mayendit County,Unity State,,,
,no,Rubnor PHCU,,,Visit Location;,,,,Rubkuay Payam,,,,,Mayendit County,Unity State,,,
,no,Rubu PHCU,,,Visit Location;,,,,Manikakara Payam,,,,,Ibba County,Western Equatoria State,,,
,no,Rum Aker PHCU,,,Visit Location;,,,,Baach Payam,,,,,Aweil East County,Northern Bahr El Ghazal State,,,
,no,Rumabuth PHCC,,,Visit Location;,,,,Makuac Payam,,,,,Tonj East County,Warrap State,,,
,no,Rumabuth PHCC,,,Visit Location;,,,,Makuac Payam,,,,,Tonj East County,Warrap State,,,
,no,Rumading PHCU,,,Visit Location;,,,,Malual East Payam,,,,,Aweil North County,Northern Bahr El Ghazal State,,,
,no,Rumakeen PHCU,,,Visit Location;,,,,Manloor Payam,,,,,Tonj North County,Warrap State,,,
,no,Rumamer PHCC,,,Visit Location;,,,,Rumamer Payam,,,,,Abyei County,Abyei Administrative Area,,,
,no,Rumamoth PHCU,,,Visit Location;,,,,Tar-Weng Payam,,,,,Aweil South County,Northern Bahr El Ghazal State,,,
,no,Rumbek Central Prison PHCC,,,Visit Location;,,,,Rumbek Town Payam,,,,,Rumbek Centre County,Lakes State,,,
,no,Rumbek State HOSPITAL,,,Visit Location;,,,,Rumbek Town Payam,,,,,Rumbek Centre County,Lakes State,,,
,no,Rumrol PHCU,,,Visit Location;,,,,Madhol Payam,,,,,Aweil East County,Northern Bahr El Ghazal State,,,
,no,Rumtiit PHCU,,,Visit Location;,,,,Mariem East Payam,,,,,Aweil West County,Northern Bahr El Ghazal State,,,
,no,Rumwel PHCU,,,Visit Location;,,,,Malual Bai Payam,,,,,Aweil East County,Northern Bahr El Ghazal State,,,
,no,Rumwet Kor PHCU,,,Visit Location;,,,,Mangar Tong Payam,,,,,Aweil East County,Northern Bahr El Ghazal State,,,
,no,Rungetta PHCU,,,Visit Location;,,,,Liwolo Payam,,,,,Kajo-Keji County,Central Equatoria State,,,
,no,Ruot PHCU,,,Visit Location;,,,,Toch East Payam,,,,,Gogrial East County,Warrap State,,,
,no,Rup Board PHCC,,,Visit Location;,,,,Yomding Payam,,,,,Ulang County,Upper Nile State,,,
,no,Rupchay PHCU,,,Visit Location;,,,,Guat Payam,,,,,Leer County,Unity State,,,
,no,Rwonyi PHCU,,,Visit Location;,,,,Yei Town Payam,,,,,Yei County,Central Equatoria State,,,
,no,Sacred Heart PHCC,,,Visit Location;,,,,Kator Payam,,,,,Juba County,Central Equatoria State,,,
,no,Sacret Heart Kerepi PHCC,,,Visit Location;,,,,Kator Payam,,,,,Juba County,Eastern Equatoria State,,,
,no,Sakure PHCC,,,Visit Location;,,,,Sakure Payam,,,,,Nzara County,Western Equatoria State,,,
,no,Sakure PHCU,,,Visit Location;,,,,Sakure Payam,,,,,Nzara County,Western Equatoria State,,,
,no,Samaritan PHCC,,,Visit Location;,,,,Yambio Town Payam,,,,,Yambio County,Western Equatoria State,,,
,no,Sangua One PHCU,,,Visit Location;,,,,Sangua Payam,,,,,Nzara County,Western Equatoria State,,,
,no,Sangua Two PHCU,,,Visit Location;,,,,Sangua Payam,,,,,Nzara County,Western Equatoria State,,,
,no,Saregoro PHCU,,,Visit Location;,,,,Kangapo One Payam,,,,,Kajo-Keji County,Central Equatoria State,,,
,no,Saura one PHCU,,,Visit Location;,,,,Yambio Town Payam,,,,,Yambio County,Western Equatoria State,,,
,no,Saura Two PHCU,,,Visit Location;,,,,Yambio Town Payam,,,,,Yambio County,Western Equatoria State,,,
,no,SDA PHCC,,,Visit Location;,,,,Munuki Payam,,,,,Juba County,Central Equatoria State,,,
,no,Sector3 IOM PHCC,,,Visit Location;,,,,Bentiu PoC Payam,,,,,Rubkona County,Unity State,,,
,no,Senema PHCU,,,Visit Location;,,,,Otogo Payam,,,,,Yei County,Central Equatoria State,,,
,no,Sera Jale PHCU,,,Visit Location;,,,,Kangapo One Payam,,,,,Kajo-Keji County,Central Equatoria State,,,
,no,Sereng PHCU,,,Visit Location;,,,,Rokon Payam,,,,,Juba County,Central Equatoria State,,,
,no,Sermon PHCU,,,Visit Location;,,,,Dolo Payam,,,,,Juba County,Central Equatoria State,,,
,no,Shambe PHCU,,,Visit Location;,,,,Adior Payam,,,,,Yirol East County,Lakes State,,,
,no,Shatta PHCU,,,Visit Location;,,,,Bunj Payam,,,,,Maban County,Upper Nile State,,,
,no,SIM Missionary Hospital,,,Visit Location;,,,,Khor El Amer Payam,,,,,Maban County,Upper Nile State,,,
,no,Sinakpuro PHCU,,,Visit Location;,,,,Tambura Payam,,,,,Tambura County,Western Equatoria State,,,
,no,Sinawiri PHCU,,,Visit Location;,,,,Tambura Payam,,,,,Tambura County,Western Equatoria State,,,
,no,Singiriwo PHCU,,,Visit Location;,,,,Lozoh Payam,,,,,Mundri East County,Western Equatoria State,,,
,no,Sirimon PHCU,,,Visit Location;,,,,Dolo Payam,,,,,Juba County,Central Equatoria State,,,
,no,SMC/NARUS PHCC,,,Visit Location;,,,,Narus Payam,,,,,Kapoeta East County,Eastern Equatoria State,,,
,no,Soka PHCU,,,Visit Location;,,,,Mukaya Payam,,,,,Lainya County,Central Equatoria State,,,
,no,Sokare PHCU,,,Visit Location;,,,,Liwolo Payam,,,,,Kajo-Keji County,Central Equatoria State,,,
,no,Sopo PHCU,,,Visit Location;,,,,Uyujuku Payam,,,,,Raga County,Western Bahr El Ghazal State,,,
,no,Source Yubu PHCC,,,Visit Location;,,,,Rii - Yubu Payam,,,,,Tambura County,Western Equatoria State,,,
,no,SPLA-JIU PHCU,,,Visit Location;,,,,Maridi Payam,,,,,Maridi County,Western Equatoria State,,,
,no,St Bakhita PHCC,,,Visit Location;,,,,Yei Town Payam,,,,,Yei County,Central Equatoria State,,,
,no,St Luke PHCC,,,Visit Location;,,,,Lainya Payam,,,,,Lainya County,Central Equatoria State,,,
,no,St Theresa Isohe Mission HOSPITAL,,,Visit Location;,,,,Lomohidang North Payam,,,,,Ikotos County,Eastern Equatoria State,,,
,no,St. Bakheita PHCU,,,Visit Location;,,,,Tambura Payam,,,,,Tambura County,Western Equatoria State,,,
,no,St. Joseph TB PHCC,,,Visit Location;,,,,Abang Payam,,,,,Yirol West County,Lakes State,,,
,no,St. Josephine Bhakita PHCC,,,Visit Location;,,,,Ngap Payam,,,,,Cueibet County,Lakes State,,,
,no,ST. Mary PHCC,,,Visit Location;,,,,Wau South Payam,,,,,Wau County,Lakes State,,,
,no,St. Mary PHCC,,,Visit Location;,,,,Wau South Payam,,,,,Wau County,Lakes State,,,
,no,St. Mary PHCU,,,Visit Location;,,,,Yambio Town Payam,,,,,Yambio County,Western Equatoria State,,,
,no,St. Mary PHCU,,,Visit Location;,,,,Yambio Town Payam,,,,,Yambio County,Western Equatoria State,,,
,no,St.Kizito PHCC,,,Visit Location;,,,,Munuki Payam,,,,,Juba County,Central Equatoria State,,,
,no,Sudenese gospel Mission PHCC,,,Visit Location;,,,,Pageri Payam,,,,,Magwi County,Eastern Equatoria State,,,
,no,Sue PHCU,,,Visit Location;,,,,Bangasu Payam,,,,,Yambio County,Western Equatoria State,,,
,no,Sun Shine HOSPITAL,,,Visit Location;,,,,Northern Bari Payam,,,,,Juba County,Central Equatoria State,,,
,no,Sure PHCU,,,Visit Location;,,,,Dolo Payam,,,,,Juba County,Central Equatoria State,,,
,no,Taar PHCU,,,Visit Location;,,,,Burgilo Payam,,,,,Lafon/Lopa County,Eastern Equatoria State,,,
,no,Taban PHCU,,,Visit Location;,,,,Kpaile Payam,,,,,Wau County,Western Bahr El Ghazal State,,,
,no,Tagale PHCC,,,Visit Location;,,,,Mijak Payam,,,,,Abyei County,Abyei Administrative Area,,,
,no,Tali PHCC,,,Visit Location;,,,,Tali Payam,,,,,Terekeka County,Central Equatoria State,,,
,no,Tambura County Hospital,,,Visit Location;,,,,Tambura Payam,,,,,Tambura County,Western Equatoria State,,,
,no,Tambura PHCC,,,Visit Location;,,,,Tambura Payam,,,,,Tambura County,Western Equatoria State,,,
,no,Tanamuko PHCU,,,Visit Location;,,,,Maruko Payam,,,,,Ibba County,Western Equatoria State,,,
,no,Tangnyang PHCU,,,Visit Location;,,,,Diror Payam,,,,,Akobo County,Jonglei State,,,
,no,Terekeka PHCC,,,Visit Location;,,,,Terekeka Payam,,,,,Terekeka County,Central Equatoria State,,,
,no,Thak PHCU,,,Visit Location;,,,,Bimachuk Payam,,,,,Melut County,Upper Nile State,,,
,no,Thakker PHCU,,,Visit Location;,,,,Rubkuay Payam,,,,,Mayendit County,Unity State,,,
,no,Thambeth PHCU,,,Visit Location;,,,,Boma Payam,,,,,Pibor County,Pibor Administrative Area,,,
,no,Tharkueng PHCC,,,Visit Location;,,,,Wau Bai Payam,,,,,Jur River County,Western Bahr El Ghazal State,,,
,no,Thiet PHCC,,,Visit Location;,,,,Thiet Payam,,,,,Tonj South County,Warrap State,,,
,no,Thillic PHCU,,,Visit Location;,,,,Wau Bai Payam,,,,,Jur River County,Western Bahr El Ghazal State,,,
,no,Thoan PHCU,,,Visit Location;,,,,Kuerguini Payam,,,,,Guit County,Unity State,,,
,no,Thoanuom PHCU,,,Visit Location;,,,,Kol Payam,,,,,Panyijar County,Unity State,,,
,no,Thokchak PHCU,,,Visit Location;,,,,Paguer Payam,,,,,Fangak County,Jonglei State,,,
,no,Thokliel PHCU,,,Visit Location;,,,,Dengjok Payam,,,,,Akobo County,Jonglei State,,,
,no,Thokwath PHCU,,,Visit Location;,,,,Dengjok Payam,,,,,Akobo County,Jonglei State,,,
,no,Thonabutkok PHCU,,,Visit Location;,,,,Pagarau Payam,,,,,Yirol East County,Lakes State,,,
,no,Thonyor PHCC,,,Visit Location;,,,,Yang Payam,,,,,Leer County,Unity State,,,
,no,Thorgwang PHCC,,,Visit Location;,,,,Kaka Payam,,,,,Manyo County,Upper Nile State,,,
,no,Thorgwang PHCU,,,Visit Location;,,,,Kaka Payam,,,,,Manyo County,Upper Nile State,,,
,no,Thotchok PHCU,,,Visit Location;,,,,Old Fangak Payam,,,,,Fangak County,Jonglei State,,,
,no,Thotwat PHCU,,,Visit Location;,,,,Pajiek Payam,,,,,Ayod County,Jonglei State,,,
,no,Thougji PHCU,,,Visit Location;,,,,Bunj Payam,,,,,Maban County,Upper Nile State,,,
,no,Three Angle PHCC,,,Visit Location;,,,,Kator Payam,,,,,Juba County,Central Equatoria State,,,
,no,Thurnyior PHCU,,,Visit Location;,,,,Kuac South Payam,,,,,Gogrial West County,Warrap State,,,
,no,Tiam PHCU,,,Visit Location;,,,,Tiam Payam,,,,,Uror County,Jonglei State,,,
,no,Tiap PHCU,,,Visit Location;,,,,Tiap Payam,,,,,Panyijar County,Unity State,,,
,no,Tiap Tiap PHCU,,,Visit Location;,,,,Pagor Payam,,,,,Cueibet County,Lakes State,,,
,no,Tiar-aleit PHCU,,,Visit Location;,,,,Tiar-aleit Payam,,,,,Aweil South County,Northern Bahr El Ghazal State,,,
,no,TIEM PHCU,,,Visit Location;,,,,Nyal Payam,,,,,Panyijar County,Unity State,,,
,no,Tiindoka PHCU,,,Visit Location;,,,,Yambio Town Payam,,,,,Yambio County,Western Equatoria State,,,
,no,Tiit Noon PHCU,,,Visit Location;,,,,Akoc Payam,,,,,Twic County,Warrap State,,,
,no,Tijor Centre PHCC,,,Visit Location;,,,,Tijor Payam,,,,,Juba County,Central Equatoria State,,,
,no,Timsah PHCC,,,Visit Location;,,,,Ere Payam,,,,,Raga County,Western Bahr El Ghazal State,,,
,no,Tirangore PHCU,,,Visit Location;,,,,Hiyala Payam,,,,,Torit County,Eastern Equatoria State,,,
,no,Tirga PHCU,,,Visit Location;,,,,Kpaile Payam,,,,,Wau County,Western Bahr El Ghazal State,,,
,no,Tirye PHCU,,,Visit Location;,,,,Liwolo Payam,,,,,Kajo-Keji County,Central Equatoria State,,,
,no,Tit Chok PHCC,,,Visit Location;,,,,Mangar Tong Payam,,,,,Aweil East County,Northern Bahr El Ghazal State,,,
,no,Titchok PHCU,,,Visit Location;,,,,Wunrok Payam,,,,,Twic County,Warrap State,,,
,no,Toch Chel PHCU,,,Visit Location;,,,,Akoc Payam,,,,,Twic County,Warrap State,,,
,no,Toch Noon PHCC,,,Visit Location;,,,,Akoc Payam,,,,,Twic County,Warrap State,,,
,no,Toch PHCU,,,Visit Location;,,,,Paguer Payam,,,,,Fangak County,Jonglei State,,,
,no,Todaj PHCC,,,Visit Location;,,,,Amenth agouk Payam,,,,,Abyei County,Abyei Administrative Area,,,
,no,Toko-Ko-Tulu PHCU,,,Visit Location;,,,,Rokon Payam,,,,,Juba County,Central Equatoria State,,,
,no,Tolar PHCU,,,Visit Location;,,,,Kiech Kuon Payam,,,,,Luakpiny/Nasir County,Upper Nile State,,,
,no,Tombek PHCC,,,Visit Location;,,,,Tombek Payam,,,,,Terekeka County,Central Equatoria State,,,
,no,Tong PHCU,,,Visit Location;,,,,Baidit Payam,,,,,Bor South County,Jonglei State,,,
,no,Tonga PHCC,,,Visit Location;,,,,Tonga Payam,,,,,Panyikang County,Upper Nile State,,,
,no,Tonj Don Bosco TB unit,,,Visit Location;,,,,Tonj Payam,,,,,Tonj South County,Warrap State,,,
,no,Tonj HOSPITAL,,,Visit Location;,,,,Tonj Payam,,,,,Tonj South County,Warrap State,,,
,no,Tonjo PHCU,,,Visit Location;,,,,Wulu Payam,,,,,Wulu County,Lakes State,,,
,no,Toor/N yokrial PHCU,,,Visit Location;,,,,Nyiel Payam,,,,,Pariang County,Ruweng Administrative Area,,,
,no,Tore PHCC,,,Visit Location;,,,,Tore Payam,,,,,Yei County,Central Equatoria State,,,
,no,Tore Wandi PHCU,,,Visit Location;,,,,Bangolo Payam,,,,,Mundri West County,Western Equatoria State,,,
,no,Torit Military Hospital,,,Visit Location;,,,,Nyong Payam,,,,,Torit County,Eastern Equatoria State,,,
,no,Torit prison PHCU,,,Visit Location;,,,,Nyong Payam,,,,,Torit County,Eastern Equatoria State,,,
,no,Torit State HOSPITAL,,,Visit Location;,,,,Nyong Payam,,,,,Torit County,Eastern Equatoria State,,,
,no,Torkiel PHCU,,,Visit Location;,,,,Yomding Payam,,,,,Ulang County,Upper Nile State,,,
,no,Torpuot PHCU,,,Visit Location;,,,,Jikmir Payam,,,,,Luakpiny/Nasir County,Upper Nile State,,,
,no,Touchluak PHCU,,,Visit Location;,,,,Nhialdiu Payam,,,,,Rubkona County,Unity State,,,
,no,Tseretenya PHCU,,,Visit Location;,,,,Ikotos Payam,,,,,Ikotos County,Eastern Equatoria State,,,
,no,Tuele PHCC,,,Visit Location;,,,,Pannyok Payam,,,,,Twic County,Warrap State,,,
,no,Tuet PHCU,,,Visit Location;,,,,Boaw Payam,,,,,Koch County,Unity State,,,
,no,Tukoro PHCU,,,Visit Location;,,,,Muni Payam,,,,,Terekeka County,Central Equatoria State,,,
,no,Tulugi PHCU,,,Visit Location;,,,,Ngauro Payam,,,,,Budi County,Eastern Equatoria State,,,
,no,Tulyang PHCU,,,Visit Location;,,,,Dolo Payam,,,,,Juba County,Central Equatoria State,,,
,no,Tuoach Luak PHCU,,,Visit Location;,,,,Rubkotne Payam,,,,,Rubkona County,Unity State,,,
,no,Turalei PHCC,,,Visit Location;,,,,Turalei Payam,,,,,Twic County,Warrap State,,,
,no,Turkey PHCU,,,Visit Location;,,,,Wanbuor Payam,,,,,Mayom County,Unity State,,,
,no,Turuw PHCU,,,Visit Location;,,,,Jekow Payam,,,,,Maiwut County,Upper Nile State,,,
,no,Tut Majok PHCU,,,Visit Location;,,,,Thol Payam,,,,,Nyirol County,Jonglei State,,,
,no,Tutnyang PHCU,,,Visit Location;,,,,Tutnyang Payam,,,,,Mayendit County,Unity State,,,
,no,Udhum DTC PHCC,,,Visit Location;,,,,Mariem West Payam,,,,,Aweil West County,Northern Bahr El Ghazal State,,,
,no,Udici PHCC,,,Visit Location;,,,,Udici Payam,,,,,Jur River County,Western Bahr El Ghazal State,,,
,no,Ugier PHCU,,,Visit Location;,,,,Wudier Payam,,,,,Longochuk County,Upper Nile State,,,
,no,Ugwil/Malnyang PHCU,,,Visit Location;,,,,Kurumi Payam,,,,,Lafon/Lopa County,Eastern Equatoria State,,,
,no,Ukuo PHCU,,,Visit Location;,,,,Bangasu Payam,,,,,Yambio County,Western Equatoria State,,,
,no,Ukwanya PHCU,,,Visit Location;,,,,Marguna Payam,,,,,Lafon/Lopa County,Eastern Equatoria State,,,
,no,Ulang PHCC,,,Visit Location;,,,,Ulang Payam,,,,,Ulang County,Upper Nile State,,,
,no,Uleng PHCU,,,Visit Location;,,,,Olang Payam,,,,,Maiwut County,Upper Nile State,,,
,no,Umora PHCU,,,Visit Location;,,,,Achana Payam,,,,,Aweil Centre County,Northern Bahr El Ghazal State,,,
,no,Undukori PHCU,,,Visit Location;,,,,Mugwo Payam,,,,,Yei County,Central Equatoria State,,,
,no,Ungebe PHCU,,,Visit Location;,,,,Pachidi Payam,,,,,Lafon/Lopa County,Eastern Equatoria State,,,
,no,Upuo PHCU,,,Visit Location;,,,,Pachidi Payam,,,,,Lafon/Lopa County,Eastern Equatoria State,,,
,no,Uror PHCU,,,Visit Location;,,,,Wuror Payam,,,,,Uror County,Jonglei State,,,
,no,Usratuna PHCC,,,Visit Location;,,,,Juba Town Payam,,,,,Juba County,Central Equatoria State,,,
,no,Vertheth PHCU,,,Visit Location;,,,,Vertheth Payam,,,,,Pibor County,Pibor Administrative Area,,,
,no,Victoria Medical HOSPITAL,,,Visit Location;,,,,Juba Town Payam,,,,,Juba County,Central Equatoria State,,,
,no,Waak PHCC,,,Visit Location;,,,,Juba Town Payam,,,,,Juba County,Unity State,,,
,no,Waat PHCC,,,Visit Location;,,,,Waat Payam,,,,,Nyirol County,Jonglei State,,,
,no,Wadakona PHCC,,,Visit Location;,,,,Wadakona Payam,,,,,Manyo County,Upper Nile State,,,
,no,Wadalel PHCU,,,Visit Location;,,,,Rocrocdong Payam,,,,,Jur River County,Western Bahr El Ghazal State,,,
,no,Wadupe PHCU,,,Visit Location;,,,,Mugwo Payam,,,,,Yei County,Central Equatoria State,,,
,no,Wako PHCU,,,Visit Location;,,,,Domoloto Payam,,,,,Wulu County,Lakes State,,,
,no,Walawalang PHCU,,,Visit Location;,,,,Northern Bari Payam,,,,,Juba County,Central Equatoria State,,,
,no,Walgak PHCC,,,Visit Location;,,,,Walgak Payam,,,,,Akobo County,Jonglei State,,,
,no,Wan Machar PHCU,,,Visit Location;,,,,Wau Payam,,,,,Ayod County,Jonglei State,,,
,no,Wanam PHCU,,,Visit Location;,,,,Mankien Payam,,,,,Mayom County,Unity State,,,
,no,Wanamum PHCU,,,Visit Location;,,,,Wunamum Payam,,,,,Melut County,Upper Nile State,,,
,no,Wandi PHCU,,,Visit Location;,,,,Kediba Payam,,,,,Mundri East County,Western Equatoria State,,,
,no,Wanding PHCU,,,Visit Location;,,,,Kuerenge-ke Payam,,,,,Luakpiny/Nasir County,Upper Nile State,,,
,no,Wangchoat PHCU,,,Visit Location;,,,,Old Fangak Payam,,,,,Fangak County,Jonglei State,,,
,no,Wangkei PHCC,,,Visit Location;,,,,Wangkei Payam,,,,,Mayom County,Unity State,,,
,no,Wangkuat PHCC,,,Visit Location;,,,,Werthen Payam,,,,,Pariang County,Ruweng Administrative Area,,,
,no,Wanglel PHCU,,,Visit Location;,,,,Manajang Payam,,,,,Fangak County,Jonglei State,,,
,no,Wangulei PHCU,,,Visit Location;,,,,Nyuak Payam,,,,,Twic East County,Jonglei State,,,
,no,Wanh Alel PHCU,,,Visit Location;,,,,Wath-alel Payam,,,,,Tonj South County,Warrap State,,,
,no,Wanyang PHCU,,,Visit Location;,,,,Gameiza Payam,,,,,Terekeka County,Central Equatoria State,,,
,no,Warajwok PHCU,,,Visit Location;,,,,Warajwok Payam,,,,,Malakal County,Upper Nile State,,,
,no,Warapei PHCC,,,Visit Location;,,,,Malual East Payam,,,,,Aweil North County,Northern Bahr El Ghazal State,,,
,no,Warawar PHCU,,,Visit Location;,,,,Baach Payam,,,,,Aweil East County,Northern Bahr El Ghazal State,,,
,no,Warchuei PHCU,,,Visit Location;,,,,Malual West Payam (Aweil N),,,,,Aweil North County,Northern Bahr El Ghazal State,,,
,no,Wardong PHCU,,,Visit Location;,,,,Wunlang Payam,,,,,Aweil East County,Northern Bahr El Ghazal State,,,
,no,Wargeng PHCU,,,Visit Location;,,,,Malual East Payam,,,,,Aweil North County,Northern Bahr El Ghazal State,,,
,no,Warkot PHCU,,,Visit Location;,,,,Malual Centre Payam,,,,,Aweil North County,Northern Bahr El Ghazal State,,,
,no,Warlang PHCU,,,Visit Location;,,,,Akot Payam,,,,,Rumbek East County,Northern Bahr El Ghazal State,,,
,no,War-Liet PHCU,,,Visit Location;,,,,Gameiza Payam,,,,,Terekeka County,Lakes State,,,
,no,Warrap PHCC,,,Visit Location;,,,,Warrap Payam,,,,,Tonj North County,Warrap State,,,
,no,Warrieth PHCU,,,Visit Location;,,,,Kangi Payam,,,,,Jur River County,Western Bahr El Ghazal State,,,
,no,Warweng PHCU,,,Visit Location;,,,,Longochuk Payam,,,,,Longochuk County,Upper Nile State,,,
,no,Watber PHCC,,,Visit Location;,,,,Malual Payam,,,,,Longochuk County,Upper Nile State,,,
,no,Wathmouk PHCU,,,Visit Location;,,,,Wathmuok Payam,,,,,Aweil South County,Northern Bahr El Ghazal State,,,
,no,Wathnyotni PHCU,,,Visit Location;,,,,Kuerguini Payam,,,,,Guit County,Unity State,,,
,no,Wathok PHCU,,,Visit Location;,,,,Malual East Payam,,,,,Aweil North County,Northern Bahr El Ghazal State,,,
,no,Wau Airport,,,Visit Location;,,,,Wau North Payam,,,,,Wau County,Western Bahr El Ghazal State,,,
,no,Wau Military HOSPITAL,,,Visit Location;,,,,Wau North Payam,,,,,Wau County,Western Bahr El Ghazal State,,,
,no,Wau PHCU,,,Visit Location;,,,,Wau Payam,,,,,Ayod County,Jonglei State,,,
,no,Wau Police PHCC,,,Visit Location;,,,,Wau South Payam,,,,,Wau County,Western Bahr El Ghazal State,,,
,no,Wau Prison PHCU,,,Visit Location;,,,,Wau South Payam,,,,,Wau County,Western Bahr El Ghazal State,,,
,no,Wau Shilluk PHCU,,,Visit Location;,,,,Ogot Payam,,,,,Malakal County,Upper Nile State,,,
,no,Wau Sika Hadid PHCC,,,Visit Location;,,,,Wau North Payam,,,,,Wau County,Western Bahr El Ghazal State,,,
,no,Wau Teaching HOSPITAL,,,Visit Location;,,,,Wau South Payam,,,,,Wau County,Western Bahr El Ghazal State,,,
,no,Wau Wild Life PHCU,,,Visit Location;,,,,Wau South Payam,,,,,Wau County,Western Bahr El Ghazal State,,,
,no,Way Station PHCU,,,Visit Location;,,,,Rejaf Payam,,,,,Juba County,Central Equatoria State,,,
,no,Wechding PHCU,,,Visit Location;,,,,Pagil Payam,,,,,Ayod County,Jonglei State,,,
,no,Wedweil PHCC,,,Visit Location;,,,,Gomjuer East Payam,,,,,Aweil West County,Northern Bahr El Ghazal State,,,
,no,Wedweil PHCC,,,Visit Location;,,,,Gomjuer East Payam,,,,,Aweil West County,Northern Bahr El Ghazal State,,,
,no,Wenyal PHCU,,,Visit Location;,,,,Pading Payam,,,,,Nyirol County,Jonglei State,,,
,no,Werkok PHCC,,,Visit Location;,,,,Makuach Payam,,,,,Bor South County,Jonglei State,,,
,no,Wichlita PHCU,,,Visit Location;,,,,Dajo Payam,,,,,Longochuk County,Upper Nile State,,,
,no,Wild life PHCU,,,Visit Location;,,,,Yambio Town Payam,,,,,Yambio County,Western Equatoria State,,,
,no,WinyoLwonga PHCU,,,Visit Location;,,,,Magwi Payam,,,,,Magwi County,Eastern Equatoria State,,,
,no,Wipuboy PHCU,,,Visit Location;,,,,Burgilo Payam,,,,,Lafon/Lopa County,Eastern Equatoria State,,,
,no,Wiroh PHCU,,,Visit Location;,,,,Lozoh Payam,,,,,Mundri East County,Western Equatoria State,,,
,no,Woko PHCC,,,Visit Location;,,,,Kozi Payam,,,,,Maridi County,Western Equatoria State,,,
,no,Wokobu PHCU,,,Visit Location;,,,,Karukomuge Payam,,,,,Kapoeta North County,Eastern Equatoria State,,,
,no,Wonduruba PHCC,,,Visit Location;,,,,Wonduruba Payam,,,,,Juba County,Central Equatoria State,,,
,no,Wonthou PHCC,,,Visit Location;,,,,Geger Payam,,,,,Renk County,Upper Nile State,,,
,no,Wonyjok PHCC,,,Visit Location;,,,,Mangar Tong Payam,,,,,Aweil East County,Northern Bahr El Ghazal State,,,
,no,Wouwou PHCU,,,Visit Location;,,,,Mapuordit Payam,,,,,Yirol West County,Lakes State,,,
,no,Wudabi PHCU,,,Visit Location;,,,,Wudabi Payam,,,,,Morobo County,Central Equatoria State,,,
,no,Wudier PHCU,,,Visit Location;,,,,Wudier Payam,,,,,Longochuk County,Upper Nile State,,,
,no,Wudu Bori PHCU,,,Visit Location;,,,,Tombek Payam,,,,,Terekeka County,Central Equatoria State,,,
,no,Wuji PHCU,,,Visit Location;,,,,Wuji Payam,,,,,Lainya County,Central Equatoria State,,,
,no,Wujugani PHCU,,,Visit Location;,,,,Reggo Payam,,,,,Terekeka County,Central Equatoria State,,,
,no,Wulu Gedim PHCU,,,Visit Location;,,,,Wulu Payam,,,,,Wulu County,Lakes State,,,
,no,Wulu PHCC,,,Visit Location;,,,,Wulu Payam,,,,,Wulu County,Lakes State,,,
,no,Wunakot PHCU,,,Visit Location;,,,,Alam Payam,,,,,Pigi County,Jonglei State,,,
,no,Wunatem C PHCC,,,Visit Location;,,,,Jalhak Payam,,,,,Renk County,Upper Nile State,,,
,no,Wunbin PHCU,,,Visit Location;,,,,Wau Payam,,,,,Ayod County,Jonglei State,,,
,no,Wunbut PHCU,,,Visit Location;,,,,Abwong Payam,,,,,Baliet County,Upper Nile State,,,
,no,Wunchuei PHCU,,,Visit Location;,,,,Rumamer Payam,,,,,Abyei County,Abyei Administrative Area,,,
,no,Wuncuai PHCU,,,Visit Location;,,,,Paliang Payam,,,,,Tonj East County,Warrap State,,,
,no,Wuncuei Cuar PHCC,,,Visit Location;,,,,Akoc Payam,,,,,Twic County,Warrap State,,,
,no,Wuncum PHCU,,,Visit Location;,,,,Gakrol Payam,,,,,Aweil South County,Northern Bahr El Ghazal State,,,
,no,Wungiir PHCU,,,Visit Location;,,,,Ayat Center Payam,,,,,Aweil West County,Northern Bahr El Ghazal State,,,
,no,Wungiir PHCU,,,Visit Location;,,,,Ayat Center Payam,,,,,Aweil West County,Northern Bahr El Ghazal State,,,
,no,Wunkiir PHCU,,,Visit Location;,,,,Atar Payam,,,,,Pigi County,Jonglei State,,,
,no,Wunkir PHCU,,,Visit Location;,,,,Jotome Payam,,,,,Maiwut County,Upper Nile State,,,
,no,Wunkur PHCU,,,Visit Location;,,,,Wunkur Payam,,,,,Pariang County,Ruweng Administrative Area,,,
,no,Wunlang PHCU,,,Visit Location;,,,,Wunlang Payam,,,,,Aweil East County,Northern Bahr El Ghazal State,,,
,no,Wunlem PHCU,,,Visit Location;,,,,Wun-rieng Payam,,,,,Rumbek North County,Jonglei State,,,
,no,Wunlit PHCU,,,Visit Location;,,,,Wun-rieng Payam,,,,,Rumbek North County,Warrap State,,,
,no,Wunpeth PHCU,,,Visit Location;,,,,Wun-rieng Payam,,,,,Rumbek North County,Abyei Administrative Area,,,
,no,Wun-rieng PHCU,,,Visit Location;,,,,Wulu Payam,,,,,Wulu County,Lakes State,,,
,no,Wunrok PHCC,,,Visit Location;,,,,Wunrok Payam,,,,,Twic County,Warrap State,,,
,no,Wunrok PHCU,,,Visit Location;,,,,Abyei Payam,,,,,Abyei County,Abyei Administrative Area,,,
,no,Wunthilik PHCU,,,Visit Location;,,,,Rual-bet Payam,,,,,Tonj North County,Warrap State,,,
,no,Wurta PHCU,,,Visit Location;,,,,Kangapo Two Payam,,,,,Kajo-Keji County,Central Equatoria State,,,
,no,Yabongo PHCU,,,Visit Location;,,,,Nzara Centre Payam,,,,,Nzara County,Western Equatoria State,,,
,no,Yabuwa PHCU,,,Visit Location;,,,,Nzara Centre Payam,,,,,Nzara County,Western Equatoria State,,,
,no,Yambio PHCC,,,Visit Location;,,,,Yambio Town Payam,,,,,Yambio County,Western Equatoria State,,,
,no,Yambio Prison PHCC,,,Visit Location;,,,,Yambio Town Payam,,,,,Yambio County,Western Equatoria State,,,
,no,Yambio State HOSPITAL,,,Visit Location;,,,,Yambio Town Payam,,,,,Yambio County,Western Equatoria State,,,
,no,Yangiri PHCC,,,Visit Location;,,,,Yangiri Payam,,,,,Ezo County,Western Equatoria State,,,
,no,Yangura PHCU,,,Visit Location;,,,,Yangiri Payam,,,,,Ezo County,Western Equatoria State,,,
,no,Yapa PHCU,,,Visit Location;,,,,Lobonok Payam,,,,,Juba County,Central Equatoria State,,,
,no,Yargot PHCU,,,Visit Location;,,,,Yargot Payam,,,,,Aweil East County,Northern Bahr El Ghazal State,,,
,no,Yaribe PHCU,,,Visit Location;,,,,Panyume Payam,,,,,Morobo County,Central Equatoria State,,,
,no,YDA Clinic PHCU,,,Visit Location;,,,,Tambura Payam,,,,,Tambura County,Western Equatoria State,,,
,no,Yebisak PHCU,,,Visit Location;,,,,Muni Payam,,,,,Terekeka County,Central Equatoria State,,,
,no,Yei Civil Hospital,,,Visit Location;,,,,Yei Town Payam,,,,,Yei County,Central Equatoria State,,,
,no,Yei Isolation,,,Visit Location;,,,,Yei Town Payam,,,,,Yei County,Central Equatoria State,,,
,no,Yeri PHCC,,,Visit Location;,,,,Yeri Payam,,,,,Mvolo County,Western Equatoria State,,,
,no,Yian PHCU,,,Visit Location;,,,,Pajiek Payam,,,,,Ayod County,Jonglei State,,,
,no,Yida Center A PHCC,,,Visit Location;,,,,Yida Payam,,,,,Pariang County,Ruweng Administrative Area,,,
,no,Yida Centre A PHCC,,,Visit Location;,,,,Werthen Payam,,,,,Pariang County,Ruweng Administrative Area,,,
,no,Yida MSF HOSPITAL,,,Visit Location;,,,,Werthen Payam,,,,,Pariang County,Ruweng Administrative Area,,,
,no,Yidit PHCU,,,Visit Location;,,,,Barmach Payam,,,,,Akobo County,Jonglei State,,,
,no,Yiik Adoor PHCU,,,Visit Location;,,,,Pathuon East Payam,,,,,Gogrial East County,Warrap State,,,
,no,Yiik Thon PHCC,,,Visit Location;,,,,Akoc Payam,,,,,Twic County,Warrap State,,,
,no,Ying PHCU,,,Visit Location;,,,,Doma Payam,,,,,Ulang County,Upper Nile State,,,
,no,Yirol County Hospital,,,Visit Location;,,,,Abang Payam,,,,,Yirol West County,Lakes State,,,
,no,Yoanyang PHCU,,,Visit Location;,,,,Abang Payam,,,,,Yirol West County,Unity State,,,
,no,Yomding PHCC,,,Visit Location;,,,,Yomding Payam,,,,,Ulang County,Upper Nile State,,,
,no,Yondoru PHCU,,,Visit Location;,,,,Mukaya Payam,,,,,Lainya County,Central Equatoria State,,,
,no,Yondu PHCU,,,Visit Location;,,,,Kimba Payam,,,,,Morobo County,Central Equatoria State,,,
,no,Yosia PHCU,,,Visit Location;,,,,Madebe Payam,,,,,Ibba County,Western Equatoria State,,,
,no,Yuai PHCC,,,Visit Location;,,,,Payai Payam,,,,,Uror County,Jonglei State,,,
,no,Yuai PHCU,,,Visit Location;,,,,Payai Payam,,,,,Uror County,Jonglei State,,,
,no,Yub PHCU,,,Visit Location;,,,,Nyal Payam,,,,,Panyijar County,Unity State,,,
,no,Yugufe PHCU,,,Visit Location;,,,,Lujulo Payam,,,,,Morobo County,Central Equatoria State,,,
,no,Yusuf Batil PHCC,,,Visit Location;,,,,Jinkuata Payam,,,,,Maban County,Upper Nile State,,,
,no,Yusuf Batil PHCU,,,Visit Location;,,,,Jinkuata Payam,,,,,Maban County,Upper Nile State,,,
,no,Zomoi PHCU,,,Visit Location;,,,,Nagero Payam,,,,,Nagero County,Western Equatoria State,,,